{"type": "FeatureCollection", "name": "linea-17", "crs": {"type": "name", "properties": {"name": "urn:ogc:def:crs:OGC:1.3:CRS84"}}, "features": [{"type": "Feature", "properties": {"fid": 1, "linea": "17", "sentido": "ida", "nombre": "Estadio Centenario - Padre Corti"}, "geometry": {"type": "LineString", "coordinates": [[-67.492617, -45.872245, 0.0], [-67.491903, -45.872864, 0.0], [-67.490317, -45.87201, 0.0], [-67.490952, -45.871395, 0.0], [-67.488047, -45.869651, 0.0], [-67.487488, -45.869534, 0.0], [-67.486512, -45.86899, 0.0], [-67.486378, -45.868086, 0.0], [-67.484424, -45.868032, 0.0], [-67.483949, -45.867999, 0.0], [-67.479998, -45.866227, 0.0], [-67.47987, -45.865863, 0.0], [-67.479863, -45.86446, 0.0], [-67.47509, -45.863379, 0.0], [-67.4749, -45.862745, 0.0], [-67.474527, -45.86227, 0.0], [-67.474295, -45.861999, 0.0], [-67.474153, -45.861582, 0.0], [-67.474224, -45.861182, 0.0], [-67.474546, -45.860818, 0.0], [-67.474959, -45.860038, 0.0], [-67.475155, -45.859601, 0.0], [-67.475376, -45.859031, 0.0], [-67.475666, -45.858165, 0.0], [-67.475914, -45.857284, 0.0], [-67.476108, -45.856637, 0.0], [-67.476122, -45.85626, 0.0], [-67.47611, -45.855914, 0.0], [-67.476167, -45.855531, 0.0], [-67.476381, -45.855085, 0.0], [-67.476761, -45.854705, 0.0], [-67.476919, -45.854597, 0.0], [-67.477234, -45.854394, 0.0], [-67.477498, -45.854094, 0.0], [-67.477655, -45.853775, 0.0], [-67.4777, -45.853545, 0.0], [-67.477656, -45.853266, 0.0], [-67.477574, -45.853111, 0.0], [-67.477212, -45.852511, 0.0], [-67.477029, -45.852234, 0.0], [-67.476798, -45.851873, 0.0], [-67.476709, -45.851574, 0.0], [-67.476723, -45.851284, 0.0], [-67.476807, -45.85084, 0.0], [-67.476935, -45.850254, 0.0], [-67.477045, -45.849847, 0.0], [-67.477058, -45.849558, 0.0], [-67.477111, -45.849199, 0.0], [-67.477074, -45.848937, 0.0], [-67.476986, -45.848759, 0.0], [-67.476833, -45.848431, 0.0], [-67.476597, -45.848231, 0.0], [-67.475588, -45.847481, 0.0], [-67.475366, -45.847305, 0.0], [-67.475193, -45.847028, 0.0], [-67.475115, -45.846791, 0.0], [-67.475094, -45.846547, 0.0], [-67.475215, -45.846199, 0.0], [-67.47538, -45.845623, 0.0], [-67.475627, -45.844864, 0.0], [-67.476055, -45.843614, 0.0], [-67.476127, -45.843347, 0.0], [-67.476204, -45.842917, 0.0], [-67.476321, -45.841996, 0.0], [-67.476383, -45.841673, 0.0], [-67.476421, -45.841293, 0.0], [-67.476444, -45.840914, 0.0], [-67.476414, -45.840331, 0.0], [-67.476399, -45.839909, 0.0], [-67.476366, -45.839687, 0.0], [-67.476293, -45.839561, 0.0], [-67.476165, -45.839493, 0.0], [-67.475382, -45.839474, 0.0], [-67.475102, -45.839497, 0.0], [-67.474871, -45.839462, 0.0], [-67.474805, -45.839356, 0.0], [-67.4748, -45.838912, 0.0], [-67.47475, -45.838027, 0.0], [-67.474878, -45.837895, 0.0], [-67.475052, -45.83789, 0.0], [-67.475453, -45.837939, 0.0], [-67.476207, -45.83808, 0.0], [-67.476733, -45.838192, 0.0], [-67.477616, -45.838359, 0.0], [-67.477888, -45.838393, 0.0], [-67.478067, -45.83831, 0.0], [-67.47818, -45.837353, 0.0], [-67.478299, -45.837016, 0.0], [-67.478264, -45.836811, 0.0], [-67.477979, -45.836776, 0.0], [-67.477643, -45.836726, 0.0], [-67.477388, -45.836578, 0.0], [-67.47746, -45.836317, 0.0], [-67.478071, -45.83598, 0.0], [-67.478213, -45.835873, 0.0], [-67.478339, -45.835706, 0.0], [-67.478416, -45.835377, 0.0], [-67.478398, -45.835086, 0.0], [-67.478281, -45.834795, 0.0], [-67.478163, -45.834453, 0.0], [-67.478001, -45.834217, 0.0], [-67.477857, -45.834057, 0.0], [-67.477441, -45.833451, 0.0], [-67.476904, -45.832825, 0.0], [-67.476307, -45.831972, 0.0], [-67.475722, -45.831333, 0.0], [-67.475206, -45.831073, 0.0], [-67.474806, -45.830866, 0.0], [-67.473393, -45.830068, 0.0], [-67.471771, -45.82916, 0.0], [-67.470639, -45.828519, 0.0], [-67.470226, -45.828334, 0.0], [-67.469966, -45.828306, 0.0], [-67.469738, -45.828421, 0.0], [-67.469538, -45.828704, 0.0], [-67.469407, -45.828851, 0.0], [-67.469235, -45.828897, 0.0], [-67.469059, -45.828857, 0.0], [-67.468767, -45.828462, 0.0], [-67.468339, -45.827816, 0.0], [-67.468189, -45.827522, 0.0], [-67.467768, -45.82698, 0.0], [-67.467433, -45.826466, 0.0], [-67.467076, -45.826025, 0.0], [-67.466372, -45.825278, 0.0], [-67.466088, -45.824931, 0.0], [-67.46593, -45.824825, 0.0], [-67.465685, -45.824771, 0.0], [-67.465392, -45.824668, 0.0], [-67.465355, -45.824475, 0.0], [-67.465461, -45.824308, 0.0], [-67.465623, -45.824219, 0.0], [-67.465761, -45.82419, 0.0], [-67.465887, -45.824065, 0.0], [-67.465887, -45.82395, 0.0], [-67.465767, -45.823835, 0.0], [-67.465631, -45.823727, 0.0], [-67.46554, -45.823573, 0.0], [-67.465596, -45.823346, 0.0], [-67.465613, -45.823162, 0.0], [-67.465583, -45.822823, 0.0], [-67.465389, -45.822384, 0.0], [-67.464965, -45.821397, 0.0], [-67.465078, -45.820685, 0.0], [-67.465395, -45.820183, 0.0], [-67.46575, -45.819786, 0.0], [-67.467265, -45.818664, 0.0], [-67.467578, -45.818426, 0.0], [-67.467728, -45.818055, 0.0], [-67.467755, -45.817858, 0.0], [-67.467852, -45.817677, 0.0], [-67.467927, -45.817602, 0.0], [-67.468083, -45.81756, 0.0], [-67.468371, -45.817563, 0.0], [-67.468792, -45.817577, 0.0], [-67.469741, -45.817613, 0.0], [-67.469855, -45.817592, 0.0], [-67.469997, -45.817486, 0.0], [-67.470578, -45.816968, 0.0], [-67.472639, -45.816013, 0.0], [-67.472699, -45.8157, 0.0], [-67.472676, -45.815539, 0.0], [-67.47283, -45.815486, 0.0], [-67.47386, -45.815541, 0.0], [-67.470661, -45.817017, 0.0], [-67.470158, -45.817501, 0.0], [-67.469818, -45.817681, 0.0], [-67.469574, -45.817688, 0.0], [-67.468732, -45.817683, 0.0], [-67.468522, -45.817611, 0.0], [-67.468519, -45.81751, 0.0], [-67.469291, -45.816413, 0.0], [-67.475038, -45.805337, 0.0], [-67.475892, -45.804028, 0.0], [-67.476858, -45.80308, 0.0], [-67.477786, -45.802339, 0.0], [-67.478736, -45.801744, 0.0], [-67.479746, -45.801192, 0.0], [-67.48085, -45.80071, 0.0], [-67.482303, -45.800221, 0.0], [-67.488271, -45.798338, 0.0], [-67.489215, -45.798002, 0.0], [-67.490212, -45.797448, 0.0], [-67.490773, -45.796992, 0.0], [-67.49117, -45.796533, 0.0], [-67.491837, -45.795218, 0.0], [-67.491874, -45.794907, 0.0], [-67.491813, -45.794665, 0.0], [-67.492061, -45.794441, 0.0], [-67.492358, -45.79445, 0.0], [-67.49237, -45.79445, 0.0], [-67.49242, -45.79445, 0.0], [-67.492495, -45.79445, 0.0], [-67.492532, -45.794459, 0.0], [-67.492606, -45.794476, 0.0], [-67.492754, -45.794709, 0.0], [-67.492728, -45.794942, 0.0], [-67.492565, -45.795114, 0.0], [-67.492317, -45.795226, 0.0], [-67.492083, -45.795399, 0.0], [-67.492107, -45.79558, 0.0], [-67.499116, -45.796399, 0.0], [-67.499354, -45.795461, 0.0], [-67.506625, -45.795932, 0.0], [-67.506439, -45.797552, 0.0], [-67.507901, -45.797627, 0.0], [-67.508122, -45.795777, 0.0], [-67.509353, -45.795563, 0.0], [-67.512539, -45.794908, 0.0], [-67.513514, -45.794679, 0.0], [-67.514111, -45.794416, 0.0], [-67.514367, -45.794433, 0.0], [-67.514635, -45.794433, 0.0], [-67.518688, -45.793656, 0.0], [-67.519028, -45.79363, 0.0], [-67.519091, -45.793138, 0.0], [-67.520752, -45.792683, 0.0], [-67.521165, -45.792492, 0.0], [-67.522481, -45.792131, 0.0], [-67.523337, -45.791833, 0.0], [-67.523917, -45.791723, 0.0], [-67.525381, -45.791486, 0.0], [-67.525449, -45.791564, 0.0]]}}, {"type": "Feature", "properties": {"fid": 2, "linea": "17", "sentido": "vuelta", "nombre": "Estadio Centenario - Padre Corti"}, "geometry": {"type": "LineString", "coordinates": [[-67.52545, -45.791561, 0.0], [-67.525619, -45.791976, 0.0], [-67.52555, -45.792039, 0.0], [-67.521496, -45.79287, 0.0], [-67.52149, -45.792967, 0.0], [-67.52201, -45.793675, 0.0], [-67.521989, -45.793738, 0.0], [-67.521813, -45.793832, 0.0], [-67.519713, -45.794187, 0.0], [-67.51953, -45.794226, 0.0], [-67.519358, -45.79408, 0.0], [-67.519266, -45.793806, 0.0], [-67.519131, -45.793682, 0.0], [-67.518646, -45.793754, 0.0], [-67.514883, -45.794461, 0.0], [-67.514715, -45.794507, 0.0], [-67.514483, -45.794488, 0.0], [-67.514147, -45.794496, 0.0], [-67.513958, -45.794575, 0.0], [-67.513606, -45.794723, 0.0], [-67.512834, -45.794915, 0.0], [-67.511042, -45.795273, 0.0], [-67.509436, -45.795599, 0.0], [-67.508178, -45.79582, 0.0], [-67.508146, -45.795896, 0.0], [-67.507948, -45.797628, 0.0], [-67.507847, -45.797671, 0.0], [-67.506464, -45.797607, 0.0], [-67.506388, -45.797553, 0.0], [-67.506522, -45.796028, 0.0], [-67.506522, -45.795967, 0.0], [-67.506433, -45.795859, 0.0], [-67.504163, -45.795739, 0.0], [-67.50092, -45.795588, 0.0], [-67.500871, -45.795722, 0.0], [-67.500634, -45.796615, 0.0], [-67.500417, -45.796572, 0.0], [-67.497762, -45.796312, 0.0], [-67.497745, -45.796363, 0.0], [-67.497707, -45.796502, 0.0], [-67.497646, -45.796863, 0.0], [-67.497557, -45.796898, 0.0], [-67.497239, -45.796894, 0.0], [-67.493644, -45.796451, 0.0], [-67.492494, -45.796349, 0.0], [-67.492382, -45.796361, 0.0], [-67.492264, -45.796364, 0.0], [-67.491896, -45.796305, 0.0], [-67.491477, -45.796273, 0.0], [-67.491397, -45.796336, 0.0], [-67.491264, -45.796551, 0.0], [-67.491007, -45.796878, 0.0], [-67.490704, -45.797185, 0.0], [-67.490258, -45.797556, 0.0], [-67.489834, -45.797801, 0.0], [-67.489367, -45.79805, 0.0], [-67.488778, -45.79827, 0.0], [-67.487105, -45.798804, 0.0], [-67.48554, -45.799289, 0.0], [-67.48378, -45.799832, 0.0], [-67.48261, -45.800225, 0.0], [-67.481605, -45.800521, 0.0], [-67.48114, -45.800712, 0.0], [-67.480644, -45.800899, 0.0], [-67.480031, -45.801162, 0.0], [-67.479194, -45.8016, 0.0], [-67.478182, -45.802199, 0.0], [-67.477309, -45.802833, 0.0], [-67.476849, -45.803265, 0.0], [-67.476332, -45.803773, 0.0], [-67.475896, -45.804278, 0.0], [-67.475559, -45.804752, 0.0], [-67.475384, -45.805001, 0.0], [-67.474936, -45.805795, 0.0], [-67.474207, -45.807176, 0.0], [-67.473421, -45.808698, 0.0], [-67.473421, -45.808874, 0.0], [-67.473473, -45.809171, 0.0], [-67.473786, -45.809626, 0.0], [-67.474012, -45.809874, 0.0], [-67.474194, -45.810002, 0.0], [-67.474472, -45.810056, 0.0], [-67.474593, -45.810201, 0.0], [-67.474446, -45.810359, 0.0], [-67.474194, -45.810367, 0.0], [-67.473707, -45.810663, 0.0], [-67.472889, -45.810973, 0.0], [-67.472466, -45.811127, 0.0], [-67.472268, -45.811379, 0.0], [-67.471941, -45.811851, 0.0], [-67.471458, -45.812724, 0.0], [-67.470953, -45.813561, 0.0], [-67.470575, -45.81429, 0.0], [-67.470209, -45.814956, 0.0], [-67.470164, -45.815227, 0.0], [-67.470227, -45.815327, 0.0], [-67.470682, -45.815436, 0.0], [-67.471943, -45.815532, 0.0], [-67.472344, -45.815537, 0.0], [-67.472559, -45.815542, 0.0], [-67.472651, -45.815637, 0.0], [-67.4727, -45.815714, 0.0], [-67.472698, -45.815943, 0.0], [-67.47264, -45.816089, 0.0], [-67.47224, -45.816287, 0.0], [-67.471123, -45.816806, 0.0], [-67.470631, -45.817019, 0.0], [-67.470255, -45.817404, 0.0], [-67.470055, -45.817561, 0.0], [-67.469843, -45.81767, 0.0], [-67.469588, -45.817687, 0.0], [-67.468845, -45.817677, 0.0], [-67.468645, -45.817655, 0.0], [-67.468516, -45.817705, 0.0], [-67.468281, -45.817939, 0.0], [-67.467827, -45.818335, 0.0], [-67.46735, -45.818694, 0.0], [-67.466437, -45.819342, 0.0], [-67.465828, -45.819815, 0.0], [-67.465399, -45.820308, 0.0], [-67.465213, -45.82076, 0.0], [-67.465299, -45.821326, 0.0], [-67.466695, -45.824028, 0.0], [-67.467042, -45.824748, 0.0], [-67.467489, -45.82566, 0.0], [-67.467825, -45.826171, 0.0], [-67.468122, -45.826647, 0.0], [-67.46881, -45.827219, 0.0], [-67.470052, -45.828127, 0.0], [-67.471198, -45.828759, 0.0], [-67.472996, -45.829738, 0.0], [-67.475086, -45.83091, 0.0], [-67.475706, -45.831235, 0.0], [-67.475974, -45.831434, 0.0], [-67.476255, -45.831771, 0.0], [-67.476793, -45.832415, 0.0], [-67.477852, -45.833932, 0.0], [-67.478014, -45.834128, 0.0], [-67.478128, -45.834182, 0.0], [-67.478315, -45.834198, 0.0], [-67.478477, -45.834198, 0.0], [-67.478567, -45.834235, 0.0], [-67.478598, -45.834364, 0.0], [-67.478534, -45.835389, 0.0], [-67.478457, -45.83602, 0.0], [-67.478433, -45.836594, 0.0], [-67.478384, -45.837073, 0.0], [-67.478123, -45.838284, 0.0], [-67.478105, -45.838472, 0.0], [-67.478159, -45.838552, 0.0], [-67.478333, -45.838606, 0.0], [-67.478735, -45.838697, 0.0], [-67.479047, -45.838781, 0.0], [-67.479195, -45.838931, 0.0], [-67.479176, -45.839118, 0.0], [-67.479174, -45.839395, 0.0], [-67.479113, -45.839573, 0.0], [-67.478986, -45.839708, 0.0], [-67.478807, -45.839749, 0.0], [-67.478348, -45.839753, 0.0], [-67.477686, -45.839763, 0.0], [-67.477022, -45.839762, 0.0], [-67.476835, -45.839763, 0.0], [-67.476685, -45.83981, 0.0], [-67.476578, -45.839905, 0.0], [-67.47652, -45.840147, 0.0], [-67.476536, -45.840617, 0.0], [-67.476521, -45.840971, 0.0], [-67.476482, -45.841493, 0.0], [-67.476389, -45.84222, 0.0], [-67.476315, -45.842771, 0.0], [-67.476275, -45.842978, 0.0], [-67.476261, -45.843313, 0.0], [-67.476137, -45.84368, 0.0], [-67.475921, -45.844223, 0.0], [-67.475315, -45.84614, 0.0], [-67.475207, -45.846589, 0.0], [-67.475254, -45.846896, 0.0], [-67.475471, -45.847261, 0.0], [-67.475818, -45.847554, 0.0], [-67.47652, -45.848073, 0.0], [-67.476844, -45.848357, 0.0], [-67.47705, -45.848566, 0.0], [-67.477271, -45.848936, 0.0], [-67.477275, -45.849431, 0.0], [-67.47718, -45.84992, 0.0], [-67.476988, -45.850611, 0.0], [-67.476834, -45.851127, 0.0], [-67.47683, -45.851427, 0.0], [-67.476833, -45.851716, 0.0], [-67.476993, -45.852023, 0.0], [-67.47753, -45.852822, 0.0], [-67.477783, -45.853323, 0.0], [-67.477812, -45.853684, 0.0], [-67.477715, -45.853992, 0.0], [-67.477382, -45.854371, 0.0], [-67.476957, -45.854687, 0.0], [-67.476548, -45.855101, 0.0], [-67.476311, -45.855477, 0.0], [-67.476225, -45.855709, 0.0], [-67.476213, -45.856045, 0.0], [-67.476183, -45.856628, 0.0], [-67.476036, -45.857236, 0.0], [-67.47598, -45.85737, 0.0], [-67.475784, -45.858123, 0.0], [-67.475707, -45.858888, 0.0], [-67.475932, -45.8593, 0.0], [-67.476537, -45.859764, 0.0], [-67.476951, -45.859921, 0.0], [-67.477648, -45.859973, 0.0], [-67.47875, -45.85997, 0.0], [-67.479569, -45.859964, 0.0], [-67.481203, -45.859968, 0.0], [-67.481395, -45.860007, 0.0], [-67.481499, -45.860186, 0.0], [-67.481529, -45.860826, 0.0], [-67.481474, -45.863627, 0.0], [-67.481498, -45.864442, 0.0], [-67.481581, -45.864609, 0.0], [-67.482082, -45.864809, 0.0], [-67.48329, -45.86535, 0.0], [-67.484211, -45.865792, 0.0], [-67.48454, -45.865913, 0.0], [-67.485082, -45.866121, 0.0], [-67.485514, -45.866304, 0.0], [-67.485943, -45.866487, 0.0], [-67.487629, -45.867559, 0.0], [-67.490113, -45.869432, 0.0], [-67.490417, -45.869627, 0.0], [-67.491384, -45.870343, 0.0], [-67.492029, -45.870733, 0.0], [-67.49252, -45.871015, 0.0], [-67.492853, -45.871165, 0.0], [-67.493103, -45.871298, 0.0], [-67.493352, -45.871489, 0.0], [-67.493296, -45.871697, 0.0], [-67.493097, -45.871915, 0.0], [-67.492692, -45.872183, 0.0]]}}]}