{
"type": "FeatureCollection",
"name": "linea-19",
"crs": { "type": "name", "properties": { "name": "urn:ogc:def:crs:OGC:1.3:CRS84" } },
"features": [
{ "type": "Feature", "properties": { "fid": 1, "linea": "19", "sentido": "vuelta", "nombre": "Estadio Centenario - Caleta Córdova" }, "geometry": { "type": "LineString", "coordinates": [ [ -67.381123, -45.741174, 0.0 ], [ -67.381041, -45.741114, 0.0 ], [ -67.379799, -45.740835, 0.0 ], [ -67.379651, -45.740878, 0.0 ], [ -67.379559, -45.741012, 0.0 ], [ -67.379381, -45.74138, 0.0 ], [ -67.379256, -45.741658, 0.0 ], [ -67.379107, -45.741932, 0.0 ], [ -67.379064, -45.742119, 0.0 ], [ -67.378866, -45.742517, 0.0 ], [ -67.378653, -45.742991, 0.0 ], [ -67.378522, -45.743282, 0.0 ], [ -67.378482, -45.743496, 0.0 ], [ -67.378433, -45.743765, 0.0 ], [ -67.378411, -45.744169, 0.0 ], [ -67.378429, -45.744776, 0.0 ], [ -67.378438, -45.745318, 0.0 ], [ -67.378467, -45.745804, 0.0 ], [ -67.378439, -45.746289, 0.0 ], [ -67.378401, -45.746813, 0.0 ], [ -67.378414, -45.74736, 0.0 ], [ -67.378499, -45.748096, 0.0 ], [ -67.37855, -45.74869, 0.0 ], [ -67.378587, -45.749124, 0.0 ], [ -67.378546, -45.749431, 0.0 ], [ -67.378399, -45.749715, 0.0 ], [ -67.378084, -45.750023, 0.0 ], [ -67.377426, -45.750586, 0.0 ], [ -67.376893, -45.750985, 0.0 ], [ -67.376305, -45.751372, 0.0 ], [ -67.375679, -45.751781, 0.0 ], [ -67.375329, -45.752126, 0.0 ], [ -67.374439, -45.752609, 0.0 ], [ -67.373334, -45.753257, 0.0 ], [ -67.373164, -45.753484, 0.0 ], [ -67.373095, -45.753703, 0.0 ], [ -67.372969, -45.753967, 0.0 ], [ -67.37244, -45.754961, 0.0 ], [ -67.372288, -45.755268, 0.0 ], [ -67.372249, -45.755457, 0.0 ], [ -67.372287, -45.755598, 0.0 ], [ -67.372339, -45.755816, 0.0 ], [ -67.372519, -45.756005, 0.0 ], [ -67.373239, -45.756491, 0.0 ], [ -67.373711, -45.756812, 0.0 ], [ -67.374291, -45.757248, 0.0 ], [ -67.374699, -45.757768, 0.0 ], [ -67.37494, -45.758359, 0.0 ], [ -67.376156, -45.761571, 0.0 ], [ -67.376687, -45.763122, 0.0 ], [ -67.377172, -45.764347, 0.0 ], [ -67.377607, -45.76564, 0.0 ], [ -67.377959, -45.766549, 0.0 ], [ -67.378126, -45.767175, 0.0 ], [ -67.378145, -45.767512, 0.0 ], [ -67.378013, -45.76844, 0.0 ], [ -67.378029, -45.769164, 0.0 ], [ -67.378167, -45.769586, 0.0 ], [ -67.378649, -45.770028, 0.0 ], [ -67.379196, -45.770333, 0.0 ], [ -67.380749, -45.770957, 0.0 ], [ -67.381651, -45.77126, 0.0 ], [ -67.382153, -45.771584, 0.0 ], [ -67.382518, -45.771834, 0.0 ], [ -67.382655, -45.772217, 0.0 ], [ -67.382702, -45.772727, 0.0 ], [ -67.382462, -45.773577, 0.0 ], [ -67.382159, -45.774697, 0.0 ], [ -67.382251, -45.775344, 0.0 ], [ -67.382508, -45.775805, 0.0 ], [ -67.38281, -45.776139, 0.0 ], [ -67.383756, -45.776812, 0.0 ], [ -67.387806, -45.779556, 0.0 ], [ -67.388504, -45.77998, 0.0 ], [ -67.389736, -45.780539, 0.0 ], [ -67.393161, -45.781394, 0.0 ], [ -67.397737, -45.782537, 0.0 ], [ -67.399695, -45.783033, 0.0 ], [ -67.401539, -45.783546, 0.0 ], [ -67.403347, -45.784046, 0.0 ], [ -67.405609, -45.784989, 0.0 ], [ -67.408446, -45.786112, 0.0 ], [ -67.409139, -45.786403, 0.0 ], [ -67.4098, -45.786749, 0.0 ], [ -67.413425, -45.788211, 0.0 ], [ -67.416237, -45.789339, 0.0 ], [ -67.416772, -45.789605, 0.0 ], [ -67.417246, -45.789864, 0.0 ], [ -67.41893, -45.791299, 0.0 ], [ -67.420109, -45.792303, 0.0 ], [ -67.420524, -45.792709, 0.0 ], [ -67.422126, -45.794584, 0.0 ], [ -67.422584, -45.795041, 0.0 ], [ -67.422937, -45.7953, 0.0 ], [ -67.423203, -45.795487, 0.0 ], [ -67.423204, -45.795619, 0.0 ], [ -67.423041, -45.795822, 0.0 ], [ -67.422446, -45.796314, 0.0 ], [ -67.422032, -45.796627, 0.0 ], [ -67.421902, -45.796815, 0.0 ], [ -67.421919, -45.797026, 0.0 ], [ -67.422066, -45.79722, 0.0 ], [ -67.422292, -45.797432, 0.0 ], [ -67.422491, -45.797936, 0.0 ], [ -67.424326, -45.801187, 0.0 ], [ -67.424732, -45.80173, 0.0 ], [ -67.424958, -45.801941, 0.0 ], [ -67.427629, -45.803298, 0.0 ], [ -67.432519, -45.806138, 0.0 ], [ -67.433112, -45.806511, 0.0 ], [ -67.433639, -45.806878, 0.0 ], [ -67.434002, -45.807318, 0.0 ], [ -67.434598, -45.807922, 0.0 ], [ -67.435167, -45.808386, 0.0 ], [ -67.435904, -45.808657, 0.0 ], [ -67.43675, -45.808802, 0.0 ], [ -67.438534, -45.809042, 0.0 ], [ -67.440868, -45.809375, 0.0 ], [ -67.441595, -45.809487, 0.0 ], [ -67.442031, -45.809523, 0.0 ], [ -67.442724, -45.809524, 0.0 ], [ -67.444051, -45.809351, 0.0 ], [ -67.447084, -45.808934, 0.0 ], [ -67.448183, -45.808702, 0.0 ], [ -67.449263, -45.808393, 0.0 ], [ -67.449868, -45.808161, 0.0 ], [ -67.450549, -45.808005, 0.0 ], [ -67.451283, -45.808069, 0.0 ], [ -67.452532, -45.808123, 0.0 ], [ -67.453638, -45.808278, 0.0 ], [ -67.454263, -45.808398, 0.0 ], [ -67.454673, -45.808644, 0.0 ], [ -67.45487, -45.808921, 0.0 ], [ -67.454988, -45.809402, 0.0 ], [ -67.455127, -45.809921, 0.0 ], [ -67.455317, -45.810234, 0.0 ], [ -67.455405, -45.810462, 0.0 ], [ -67.455384, -45.810895, 0.0 ], [ -67.455338, -45.811244, 0.0 ], [ -67.455575, -45.811882, 0.0 ], [ -67.456196, -45.814052, 0.0 ], [ -67.457177, -45.817294, 0.0 ], [ -67.457228, -45.817669, 0.0 ], [ -67.457176, -45.818043, 0.0 ], [ -67.456987, -45.819019, 0.0 ], [ -67.456849, -45.819737, 0.0 ], [ -67.456766, -45.820324, 0.0 ], [ -67.457094, -45.821121, 0.0 ], [ -67.457284, -45.821586, 0.0 ], [ -67.457934, -45.822015, 0.0 ], [ -67.458805, -45.822215, 0.0 ], [ -67.459898, -45.82246, 0.0 ], [ -67.460714, -45.822794, 0.0 ], [ -67.461633, -45.823292, 0.0 ], [ -67.462793, -45.823874, 0.0 ], [ -67.463434, -45.824078, 0.0 ], [ -67.46451, -45.824198, 0.0 ], [ -67.465284, -45.824218, 0.0 ], [ -67.465656, -45.824178, 0.0 ], [ -67.46599, -45.824198, 0.0 ], [ -67.466231, -45.824218, 0.0 ], [ -67.467001, -45.824094, 0.0 ], [ -67.467762, -45.823781, 0.0 ], [ -67.468099, -45.823492, 0.0 ], [ -67.468241, -45.823229, 0.0 ], [ -67.468153, -45.823003, 0.0 ], [ -67.467919, -45.822851, 0.0 ], [ -67.467702, -45.822746, 0.0 ], [ -67.467343, -45.822721, 0.0 ], [ -67.467019, -45.822789, 0.0 ], [ -67.46669, -45.823, 0.0 ], [ -67.466511, -45.823341, 0.0 ], [ -67.46659, -45.823774, 0.0 ], [ -67.466825, -45.824322, 0.0 ], [ -67.467612, -45.825986, 0.0 ], [ -67.468586, -45.827955, 0.0 ], [ -67.468925, -45.828529, 0.0 ], [ -67.470234, -45.830053, 0.0 ], [ -67.472104, -45.832268, 0.0 ], [ -67.473694, -45.833939, 0.0 ], [ -67.474621, -45.83475, 0.0 ], [ -67.475276, -45.835347, 0.0 ], [ -67.475631, -45.835681, 0.0 ], [ -67.476, -45.835987, 0.0 ], [ -67.476253, -45.836272, 0.0 ], [ -67.476453, -45.836593, 0.0 ], [ -67.476507, -45.836949, 0.0 ], [ -67.476539, -45.837224, 0.0 ], [ -67.476459, -45.837691, 0.0 ], [ -67.476457, -45.838089, 0.0 ], [ -67.476574, -45.838182, 0.0 ], [ -67.476652, -45.838297, 0.0 ], [ -67.476668, -45.839275, 0.0 ], [ -67.47666, -45.839634, 0.0 ], [ -67.476677, -45.839754, 0.0 ], [ -67.476613, -45.839893, 0.0 ], [ -67.476543, -45.840025, 0.0 ], [ -67.476536, -45.840643, 0.0 ], [ -67.476546, -45.841294, 0.0 ], [ -67.476437, -45.841775, 0.0 ], [ -67.476315, -45.84266, 0.0 ], [ -67.476212, -45.843268, 0.0 ], [ -67.476116, -45.843611, 0.0 ], [ -67.4759, -45.844305, 0.0 ], [ -67.475333, -45.846022, 0.0 ], [ -67.475191, -45.846724, 0.0 ], [ -67.475288, -45.846983, 0.0 ], [ -67.475425, -45.847252, 0.0 ], [ -67.47571, -45.847492, 0.0 ], [ -67.476627, -45.848191, 0.0 ], [ -67.477035, -45.848603, 0.0 ], [ -67.477182, -45.848978, 0.0 ], [ -67.47727, -45.849286, 0.0 ], [ -67.477285, -45.849468, 0.0 ], [ -67.47712, -45.850094, 0.0 ], [ -67.47683, -45.851161, 0.0 ], [ -67.476854, -45.851632, 0.0 ], [ -67.476983, -45.852017, 0.0 ], [ -67.477646, -45.852903, 0.0 ], [ -67.477784, -45.85327, 0.0 ], [ -67.477811, -45.853584, 0.0 ], [ -67.477756, -45.853974, 0.0 ], [ -67.477484, -45.854337, 0.0 ], [ -67.477058, -45.854659, 0.0 ], [ -67.476561, -45.855041, 0.0 ], [ -67.47646, -45.855197, 0.0 ], [ -67.476259, -45.855626, 0.0 ], [ -67.476225, -45.856123, 0.0 ], [ -67.476216, -45.856601, 0.0 ], [ -67.475962, -45.85756, 0.0 ], [ -67.4758, -45.858079, 0.0 ], [ -67.475689, -45.858637, 0.0 ], [ -67.475809, -45.859013, 0.0 ], [ -67.476126, -45.859489, 0.0 ], [ -67.476629, -45.859793, 0.0 ], [ -67.47725, -45.859946, 0.0 ], [ -67.478403, -45.859943, 0.0 ], [ -67.479824, -45.85997, 0.0 ], [ -67.480987, -45.859979, 0.0 ], [ -67.481279, -45.859985, 0.0 ], [ -67.481449, -45.860031, 0.0 ], [ -67.481475, -45.860256, 0.0 ], [ -67.481525, -45.863732, 0.0 ], [ -67.481456, -45.864524, 0.0 ], [ -67.481905, -45.864756, 0.0 ], [ -67.484261, -45.86587, 0.0 ], [ -67.484603, -45.865987, 0.0 ], [ -67.485617, -45.866349, 0.0 ], [ -67.486674, -45.866967, 0.0 ], [ -67.489243, -45.868709, 0.0 ], [ -67.490816, -45.869957, 0.0 ], [ -67.491655, -45.870497, 0.0 ], [ -67.492297, -45.870946, 0.0 ], [ -67.493124, -45.871335, 0.0 ], [ -67.493413, -45.871519, 0.0 ], [ -67.493352, -45.871701, 0.0 ], [ -67.493003, -45.871951, 0.0 ], [ -67.492687, -45.872241, 0.0 ] ] } },
{ "type": "Feature", "properties": { "fid": 2, "linea": "19", "sentido": "ida", "nombre": "Estadio Centenario - Caleta Córdova" }, "geometry": { "type": "LineString", "coordinates": [ [ -67.492629, -45.872283, 0.0 ], [ -67.491687, -45.872945, 0.0 ], [ -67.486332, -45.869755, 0.0 ], [ -67.486243, -45.869069, 0.0 ], [ -67.48417, -45.868105, 0.0 ], [ -67.48216, -45.867177, 0.0 ], [ -67.480286, -45.866345, 0.0 ], [ -67.480162, -45.866268, 0.0 ], [ -67.480037, -45.866166, 0.0 ], [ -67.479941, -45.866038, 0.0 ], [ -67.479939, -45.864598, 0.0 ], [ -67.479813, -45.86447, 0.0 ], [ -67.475402, -45.863566, 0.0 ], [ -67.4752, -45.863421, 0.0 ], [ -67.475177, -45.863405, 0.0 ], [ -67.475168, -45.863392, 0.0 ], [ -67.475145, -45.863376, 0.0 ], [ -67.475131, -45.863364, 0.0 ], [ -67.475118, -45.863347, 0.0 ], [ -67.475104, -45.863331, 0.0 ], [ -67.475095, -45.863312, 0.0 ], [ -67.475086, -45.8633, 0.0 ], [ -67.475086, -45.863296, 0.0 ], [ -67.475038, -45.863159, 0.0 ], [ -67.475012, -45.862974, 0.0 ], [ -67.474875, -45.862727, 0.0 ], [ -67.474697, -45.8625, 0.0 ], [ -67.474109, -45.861816, 0.0 ], [ -67.474073, -45.861608, 0.0 ], [ -67.474153, -45.861447, 0.0 ], [ -67.4744, -45.860917, 0.0 ], [ -67.474879, -45.860137, 0.0 ], [ -67.47501, -45.859904, 0.0 ], [ -67.475112, -45.859708, 0.0 ], [ -67.475228, -45.859381, 0.0 ], [ -67.475381, -45.859086, 0.0 ], [ -67.475552, -45.858533, 0.0 ], [ -67.475883, -45.857406, 0.0 ], [ -67.476047, -45.856787, 0.0 ], [ -67.476109, -45.856528, 0.0 ], [ -67.47611, -45.85629, 0.0 ], [ -67.47609, -45.855829, 0.0 ], [ -67.476159, -45.855522, 0.0 ], [ -67.476283, -45.855247, 0.0 ], [ -67.476529, -45.854931, 0.0 ], [ -67.477193, -45.854413, 0.0 ], [ -67.477401, -45.854212, 0.0 ], [ -67.477544, -45.854087, 0.0 ], [ -67.477632, -45.853857, 0.0 ], [ -67.477686, -45.8536, 0.0 ], [ -67.477652, -45.853329, 0.0 ], [ -67.477468, -45.852937, 0.0 ], [ -67.477309, -45.852673, 0.0 ], [ -67.47711, -45.852372, 0.0 ], [ -67.476878, -45.852019, 0.0 ], [ -67.47679, -45.851815, 0.0 ], [ -67.476716, -45.851564, 0.0 ], [ -67.476716, -45.851341, 0.0 ], [ -67.476757, -45.851075, 0.0 ], [ -67.476818, -45.85076, 0.0 ], [ -67.47692, -45.850445, 0.0 ], [ -67.476975, -45.850125, 0.0 ], [ -67.47703, -45.849922, 0.0 ], [ -67.477092, -45.849476, 0.0 ], [ -67.47714, -45.849192, 0.0 ], [ -67.477047, -45.848878, 0.0 ], [ -67.476895, -45.84861, 0.0 ], [ -67.476738, -45.848399, 0.0 ], [ -67.476476, -45.848172, 0.0 ], [ -67.476009, -45.847802, 0.0 ], [ -67.475726, -45.847614, 0.0 ], [ -67.475485, -45.847425, 0.0 ], [ -67.475308, -45.847242, 0.0 ], [ -67.475189, -45.847022, 0.0 ], [ -67.475116, -45.846839, 0.0 ], [ -67.475116, -45.84666, 0.0 ], [ -67.475156, -45.846457, 0.0 ], [ -67.475294, -45.84588, 0.0 ], [ -67.475565, -45.845021, 0.0 ], [ -67.475799, -45.844286, 0.0 ], [ -67.476077, -45.843463, 0.0 ], [ -67.47614, -45.843152, 0.0 ], [ -67.476264, -45.842294, 0.0 ], [ -67.476377, -45.841598, 0.0 ], [ -67.476421, -45.84111, 0.0 ], [ -67.476434, -45.840612, 0.0 ], [ -67.476413, -45.839951, 0.0 ], [ -67.476392, -45.839635, 0.0 ], [ -67.476243, -45.839522, 0.0 ], [ -67.475974, -45.839481, 0.0 ], [ -67.475935, -45.839477, 0.0 ], [ -67.475919, -45.839477, 0.0 ], [ -67.475886, -45.839477, 0.0 ], [ -67.475853, -45.839477, 0.0 ], [ -67.47582, -45.839477, 0.0 ], [ -67.475787, -45.839477, 0.0 ], [ -67.47576, -45.839477, 0.0 ], [ -67.475732, -45.839478, 0.0 ], [ -67.475716, -45.839478, 0.0 ], [ -67.475688, -45.839485, 0.0 ], [ -67.475661, -45.839485, 0.0 ], [ -67.475655, -45.839485, 0.0 ], [ -67.474913, -45.839482, 0.0 ], [ -67.474819, -45.839422, 0.0 ], [ -67.47478, -45.839322, 0.0 ], [ -67.474772, -45.839105, 0.0 ], [ -67.474757, -45.837882, 0.0 ], [ -67.474833, -45.837823, 0.0 ], [ -67.475063, -45.837835, 0.0 ], [ -67.476097, -45.838068, 0.0 ], [ -67.476269, -45.838088, 0.0 ], [ -67.476332, -45.838045, 0.0 ], [ -67.476414, -45.837277, 0.0 ], [ -67.4763, -45.836724, 0.0 ], [ -67.476115, -45.83637, 0.0 ], [ -67.475714, -45.835898, 0.0 ], [ -67.474853, -45.83504, 0.0 ], [ -67.47374, -45.83418, 0.0 ], [ -67.471916, -45.832177, 0.0 ], [ -67.470147, -45.830096, 0.0 ], [ -67.469126, -45.828923, 0.0 ], [ -67.469058, -45.828808, 0.0 ], [ -67.468786, -45.828487, 0.0 ], [ -67.468483, -45.827939, 0.0 ], [ -67.468161, -45.827475, 0.0 ], [ -67.467983, -45.8272, 0.0 ], [ -67.467838, -45.827004, 0.0 ], [ -67.467626, -45.826683, 0.0 ], [ -67.467282, -45.826284, 0.0 ], [ -67.466827, -45.825767, 0.0 ], [ -67.466346, -45.825221, 0.0 ], [ -67.466186, -45.824999, 0.0 ], [ -67.466033, -45.824859, 0.0 ], [ -67.46585, -45.824777, 0.0 ], [ -67.465733, -45.82476, 0.0 ], [ -67.465595, -45.824753, 0.0 ], [ -67.465458, -45.824702, 0.0 ], [ -67.465358, -45.824618, 0.0 ], [ -67.46531, -45.8245, 0.0 ], [ -67.465237, -45.824434, 0.0 ], [ -67.465088, -45.824365, 0.0 ], [ -67.464931, -45.824346, 0.0 ], [ -67.464733, -45.824336, 0.0 ], [ -67.46457, -45.824309, 0.0 ], [ -67.464294, -45.824289, 0.0 ], [ -67.463969, -45.824241, 0.0 ], [ -67.463551, -45.824187, 0.0 ], [ -67.463167, -45.824095, 0.0 ], [ -67.462825, -45.824002, 0.0 ], [ -67.462535, -45.823872, 0.0 ], [ -67.461226, -45.823203, 0.0 ], [ -67.460729, -45.822936, 0.0 ], [ -67.460203, -45.822659, 0.0 ], [ -67.459595, -45.822522, 0.0 ], [ -67.458917, -45.822378, 0.0 ], [ -67.458551, -45.822334, 0.0 ], [ -67.458276, -45.822355, 0.0 ], [ -67.458, -45.822386, 0.0 ], [ -67.457853, -45.822351, 0.0 ], [ -67.457669, -45.822295, 0.0 ], [ -67.457582, -45.822194, 0.0 ], [ -67.457325, -45.821901, 0.0 ], [ -67.456923, -45.82138, 0.0 ], [ -67.456747, -45.82104, 0.0 ], [ -67.45661, -45.82071, 0.0 ], [ -67.456458, -45.820375, 0.0 ], [ -67.456292, -45.819883, 0.0 ], [ -67.456221, -45.819535, 0.0 ], [ -67.456222, -45.819358, 0.0 ], [ -67.456361, -45.819221, 0.0 ], [ -67.456528, -45.819185, 0.0 ], [ -67.456689, -45.819185, 0.0 ], [ -67.456827, -45.81914, 0.0 ], [ -67.456892, -45.818988, 0.0 ], [ -67.457031, -45.818342, 0.0 ], [ -67.457111, -45.817918, 0.0 ], [ -67.457155, -45.817561, 0.0 ], [ -67.457097, -45.817283, 0.0 ], [ -67.456967, -45.816763, 0.0 ], [ -67.456408, -45.815023, 0.0 ], [ -67.456235, -45.814453, 0.0 ], [ -67.455997, -45.813606, 0.0 ], [ -67.455537, -45.812045, 0.0 ], [ -67.455335, -45.811406, 0.0 ], [ -67.455226, -45.811148, 0.0 ], [ -67.455031, -45.810896, 0.0 ], [ -67.454895, -45.810725, 0.0 ], [ -67.454715, -45.810413, 0.0 ], [ -67.45473, -45.810247, 0.0 ], [ -67.454839, -45.809996, 0.0 ], [ -67.454904, -45.809739, 0.0 ], [ -67.454875, -45.809487, 0.0 ], [ -67.454747, -45.809015, 0.0 ], [ -67.454625, -45.808744, 0.0 ], [ -67.454322, -45.808538, 0.0 ], [ -67.454062, -45.808431, 0.0 ], [ -67.45349, -45.808334, 0.0 ], [ -67.45295, -45.808267, 0.0 ], [ -67.452575, -45.808239, 0.0 ], [ -67.452288, -45.80827, 0.0 ], [ -67.451829, -45.808386, 0.0 ], [ -67.451308, -45.808522, 0.0 ], [ -67.450688, -45.808618, 0.0 ], [ -67.450185, -45.80865, 0.0 ], [ -67.449536, -45.808608, 0.0 ], [ -67.449148, -45.808608, 0.0 ], [ -67.448654, -45.808725, 0.0 ], [ -67.448261, -45.808799, 0.0 ], [ -67.447658, -45.808927, 0.0 ], [ -67.446791, -45.80906, 0.0 ], [ -67.445615, -45.809216, 0.0 ], [ -67.445022, -45.8093, 0.0 ], [ -67.444109, -45.809454, 0.0 ], [ -67.44315, -45.809578, 0.0 ], [ -67.442666, -45.809617, 0.0 ], [ -67.442047, -45.809612, 0.0 ], [ -67.441577, -45.809582, 0.0 ], [ -67.440851, -45.809467, 0.0 ], [ -67.440287, -45.809376, 0.0 ], [ -67.437604, -45.809011, 0.0 ], [ -67.437049, -45.80894, 0.0 ], [ -67.436378, -45.808838, 0.0 ], [ -67.435872, -45.808762, 0.0 ], [ -67.435525, -45.80864, 0.0 ], [ -67.435206, -45.808508, 0.0 ], [ -67.434916, -45.808328, 0.0 ], [ -67.43456, -45.80801, 0.0 ], [ -67.434009, -45.807469, 0.0 ], [ -67.433743, -45.807125, 0.0 ], [ -67.433317, -45.806741, 0.0 ], [ -67.432984, -45.806503, 0.0 ], [ -67.431876, -45.805841, 0.0 ], [ -67.430572, -45.80506, 0.0 ], [ -67.428511, -45.803897, 0.0 ], [ -67.427401, -45.803276, 0.0 ], [ -67.42676, -45.802971, 0.0 ], [ -67.425928, -45.802527, 0.0 ], [ -67.425115, -45.80209, 0.0 ], [ -67.424818, -45.801917, 0.0 ], [ -67.424565, -45.801612, 0.0 ], [ -67.424356, -45.801322, 0.0 ], [ -67.424109, -45.80087, 0.0 ], [ -67.422964, -45.798897, 0.0 ], [ -67.422104, -45.797341, 0.0 ], [ -67.421807, -45.797105, 0.0 ], [ -67.421846, -45.796785, 0.0 ], [ -67.421924, -45.796549, 0.0 ], [ -67.422358, -45.79627, 0.0 ], [ -67.422831, -45.795937, 0.0 ], [ -67.42297, -45.795619, 0.0 ], [ -67.422733, -45.795288, 0.0 ], [ -67.421924, -45.794377, 0.0 ], [ -67.420542, -45.792748, 0.0 ], [ -67.419555, -45.791892, 0.0 ], [ -67.417738, -45.790303, 0.0 ], [ -67.417105, -45.789804, 0.0 ], [ -67.416034, -45.78929, 0.0 ], [ -67.414146, -45.788535, 0.0 ], [ -67.409251, -45.786522, 0.0 ], [ -67.403513, -45.784155, 0.0 ], [ -67.4025, -45.783835, 0.0 ], [ -67.398455, -45.782757, 0.0 ], [ -67.389673, -45.780523, 0.0 ], [ -67.388849, -45.780177, 0.0 ], [ -67.387987, -45.779723, 0.0 ], [ -67.385879, -45.778251, 0.0 ], [ -67.383013, -45.776313, 0.0 ], [ -67.38252, -45.775858, 0.0 ], [ -67.382229, -45.775351, 0.0 ], [ -67.382117, -45.774749, 0.0 ], [ -67.382698, -45.772621, 0.0 ], [ -67.382607, -45.772046, 0.0 ], [ -67.382292, -45.771676, 0.0 ], [ -67.381634, -45.771233, 0.0 ], [ -67.380433, -45.77085, 0.0 ], [ -67.379425, -45.770457, 0.0 ], [ -67.378627, -45.770123, 0.0 ], [ -67.378208, -45.769679, 0.0 ], [ -67.377943, -45.769247, 0.0 ], [ -67.377959, -45.768637, 0.0 ], [ -67.378053, -45.768012, 0.0 ], [ -67.378121, -45.7673, 0.0 ], [ -67.377984, -45.766649, 0.0 ], [ -67.377768, -45.766013, 0.0 ], [ -67.377414, -45.765211, 0.0 ], [ -67.377021, -45.764188, 0.0 ], [ -67.376532, -45.762626, 0.0 ], [ -67.37599, -45.76121, 0.0 ], [ -67.375696, -45.760463, 0.0 ], [ -67.374619, -45.757847, 0.0 ], [ -67.374344, -45.757309, 0.0 ], [ -67.373716, -45.756826, 0.0 ], [ -67.372908, -45.756375, 0.0 ], [ -67.372316, -45.755921, 0.0 ], [ -67.37214, -45.755412, 0.0 ], [ -67.372438, -45.754806, 0.0 ], [ -67.372715, -45.754311, 0.0 ], [ -67.372913, -45.753787, 0.0 ], [ -67.373183, -45.753206, 0.0 ], [ -67.37374, -45.75293, 0.0 ], [ -67.37469, -45.752476, 0.0 ], [ -67.375421, -45.752093, 0.0 ], [ -67.375818, -45.751665, 0.0 ], [ -67.376453, -45.751252, 0.0 ], [ -67.377661, -45.750136, 0.0 ], [ -67.378357, -45.749625, 0.0 ], [ -67.378499, -45.749139, 0.0 ], [ -67.378424, -45.748295, 0.0 ], [ -67.378288, -45.747175, 0.0 ], [ -67.378409, -45.746305, 0.0 ], [ -67.378409, -45.745445, 0.0 ], [ -67.378357, -45.744461, 0.0 ], [ -67.378355, -45.743827, 0.0 ], [ -67.378425, -45.743297, 0.0 ], [ -67.379064, -45.741908, 0.0 ], [ -67.379093, -45.741805, 0.0 ], [ -67.380726, -45.742107, 0.0 ], [ -67.381133, -45.741174, 0.0 ] ] } }
]
}
