{
"type": "FeatureCollection",
"name": "linea-22",
"crs": { "type": "name", "properties": { "name": "urn:ogc:def:crs:OGC:1.3:CRS84" } },
"features": [
{ "type": "Feature", "properties": { "fid": 1, "linea": "22", "sentido": "vuelta", "nombre": "Estadio Centenario - Standard - Km 11" }, "geometry": { "type": "LineString", "coordinates": [ [ -67.444298, -45.763653, 0.0 ], [ -67.44434, -45.76363, 0.0 ], [ -67.444425, -45.763612, 0.0 ], [ -67.444624, -45.763617, 0.0 ], [ -67.444721, -45.763662, 0.0 ], [ -67.444754, -45.763724, 0.0 ], [ -67.444725, -45.763808, 0.0 ], [ -67.44465, -45.763864, 0.0 ], [ -67.444549, -45.763871, 0.0 ], [ -67.444275, -45.763898, 0.0 ], [ -67.444216, -45.763971, 0.0 ], [ -67.444138, -45.764242, 0.0 ], [ -67.44357, -45.765732, 0.0 ], [ -67.44346, -45.765994, 0.0 ], [ -67.44341, -45.766228, 0.0 ], [ -67.443276, -45.766736, 0.0 ], [ -67.443002, -45.767901, 0.0 ], [ -67.442934, -45.768181, 0.0 ], [ -67.44283, -45.768463, 0.0 ], [ -67.442729, -45.768755, 0.0 ], [ -67.442633, -45.769024, 0.0 ], [ -67.442457, -45.769423, 0.0 ], [ -67.441987, -45.770494, 0.0 ], [ -67.44182, -45.770887, 0.0 ], [ -67.441734, -45.771107, 0.0 ], [ -67.441589, -45.771462, 0.0 ], [ -67.441495, -45.771591, 0.0 ], [ -67.44148, -45.772882, 0.0 ], [ -67.441556, -45.773747, 0.0 ], [ -67.441293, -45.77548, 0.0 ], [ -67.441313, -45.776108, 0.0 ], [ -67.441151, -45.776533, 0.0 ], [ -67.440339, -45.77722, 0.0 ], [ -67.439632, -45.777767, 0.0 ], [ -67.439053, -45.778083, 0.0 ], [ -67.438817, -45.778188, 0.0 ], [ -67.43894, -45.77867, 0.0 ], [ -67.439523, -45.780592, 0.0 ], [ -67.440582, -45.783905, 0.0 ], [ -67.440622, -45.784089, 0.0 ], [ -67.440708, -45.784281, 0.0 ], [ -67.440708, -45.784364, 0.0 ], [ -67.440626, -45.784474, 0.0 ], [ -67.440458, -45.784575, 0.0 ], [ -67.440279, -45.784697, 0.0 ], [ -67.440035, -45.78481, 0.0 ], [ -67.439467, -45.785045, 0.0 ], [ -67.439329, -45.785122, 0.0 ], [ -67.438992, -45.78544, 0.0 ], [ -67.438459, -45.785834, 0.0 ], [ -67.436471, -45.78714, 0.0 ], [ -67.436193, -45.787325, 0.0 ], [ -67.436117, -45.787395, 0.0 ], [ -67.436034, -45.787441, 0.0 ], [ -67.43593, -45.78747, 0.0 ], [ -67.435826, -45.787429, 0.0 ], [ -67.435113, -45.787399, 0.0 ], [ -67.43401, -45.7875, 0.0 ], [ -67.432881, -45.787876, 0.0 ], [ -67.432075, -45.788261, 0.0 ], [ -67.431722, -45.78851, 0.0 ], [ -67.431538, -45.788691, 0.0 ], [ -67.431359, -45.788835, 0.0 ], [ -67.43127, -45.78894, 0.0 ], [ -67.431301, -45.788991, 0.0 ], [ -67.431351, -45.789114, 0.0 ], [ -67.431368, -45.789348, 0.0 ], [ -67.431419, -45.791557, 0.0 ], [ -67.431669, -45.794968, 0.0 ], [ -67.431712, -45.795288, 0.0 ], [ -67.431574, -45.795376, 0.0 ], [ -67.431183, -45.795347, 0.0 ], [ -67.43027, -45.795278, 0.0 ], [ -67.429387, -45.795231, 0.0 ], [ -67.428912, -45.795231, 0.0 ], [ -67.428626, -45.795231, 0.0 ], [ -67.428425, -45.795276, 0.0 ], [ -67.428332, -45.795336, 0.0 ], [ -67.428286, -45.79544, 0.0 ], [ -67.428236, -45.795532, 0.0 ], [ -67.428252, -45.795681, 0.0 ], [ -67.428188, -45.795828, 0.0 ], [ -67.42802, -45.795865, 0.0 ], [ -67.427171, -45.795918, 0.0 ], [ -67.426885, -45.795946, 0.0 ], [ -67.426681, -45.795987, 0.0 ], [ -67.426641, -45.796009, 0.0 ], [ -67.42659, -45.796036, 0.0 ], [ -67.42607, -45.796361, 0.0 ], [ -67.425853, -45.796448, 0.0 ], [ -67.424886, -45.796693, 0.0 ], [ -67.424714, -45.796726, 0.0 ], [ -67.424607, -45.79672, 0.0 ], [ -67.424488, -45.796701, 0.0 ], [ -67.4241, -45.796472, 0.0 ], [ -67.423118, -45.795878, 0.0 ], [ -67.423022, -45.795867, 0.0 ], [ -67.423002, -45.795872, 0.0 ], [ -67.422978, -45.795872, 0.0 ], [ -67.422962, -45.79588, 0.0 ], [ -67.42295, -45.795891, 0.0 ], [ -67.422778, -45.796052, 0.0 ], [ -67.42196, -45.796724, 0.0 ], [ -67.421906, -45.796822, 0.0 ], [ -67.421932, -45.796993, 0.0 ], [ -67.422941, -45.798709, 0.0 ], [ -67.423032, -45.798893, 0.0 ], [ -67.423061, -45.798973, 0.0 ], [ -67.423506, -45.799728, 0.0 ], [ -67.424244, -45.80103, 0.0 ], [ -67.424526, -45.801463, 0.0 ], [ -67.424666, -45.801635, 0.0 ], [ -67.424798, -45.801806, 0.0 ], [ -67.424949, -45.801934, 0.0 ], [ -67.425173, -45.802053, 0.0 ], [ -67.426605, -45.802835, 0.0 ], [ -67.427718, -45.803413, 0.0 ], [ -67.429286, -45.804273, 0.0 ], [ -67.43018, -45.804788, 0.0 ], [ -67.432679, -45.806252, 0.0 ], [ -67.433029, -45.806458, 0.0 ], [ -67.433285, -45.806634, 0.0 ], [ -67.433423, -45.806753, 0.0 ], [ -67.433608, -45.806927, 0.0 ], [ -67.433809, -45.80712, 0.0 ], [ -67.433929, -45.807275, 0.0 ], [ -67.434166, -45.80755, 0.0 ], [ -67.434567, -45.807943, 0.0 ], [ -67.434832, -45.808192, 0.0 ], [ -67.435061, -45.808364, 0.0 ], [ -67.435264, -45.808477, 0.0 ], [ -67.435499, -45.808564, 0.0 ], [ -67.435913, -45.808718, 0.0 ], [ -67.436775, -45.808845, 0.0 ], [ -67.440169, -45.809294, 0.0 ], [ -67.44077, -45.809393, 0.0 ], [ -67.44125, -45.809465, 0.0 ], [ -67.441746, -45.809527, 0.0 ], [ -67.442313, -45.809538, 0.0 ], [ -67.442961, -45.809511, 0.0 ], [ -67.44388, -45.809396, 0.0 ], [ -67.445409, -45.809177, 0.0 ], [ -67.446134, -45.80906, 0.0 ], [ -67.447134, -45.8089, 0.0 ], [ -67.447901, -45.808767, 0.0 ], [ -67.448646, -45.808609, 0.0 ], [ -67.449109, -45.808488, 0.0 ], [ -67.449557, -45.808273, 0.0 ], [ -67.449996, -45.808094, 0.0 ], [ -67.450342, -45.808053, 0.0 ], [ -67.450826, -45.808032, 0.0 ], [ -67.451303, -45.808032, 0.0 ], [ -67.452176, -45.808111, 0.0 ], [ -67.452991, -45.808175, 0.0 ], [ -67.453819, -45.808293, 0.0 ], [ -67.454269, -45.808388, 0.0 ], [ -67.454542, -45.808516, 0.0 ], [ -67.45474, -45.808712, 0.0 ], [ -67.454863, -45.809042, 0.0 ], [ -67.455019, -45.809692, 0.0 ], [ -67.455141, -45.809952, 0.0 ], [ -67.45524, -45.810112, 0.0 ], [ -67.455348, -45.810309, 0.0 ], [ -67.455364, -45.810417, 0.0 ], [ -67.455366, -45.810689, 0.0 ], [ -67.455367, -45.810934, 0.0 ], [ -67.455388, -45.811263, 0.0 ], [ -67.455455, -45.811471, 0.0 ], [ -67.456518, -45.815074, 0.0 ], [ -67.457094, -45.816871, 0.0 ], [ -67.457186, -45.817169, 0.0 ], [ -67.457254, -45.817441, 0.0 ], [ -67.457254, -45.817622, 0.0 ], [ -67.457163, -45.81823, 0.0 ], [ -67.456887, -45.819253, 0.0 ], [ -67.456895, -45.819381, 0.0 ], [ -67.456872, -45.819594, 0.0 ], [ -67.456826, -45.819739, 0.0 ], [ -67.45678, -45.820241, 0.0 ], [ -67.456811, -45.820551, 0.0 ], [ -67.457056, -45.821101, 0.0 ], [ -67.457327, -45.821607, 0.0 ], [ -67.457559, -45.821874, 0.0 ], [ -67.457946, -45.822056, 0.0 ], [ -67.458441, -45.822179, 0.0 ], [ -67.459207, -45.822328, 0.0 ], [ -67.459837, -45.822481, 0.0 ], [ -67.460215, -45.822586, 0.0 ], [ -67.460706, -45.822781, 0.0 ], [ -67.462449, -45.823722, 0.0 ], [ -67.462807, -45.823897, 0.0 ], [ -67.463213, -45.824022, 0.0 ], [ -67.46373, -45.824125, 0.0 ], [ -67.464209, -45.824161, 0.0 ], [ -67.464832, -45.824222, 0.0 ], [ -67.4653, -45.824231, 0.0 ], [ -67.465513, -45.824176, 0.0 ], [ -67.465797, -45.8242, 0.0 ], [ -67.466075, -45.824242, 0.0 ], [ -67.466323, -45.824238, 0.0 ], [ -67.466986, -45.824088, 0.0 ], [ -67.467628, -45.823845, 0.0 ], [ -67.468043, -45.82357, 0.0 ], [ -67.468191, -45.823307, 0.0 ], [ -67.46812, -45.823003, 0.0 ], [ -67.467862, -45.822864, 0.0 ], [ -67.467494, -45.822741, 0.0 ], [ -67.467054, -45.822793, 0.0 ], [ -67.466728, -45.823016, 0.0 ], [ -67.466584, -45.823255, 0.0 ], [ -67.466572, -45.823572, 0.0 ], [ -67.466574, -45.823817, 0.0 ], [ -67.466752, -45.824159, 0.0 ], [ -67.467044, -45.824749, 0.0 ], [ -67.467857, -45.826394, 0.0 ], [ -67.468318, -45.827415, 0.0 ], [ -67.468785, -45.828272, 0.0 ], [ -67.469457, -45.829174, 0.0 ], [ -67.471583, -45.831584, 0.0 ], [ -67.474089, -45.834377, 0.0 ], [ -67.476083, -45.836117, 0.0 ], [ -67.476383, -45.836525, 0.0 ], [ -67.476481, -45.836824, 0.0 ], [ -67.476519, -45.837215, 0.0 ], [ -67.476466, -45.837598, 0.0 ], [ -67.476418, -45.838007, 0.0 ], [ -67.476527, -45.838177, 0.0 ], [ -67.476649, -45.838298, 0.0 ], [ -67.476694, -45.839466, 0.0 ], [ -67.476711, -45.839727, 0.0 ], [ -67.476645, -45.83992, 0.0 ], [ -67.476495, -45.840152, 0.0 ], [ -67.476555, -45.840932, 0.0 ], [ -67.476345, -45.842402, 0.0 ], [ -67.476283, -45.843056, 0.0 ], [ -67.476148, -45.84353, 0.0 ], [ -67.475439, -45.845719, 0.0 ], [ -67.475269, -45.846211, 0.0 ], [ -67.475209, -45.846743, 0.0 ], [ -67.475319, -45.847097, 0.0 ], [ -67.475538, -45.847358, 0.0 ], [ -67.476583, -45.848139, 0.0 ], [ -67.476964, -45.848512, 0.0 ], [ -67.477151, -45.848835, 0.0 ], [ -67.477272, -45.849199, 0.0 ], [ -67.47727, -45.849441, 0.0 ], [ -67.477116, -45.850011, 0.0 ], [ -67.476862, -45.851016, 0.0 ], [ -67.476813, -45.851405, 0.0 ], [ -67.476884, -45.851823, 0.0 ], [ -67.477284, -45.852432, 0.0 ], [ -67.477654, -45.852999, 0.0 ], [ -67.477844, -45.853432, 0.0 ], [ -67.477849, -45.853646, 0.0 ], [ -67.477762, -45.85391, 0.0 ], [ -67.477526, -45.85428, 0.0 ], [ -67.477153, -45.85459, 0.0 ], [ -67.476847, -45.854814, 0.0 ], [ -67.47662, -45.855017, 0.0 ], [ -67.476434, -45.855231, 0.0 ], [ -67.476313, -45.855494, 0.0 ], [ -67.476224, -45.855834, 0.0 ], [ -67.476225, -45.856111, 0.0 ], [ -67.47623, -45.856399, 0.0 ], [ -67.476209, -45.856644, 0.0 ], [ -67.476082, -45.85711, 0.0 ], [ -67.475945, -45.857669, 0.0 ], [ -67.475679, -45.85855, 0.0 ], [ -67.475717, -45.858759, 0.0 ], [ -67.475782, -45.859085, 0.0 ], [ -67.47595, -45.859381, 0.0 ], [ -67.476341, -45.859671, 0.0 ], [ -67.47691, -45.859918, 0.0 ], [ -67.47734, -45.859961, 0.0 ], [ -67.47861, -45.859952, 0.0 ], [ -67.481067, -45.859974, 0.0 ], [ -67.481214, -45.859973, 0.0 ], [ -67.481386, -45.860026, 0.0 ], [ -67.481473, -45.86015, 0.0 ], [ -67.481473, -45.860588, 0.0 ], [ -67.481519, -45.862692, 0.0 ], [ -67.481468, -45.86442, 0.0 ], [ -67.481512, -45.864525, 0.0 ], [ -67.481626, -45.864641, 0.0 ], [ -67.482605, -45.86507, 0.0 ], [ -67.484217, -45.865799, 0.0 ], [ -67.484611, -45.866025, 0.0 ], [ -67.48496, -45.866116, 0.0 ], [ -67.485458, -45.866267, 0.0 ], [ -67.485899, -45.866488, 0.0 ], [ -67.486622, -45.866905, 0.0 ], [ -67.488363, -45.868113, 0.0 ], [ -67.489655, -45.869073, 0.0 ], [ -67.490447, -45.869696, 0.0 ], [ -67.491076, -45.870185, 0.0 ], [ -67.491594, -45.870575, 0.0 ], [ -67.492188, -45.870883, 0.0 ], [ -67.493086, -45.871302, 0.0 ], [ -67.493301, -45.871432, 0.0 ], [ -67.493425, -45.871554, 0.0 ], [ -67.493397, -45.871665, 0.0 ], [ -67.492927, -45.872062, 0.0 ], [ -67.492832, -45.872148, 0.0 ] ] } },
{ "type": "Feature", "properties": { "fid": 2, "linea": "22", "sentido": "ida", "nombre": "Estadio Centenario - Standard - Km 11" }, "geometry": { "type": "LineString", "coordinates": [ [ -67.492629, -45.872283, 0.0 ], [ -67.491728, -45.872955, 0.0 ], [ -67.491519, -45.872947, 0.0 ], [ -67.486473, -45.869851, 0.0 ], [ -67.486245, -45.869641, 0.0 ], [ -67.486272, -45.869358, 0.0 ], [ -67.486272, -45.869336, 0.0 ], [ -67.486266, -45.869313, 0.0 ], [ -67.486246, -45.869245, 0.0 ], [ -67.486233, -45.869218, 0.0 ], [ -67.48622, -45.869196, 0.0 ], [ -67.486214, -45.869182, 0.0 ], [ -67.486207, -45.869164, 0.0 ], [ -67.486194, -45.869123, 0.0 ], [ -67.486084, -45.869033, 0.0 ], [ -67.48583, -45.868902, 0.0 ], [ -67.480286, -45.866345, 0.0 ], [ -67.480162, -45.866268, 0.0 ], [ -67.480037, -45.866166, 0.0 ], [ -67.479941, -45.866038, 0.0 ], [ -67.479958, -45.865824, 0.0 ], [ -67.479907, -45.864915, 0.0 ], [ -67.479925, -45.864726, 0.0 ], [ -67.479905, -45.864558, 0.0 ], [ -67.479816, -45.864502, 0.0 ], [ -67.479657, -45.864466, 0.0 ], [ -67.478955, -45.864314, 0.0 ], [ -67.476157, -45.863711, 0.0 ], [ -67.47576, -45.863644, 0.0 ], [ -67.475497, -45.863563, 0.0 ], [ -67.475279, -45.863431, 0.0 ], [ -67.475144, -45.863249, 0.0 ], [ -67.475069, -45.862917, 0.0 ], [ -67.474948, -45.862713, 0.0 ], [ -67.474722, -45.86249, 0.0 ], [ -67.474245, -45.861992, 0.0 ], [ -67.474109, -45.861816, 0.0 ], [ -67.474073, -45.861608, 0.0 ], [ -67.474153, -45.861447, 0.0 ], [ -67.4744, -45.860917, 0.0 ], [ -67.474879, -45.860137, 0.0 ], [ -67.47501, -45.859904, 0.0 ], [ -67.475112, -45.859708, 0.0 ], [ -67.475228, -45.859381, 0.0 ], [ -67.475381, -45.859086, 0.0 ], [ -67.475552, -45.858533, 0.0 ], [ -67.475883, -45.857406, 0.0 ], [ -67.476047, -45.856787, 0.0 ], [ -67.476109, -45.856528, 0.0 ], [ -67.47611, -45.85629, 0.0 ], [ -67.47609, -45.855829, 0.0 ], [ -67.476159, -45.855522, 0.0 ], [ -67.476283, -45.855247, 0.0 ], [ -67.476529, -45.854931, 0.0 ], [ -67.477193, -45.854413, 0.0 ], [ -67.477401, -45.854212, 0.0 ], [ -67.477544, -45.854087, 0.0 ], [ -67.477632, -45.853857, 0.0 ], [ -67.477686, -45.8536, 0.0 ], [ -67.477652, -45.853329, 0.0 ], [ -67.477468, -45.852937, 0.0 ], [ -67.477309, -45.852673, 0.0 ], [ -67.47711, -45.852372, 0.0 ], [ -67.476878, -45.852019, 0.0 ], [ -67.47679, -45.851815, 0.0 ], [ -67.476716, -45.851564, 0.0 ], [ -67.476716, -45.851341, 0.0 ], [ -67.476757, -45.851075, 0.0 ], [ -67.476818, -45.85076, 0.0 ], [ -67.47692, -45.850445, 0.0 ], [ -67.476975, -45.850125, 0.0 ], [ -67.47703, -45.849922, 0.0 ], [ -67.477092, -45.849476, 0.0 ], [ -67.47714, -45.849192, 0.0 ], [ -67.477047, -45.848878, 0.0 ], [ -67.476895, -45.84861, 0.0 ], [ -67.476738, -45.848399, 0.0 ], [ -67.476476, -45.848172, 0.0 ], [ -67.476009, -45.847802, 0.0 ], [ -67.475726, -45.847614, 0.0 ], [ -67.475485, -45.847425, 0.0 ], [ -67.475308, -45.847242, 0.0 ], [ -67.475189, -45.847022, 0.0 ], [ -67.475116, -45.846839, 0.0 ], [ -67.475116, -45.84666, 0.0 ], [ -67.475156, -45.846457, 0.0 ], [ -67.475294, -45.84588, 0.0 ], [ -67.475565, -45.845021, 0.0 ], [ -67.475799, -45.844286, 0.0 ], [ -67.476077, -45.843463, 0.0 ], [ -67.47614, -45.843152, 0.0 ], [ -67.476264, -45.842294, 0.0 ], [ -67.476361, -45.841594, 0.0 ], [ -67.476383, -45.841098, 0.0 ], [ -67.476393, -45.84056, 0.0 ], [ -67.476385, -45.839766, 0.0 ], [ -67.476341, -45.839554, 0.0 ], [ -67.476197, -45.839498, 0.0 ], [ -67.475984, -45.839457, 0.0 ], [ -67.475488, -45.839467, 0.0 ], [ -67.475014, -45.839474, 0.0 ], [ -67.475, -45.839471, 0.0 ], [ -67.474977, -45.839464, 0.0 ], [ -67.474945, -45.839455, 0.0 ], [ -67.474922, -45.839455, 0.0 ], [ -67.4749, -45.839446, 0.0 ], [ -67.474877, -45.839442, 0.0 ], [ -67.474854, -45.839436, 0.0 ], [ -67.474785, -45.839354, 0.0 ], [ -67.474737, -45.839122, 0.0 ], [ -67.474776, -45.837931, 0.0 ], [ -67.474778, -45.837842, 0.0 ], [ -67.47488, -45.837816, 0.0 ], [ -67.476219, -45.838083, 0.0 ], [ -67.476293, -45.838068, 0.0 ], [ -67.476305, -45.838022, 0.0 ], [ -67.47632, -45.837888, 0.0 ], [ -67.476375, -45.837593, 0.0 ], [ -67.476379, -45.837218, 0.0 ], [ -67.476273, -45.836671, 0.0 ], [ -67.476002, -45.836228, 0.0 ], [ -67.475642, -45.835822, 0.0 ], [ -67.474827, -45.835084, 0.0 ], [ -67.473584, -45.834041, 0.0 ], [ -67.471861, -45.832098, 0.0 ], [ -67.470147, -45.830096, 0.0 ], [ -67.469126, -45.828923, 0.0 ], [ -67.469058, -45.828808, 0.0 ], [ -67.468786, -45.828487, 0.0 ], [ -67.468483, -45.827939, 0.0 ], [ -67.468161, -45.827475, 0.0 ], [ -67.467983, -45.8272, 0.0 ], [ -67.467838, -45.827004, 0.0 ], [ -67.467626, -45.826683, 0.0 ], [ -67.467282, -45.826284, 0.0 ], [ -67.466827, -45.825767, 0.0 ], [ -67.466346, -45.825221, 0.0 ], [ -67.466186, -45.824999, 0.0 ], [ -67.466033, -45.824859, 0.0 ], [ -67.46585, -45.824777, 0.0 ], [ -67.465733, -45.82476, 0.0 ], [ -67.465595, -45.824753, 0.0 ], [ -67.465458, -45.824702, 0.0 ], [ -67.465358, -45.824618, 0.0 ], [ -67.46531, -45.8245, 0.0 ], [ -67.465237, -45.824434, 0.0 ], [ -67.465088, -45.824365, 0.0 ], [ -67.464931, -45.824346, 0.0 ], [ -67.464733, -45.824336, 0.0 ], [ -67.46457, -45.824309, 0.0 ], [ -67.464294, -45.824289, 0.0 ], [ -67.463969, -45.824241, 0.0 ], [ -67.463551, -45.824187, 0.0 ], [ -67.463167, -45.824095, 0.0 ], [ -67.462825, -45.824002, 0.0 ], [ -67.462535, -45.823872, 0.0 ], [ -67.461226, -45.823203, 0.0 ], [ -67.460729, -45.822936, 0.0 ], [ -67.460203, -45.822659, 0.0 ], [ -67.459595, -45.822522, 0.0 ], [ -67.458917, -45.822378, 0.0 ], [ -67.458551, -45.822334, 0.0 ], [ -67.458276, -45.822355, 0.0 ], [ -67.458, -45.822386, 0.0 ], [ -67.457853, -45.822351, 0.0 ], [ -67.457669, -45.822295, 0.0 ], [ -67.457582, -45.822194, 0.0 ], [ -67.457325, -45.821901, 0.0 ], [ -67.456923, -45.82138, 0.0 ], [ -67.456747, -45.82104, 0.0 ], [ -67.45661, -45.82071, 0.0 ], [ -67.456458, -45.820375, 0.0 ], [ -67.456292, -45.819883, 0.0 ], [ -67.456221, -45.819535, 0.0 ], [ -67.456222, -45.819358, 0.0 ], [ -67.456361, -45.819221, 0.0 ], [ -67.456528, -45.819185, 0.0 ], [ -67.456689, -45.819185, 0.0 ], [ -67.456827, -45.81914, 0.0 ], [ -67.456892, -45.818988, 0.0 ], [ -67.457031, -45.818342, 0.0 ], [ -67.457111, -45.817918, 0.0 ], [ -67.457155, -45.817561, 0.0 ], [ -67.457097, -45.817283, 0.0 ], [ -67.456967, -45.816763, 0.0 ], [ -67.456408, -45.815023, 0.0 ], [ -67.456235, -45.814453, 0.0 ], [ -67.455997, -45.813606, 0.0 ], [ -67.455537, -45.812045, 0.0 ], [ -67.455335, -45.811406, 0.0 ], [ -67.455226, -45.811148, 0.0 ], [ -67.455031, -45.810896, 0.0 ], [ -67.454895, -45.810725, 0.0 ], [ -67.454715, -45.810413, 0.0 ], [ -67.45473, -45.810247, 0.0 ], [ -67.454839, -45.809996, 0.0 ], [ -67.454904, -45.809739, 0.0 ], [ -67.454875, -45.809487, 0.0 ], [ -67.454747, -45.809015, 0.0 ], [ -67.454625, -45.808744, 0.0 ], [ -67.454322, -45.808538, 0.0 ], [ -67.454062, -45.808431, 0.0 ], [ -67.45349, -45.808334, 0.0 ], [ -67.45295, -45.808267, 0.0 ], [ -67.452575, -45.808239, 0.0 ], [ -67.452288, -45.80827, 0.0 ], [ -67.451829, -45.808386, 0.0 ], [ -67.451308, -45.808522, 0.0 ], [ -67.450688, -45.808618, 0.0 ], [ -67.450185, -45.80865, 0.0 ], [ -67.449536, -45.808608, 0.0 ], [ -67.449148, -45.808608, 0.0 ], [ -67.448654, -45.808725, 0.0 ], [ -67.448261, -45.808799, 0.0 ], [ -67.447658, -45.808927, 0.0 ], [ -67.446791, -45.80906, 0.0 ], [ -67.445615, -45.809216, 0.0 ], [ -67.445022, -45.8093, 0.0 ], [ -67.444109, -45.809454, 0.0 ], [ -67.44315, -45.809578, 0.0 ], [ -67.442666, -45.809617, 0.0 ], [ -67.442047, -45.809612, 0.0 ], [ -67.441577, -45.809582, 0.0 ], [ -67.440851, -45.809467, 0.0 ], [ -67.440287, -45.809376, 0.0 ], [ -67.437604, -45.809011, 0.0 ], [ -67.437049, -45.80894, 0.0 ], [ -67.436378, -45.808838, 0.0 ], [ -67.435872, -45.808762, 0.0 ], [ -67.435525, -45.80864, 0.0 ], [ -67.435206, -45.808508, 0.0 ], [ -67.434916, -45.808328, 0.0 ], [ -67.43456, -45.80801, 0.0 ], [ -67.434009, -45.807469, 0.0 ], [ -67.433743, -45.807125, 0.0 ], [ -67.433317, -45.806741, 0.0 ], [ -67.432984, -45.806503, 0.0 ], [ -67.431876, -45.805841, 0.0 ], [ -67.430572, -45.80506, 0.0 ], [ -67.428511, -45.803897, 0.0 ], [ -67.427401, -45.803276, 0.0 ], [ -67.42676, -45.802971, 0.0 ], [ -67.425928, -45.802527, 0.0 ], [ -67.425115, -45.80209, 0.0 ], [ -67.424818, -45.801917, 0.0 ], [ -67.424565, -45.801612, 0.0 ], [ -67.424356, -45.801322, 0.0 ], [ -67.424109, -45.80087, 0.0 ], [ -67.422964, -45.798897, 0.0 ], [ -67.422852, -45.798691, 0.0 ], [ -67.421992, -45.797179, 0.0 ], [ -67.421854, -45.796922, 0.0 ], [ -67.421872, -45.796681, 0.0 ], [ -67.422243, -45.796388, 0.0 ], [ -67.42261, -45.796087, 0.0 ], [ -67.422961, -45.795805, 0.0 ], [ -67.422999, -45.79563, 0.0 ], [ -67.422998, -45.795615, 0.0 ], [ -67.422991, -45.795586, 0.0 ], [ -67.422983, -45.795548, 0.0 ], [ -67.422975, -45.795528, 0.0 ], [ -67.422974, -45.795499, 0.0 ], [ -67.422974, -45.79547, 0.0 ], [ -67.422974, -45.79546, 0.0 ], [ -67.423185, -45.795502, 0.0 ], [ -67.423328, -45.795592, 0.0 ], [ -67.423108, -45.795789, 0.0 ], [ -67.423323, -45.795961, 0.0 ], [ -67.424474, -45.79666, 0.0 ], [ -67.42474, -45.796705, 0.0 ], [ -67.425805, -45.796472, 0.0 ], [ -67.426342, -45.796151, 0.0 ], [ -67.426669, -45.795973, 0.0 ], [ -67.42693, -45.795902, 0.0 ], [ -67.428128, -45.795831, 0.0 ], [ -67.428188, -45.795739, 0.0 ], [ -67.42819, -45.795459, 0.0 ], [ -67.428345, -45.795275, 0.0 ], [ -67.428572, -45.795168, 0.0 ], [ -67.429045, -45.795168, 0.0 ], [ -67.429916, -45.795182, 0.0 ], [ -67.430703, -45.795249, 0.0 ], [ -67.431021, -45.795268, 0.0 ], [ -67.43119, -45.795283, 0.0 ], [ -67.431769, -45.795326, 0.0 ], [ -67.431949, -45.795279, 0.0 ], [ -67.432213, -45.795169, 0.0 ], [ -67.433209, -45.794752, 0.0 ], [ -67.434619, -45.794182, 0.0 ], [ -67.435151, -45.793945, 0.0 ], [ -67.435409, -45.793836, 0.0 ], [ -67.435516, -45.793734, 0.0 ], [ -67.435595, -45.793648, 0.0 ], [ -67.43565, -45.793534, 0.0 ], [ -67.435664, -45.792546, 0.0 ], [ -67.435697, -45.792212, 0.0 ], [ -67.435689, -45.791693, 0.0 ], [ -67.435674, -45.790617, 0.0 ], [ -67.435623, -45.790203, 0.0 ], [ -67.435269, -45.790152, 0.0 ], [ -67.435233, -45.790156, 0.0 ], [ -67.435193, -45.79016, 0.0 ], [ -67.435168, -45.790164, 0.0 ], [ -67.435138, -45.790168, 0.0 ], [ -67.435107, -45.790172, 0.0 ], [ -67.435082, -45.790173, 0.0 ], [ -67.435057, -45.790176, 0.0 ], [ -67.435037, -45.790177, 0.0 ], [ -67.435007, -45.790184, 0.0 ], [ -67.434987, -45.790188, 0.0 ], [ -67.434962, -45.790188, 0.0 ], [ -67.434957, -45.790199, 0.0 ], [ -67.434751, -45.790266, 0.0 ], [ -67.434639, -45.790383, 0.0 ], [ -67.434425, -45.790439, 0.0 ], [ -67.431596, -45.78932, 0.0 ], [ -67.431325, -45.789256, 0.0 ], [ -67.431078, -45.789192, 0.0 ], [ -67.431016, -45.789111, 0.0 ], [ -67.428616, -45.787652, 0.0 ], [ -67.428635, -45.787561, 0.0 ], [ -67.430834, -45.786002, 0.0 ], [ -67.430941, -45.785977, 0.0 ], [ -67.432503, -45.7848, 0.0 ], [ -67.433782, -45.785677, 0.0 ], [ -67.434003, -45.785838, 0.0 ], [ -67.434126, -45.785938, 0.0 ], [ -67.436042, -45.787302, 0.0 ], [ -67.43848, -45.785672, 0.0 ], [ -67.439113, -45.78517, 0.0 ], [ -67.439293, -45.785018, 0.0 ], [ -67.440208, -45.784696, 0.0 ], [ -67.440632, -45.784372, 0.0 ], [ -67.440443, -45.783696, 0.0 ], [ -67.439374, -45.780229, 0.0 ], [ -67.438386, -45.77713, 0.0 ], [ -67.438192, -45.776379, 0.0 ], [ -67.438114, -45.775562, 0.0 ], [ -67.438152, -45.775121, 0.0 ], [ -67.439273, -45.771285, 0.0 ], [ -67.439162, -45.771173, 0.0 ], [ -67.438075, -45.770928, 0.0 ], [ -67.433095, -45.769824, 0.0 ], [ -67.433053, -45.769673, 0.0 ], [ -67.433097, -45.769485, 0.0 ], [ -67.433036, -45.769413, 0.0 ], [ -67.433036, -45.7694, 0.0 ], [ -67.433041, -45.769373, 0.0 ], [ -67.433051, -45.76936, 0.0 ], [ -67.433065, -45.769347, 0.0 ], [ -67.433075, -45.769337, 0.0 ], [ -67.433084, -45.769321, 0.0 ], [ -67.433098, -45.769308, 0.0 ], [ -67.433103, -45.769304, 0.0 ], [ -67.433411, -45.768937, 0.0 ], [ -67.434127, -45.768312, 0.0 ], [ -67.43448, -45.768075, 0.0 ], [ -67.435091, -45.767783, 0.0 ], [ -67.435795, -45.767555, 0.0 ], [ -67.436209, -45.767407, 0.0 ], [ -67.436572, -45.767406, 0.0 ], [ -67.43662, -45.767498, 0.0 ], [ -67.437655, -45.770441, 0.0 ], [ -67.437786, -45.770796, 0.0 ], [ -67.43984, -45.77128, 0.0 ], [ -67.441077, -45.77158, 0.0 ], [ -67.441305, -45.771616, 0.0 ], [ -67.44149, -45.77154, 0.0 ], [ -67.442617, -45.768947, 0.0 ], [ -67.442894, -45.768147, 0.0 ], [ -67.443404, -45.766026, 0.0 ], [ -67.443882, -45.764811, 0.0 ], [ -67.444187, -45.763928, 0.0 ], [ -67.444218, -45.763857, 0.0 ], [ -67.444285, -45.763671, 0.0 ] ] } }
]
}
