{
"type": "FeatureCollection",
"name": "linea-16",
"crs": { "type": "name", "properties": { "name": "urn:ogc:def:crs:OGC:1.3:CRS84" } },
"features": [
{ "type": "Feature", "properties": { "fid": 1, "linea": "16", "sentido": "vuelta", "nombre": "Estadio Centenario - Saavedra - Aeronáutico" }, "geometry": { "type": "LineString", "coordinates": [ [ -67.521578, -45.843295, 0.0 ], [ -67.521534, -45.84341, 0.0 ], [ -67.521484, -45.843554, 0.0 ], [ -67.521249, -45.843632, 0.0 ], [ -67.520764, -45.843629, 0.0 ], [ -67.519879, -45.843627, 0.0 ], [ -67.519642, -45.843558, 0.0 ], [ -67.519497, -45.843406, 0.0 ], [ -67.519247, -45.843454, 0.0 ], [ -67.519149, -45.843597, 0.0 ], [ -67.519213, -45.843788, 0.0 ], [ -67.519043, -45.843933, 0.0 ], [ -67.518809, -45.843902, 0.0 ], [ -67.518712, -45.843769, 0.0 ], [ -67.51821, -45.843493, 0.0 ], [ -67.516979, -45.842889, 0.0 ], [ -67.515679, -45.842322, 0.0 ], [ -67.514938, -45.84203, 0.0 ], [ -67.514481, -45.841804, 0.0 ], [ -67.513624, -45.8413, 0.0 ], [ -67.512572, -45.840679, 0.0 ], [ -67.511745, -45.840181, 0.0 ], [ -67.511183, -45.839858, 0.0 ], [ -67.510717, -45.83955, 0.0 ], [ -67.510453, -45.839381, 0.0 ], [ -67.51021, -45.839299, 0.0 ], [ -67.509921, -45.839249, 0.0 ], [ -67.509513, -45.839275, 0.0 ], [ -67.507165, -45.839723, 0.0 ], [ -67.507198, -45.839838, 0.0 ], [ -67.507496, -45.840527, 0.0 ], [ -67.508581, -45.84277, 0.0 ], [ -67.508525, -45.842829, 0.0 ], [ -67.507341, -45.843134, 0.0 ], [ -67.506356, -45.843359, 0.0 ], [ -67.506284, -45.843364, 0.0 ], [ -67.506206, -45.843318, 0.0 ], [ -67.505471, -45.841926, 0.0 ], [ -67.505542, -45.841866, 0.0 ], [ -67.50568, -45.84183, 0.0 ], [ -67.506379, -45.841664, 0.0 ], [ -67.505531, -45.839989, 0.0 ], [ -67.505431, -45.839969, 0.0 ], [ -67.502767, -45.840505, 0.0 ], [ -67.502475, -45.840461, 0.0 ], [ -67.501926, -45.840464, 0.0 ], [ -67.497388, -45.841511, 0.0 ], [ -67.497332, -45.841465, 0.0 ], [ -67.496609, -45.839897, 0.0 ], [ -67.494954, -45.840263, 0.0 ], [ -67.493662, -45.840535, 0.0 ], [ -67.493542, -45.840436, 0.0 ], [ -67.490215, -45.840338, 0.0 ], [ -67.489063, -45.83916, 0.0 ], [ -67.489462, -45.836397, 0.0 ], [ -67.486532, -45.836213, 0.0 ], [ -67.484369, -45.834318, 0.0 ], [ -67.481753, -45.834206, 0.0 ], [ -67.481151, -45.833915, 0.0 ], [ -67.480448, -45.833659, 0.0 ], [ -67.480009, -45.833688, 0.0 ], [ -67.479736, -45.833774, 0.0 ], [ -67.479189, -45.83406, 0.0 ], [ -67.478622, -45.834208, 0.0 ], [ -67.478414, -45.836684, 0.0 ], [ -67.478112, -45.838579, 0.0 ], [ -67.479055, -45.838809, 0.0 ], [ -67.479178, -45.838944, 0.0 ], [ -67.479219, -45.839278, 0.0 ], [ -67.479088, -45.839737, 0.0 ], [ -67.476729, -45.839775, 0.0 ], [ -67.476596, -45.840031, 0.0 ], [ -67.476534, -45.841312, 0.0 ], [ -67.476249, -45.843254, 0.0 ], [ -67.475233, -45.846413, 0.0 ], [ -67.475214, -45.846705, 0.0 ], [ -67.475294, -45.847012, 0.0 ], [ -67.475842, -45.847576, 0.0 ], [ -67.476875, -45.848361, 0.0 ], [ -67.47717, -45.848837, 0.0 ], [ -67.477285, -45.849277, 0.0 ], [ -67.477161, -45.850014, 0.0 ], [ -67.476828, -45.850946, 0.0 ], [ -67.476833, -45.851499, 0.0 ], [ -67.476911, -45.851893, 0.0 ], [ -67.477527, -45.852771, 0.0 ], [ -67.477738, -45.853095, 0.0 ], [ -67.477905, -45.853428, 0.0 ], [ -67.477847, -45.85379, 0.0 ], [ -67.477623, -45.854203, 0.0 ], [ -67.476956, -45.854748, 0.0 ], [ -67.476567, -45.855123, 0.0 ], [ -67.476343, -45.855561, 0.0 ], [ -67.476304, -45.85624, 0.0 ], [ -67.476213, -45.856733, 0.0 ], [ -67.475696, -45.858537, 0.0 ], [ -67.47548, -45.859229, 0.0 ], [ -67.475339, -45.859951, 0.0 ], [ -67.475339, -45.86036, 0.0 ], [ -67.475316, -45.861084, 0.0 ], [ -67.475331, -45.861743, 0.0 ], [ -67.475366, -45.861981, 0.0 ], [ -67.475481, -45.862073, 0.0 ], [ -67.483367, -45.862155, 0.0 ], [ -67.484237, -45.862195, 0.0 ], [ -67.484595, -45.862209, 0.0 ], [ -67.48454, -45.865573, 0.0 ], [ -67.484484, -45.865826, 0.0 ], [ -67.484446, -45.865905, 0.0 ], [ -67.485522, -45.866354, 0.0 ], [ -67.486074, -45.866617, 0.0 ], [ -67.486958, -45.867119, 0.0 ], [ -67.488003, -45.867877, 0.0 ], [ -67.488897, -45.868495, 0.0 ], [ -67.489838, -45.869251, 0.0 ], [ -67.490536, -45.869767, 0.0 ], [ -67.491086, -45.870177, 0.0 ], [ -67.491671, -45.870584, 0.0 ], [ -67.491838, -45.870714, 0.0 ], [ -67.492514, -45.871067, 0.0 ], [ -67.493157, -45.871383, 0.0 ], [ -67.493414, -45.871505, 0.0 ], [ -67.493441, -45.871581, 0.0 ], [ -67.493342, -45.871678, 0.0 ], [ -67.493156, -45.871879, 0.0 ], [ -67.492871, -45.872065, 0.0 ], [ -67.492729, -45.872169, 0.0 ] ] } },
{ "type": "Feature", "properties": { "fid": 2, "linea": "16", "sentido": "ida", "nombre": "Estadio Centenario - Saavedra - Aeronáutico" }, "geometry": { "type": "LineString", "coordinates": [ [ -67.492596, -45.872251, 0.0 ], [ -67.492239, -45.872544, 0.0 ], [ -67.491901, -45.872845, 0.0 ], [ -67.491736, -45.872905, 0.0 ], [ -67.491527, -45.872854, 0.0 ], [ -67.490182, -45.872036, 0.0 ], [ -67.490949, -45.871441, 0.0 ], [ -67.488589, -45.869964, 0.0 ], [ -67.487966, -45.86962, 0.0 ], [ -67.487365, -45.869476, 0.0 ], [ -67.486505, -45.868949, 0.0 ], [ -67.486342, -45.868076, 0.0 ], [ -67.485505, -45.868053, 0.0 ], [ -67.484942, -45.868055, 0.0 ], [ -67.484357, -45.868063, 0.0 ], [ -67.484152, -45.86809, 0.0 ], [ -67.480441, -45.866356, 0.0 ], [ -67.479938, -45.865924, 0.0 ], [ -67.479866, -45.865482, 0.0 ], [ -67.479853, -45.864961, 0.0 ], [ -67.479825, -45.86455, 0.0 ], [ -67.479409, -45.86438, 0.0 ], [ -67.478318, -45.864201, 0.0 ], [ -67.476408, -45.863751, 0.0 ], [ -67.47573, -45.86365, 0.0 ], [ -67.475357, -45.86353, 0.0 ], [ -67.475172, -45.86338, 0.0 ], [ -67.474972, -45.86278, 0.0 ], [ -67.474063, -45.86169, 0.0 ], [ -67.474732, -45.860333, 0.0 ], [ -67.475283, -45.859346, 0.0 ], [ -67.476126, -45.856508, 0.0 ], [ -67.476124, -45.855751, 0.0 ], [ -67.476248, -45.855163, 0.0 ], [ -67.477179, -45.854456, 0.0 ], [ -67.477459, -45.854163, 0.0 ], [ -67.477702, -45.853681, 0.0 ], [ -67.477622, -45.853195, 0.0 ], [ -67.476683, -45.851622, 0.0 ], [ -67.476666, -45.851131, 0.0 ], [ -67.477164, -45.849237, 0.0 ], [ -67.476865, -45.848438, 0.0 ], [ -67.475772, -45.847621, 0.0 ], [ -67.475159, -45.846946, 0.0 ], [ -67.47514, -45.846256, 0.0 ], [ -67.476174, -45.843095, 0.0 ], [ -67.476434, -45.841193, 0.0 ], [ -67.476377, -45.839507, 0.0 ], [ -67.474896, -45.839494, 0.0 ], [ -67.474715, -45.837857, 0.0 ], [ -67.47568, -45.837914, 0.0 ], [ -67.478039, -45.838503, 0.0 ], [ -67.478286, -45.836828, 0.0 ], [ -67.478307, -45.836797, 0.0 ], [ -67.477493, -45.836766, 0.0 ], [ -67.477448, -45.836742, 0.0 ], [ -67.477367, -45.836434, 0.0 ], [ -67.478344, -45.835772, 0.0 ], [ -67.478451, -45.835532, 0.0 ], [ -67.478484, -45.835247, 0.0 ], [ -67.478279, -45.834607, 0.0 ], [ -67.478259, -45.834213, 0.0 ], [ -67.478579, -45.834175, 0.0 ], [ -67.479138, -45.834078, 0.0 ], [ -67.479619, -45.833762, 0.0 ], [ -67.479934, -45.833661, 0.0 ], [ -67.480409, -45.833604, 0.0 ], [ -67.481247, -45.833902, 0.0 ], [ -67.481786, -45.83418, 0.0 ], [ -67.484399, -45.834295, 0.0 ], [ -67.484818, -45.834656, 0.0 ], [ -67.486577, -45.83614, 0.0 ], [ -67.489538, -45.836373, 0.0 ], [ -67.489149, -45.839093, 0.0 ], [ -67.489945, -45.839908, 0.0 ], [ -67.490619, -45.840631, 0.0 ], [ -67.490947, -45.840765, 0.0 ], [ -67.492427, -45.840784, 0.0 ], [ -67.493699, -45.84047, 0.0 ], [ -67.497784, -45.839659, 0.0 ], [ -67.499527, -45.83971, 0.0 ], [ -67.500326, -45.839804, 0.0 ], [ -67.501963, -45.839922, 0.0 ], [ -67.503409, -45.839934, 0.0 ], [ -67.503701, -45.840237, 0.0 ], [ -67.505549, -45.839882, 0.0 ], [ -67.50554, -45.839808, 0.0 ], [ -67.505629, -45.83976, 0.0 ], [ -67.505774, -45.839738, 0.0 ], [ -67.506096, -45.839747, 0.0 ], [ -67.506973, -45.839633, 0.0 ], [ -67.508344, -45.839429, 0.0 ], [ -67.509409, -45.839235, 0.0 ], [ -67.509808, -45.839153, 0.0 ], [ -67.510358, -45.839029, 0.0 ], [ -67.510788, -45.838953, 0.0 ], [ -67.511104, -45.838928, 0.0 ], [ -67.511414, -45.839082, 0.0 ], [ -67.511464, -45.839194, 0.0 ], [ -67.511464, -45.839345, 0.0 ], [ -67.511464, -45.839514, 0.0 ], [ -67.511465, -45.839661, 0.0 ], [ -67.511521, -45.839813, 0.0 ], [ -67.511688, -45.840038, 0.0 ], [ -67.512237, -45.840399, 0.0 ], [ -67.513262, -45.840982, 0.0 ], [ -67.51447, -45.841663, 0.0 ], [ -67.51549, -45.842119, 0.0 ], [ -67.516204, -45.842423, 0.0 ], [ -67.517634, -45.843122, 0.0 ], [ -67.518513, -45.843485, 0.0 ], [ -67.518618, -45.843545, 0.0 ], [ -67.518806, -45.843594, 0.0 ], [ -67.518961, -45.843559, 0.0 ], [ -67.519153, -45.843507, 0.0 ], [ -67.519315, -45.843425, 0.0 ], [ -67.519486, -45.843425, 0.0 ], [ -67.51966, -45.843543, 0.0 ], [ -67.519758, -45.843608, 0.0 ], [ -67.520094, -45.843625, 0.0 ], [ -67.520641, -45.843633, 0.0 ], [ -67.520813, -45.843638, 0.0 ], [ -67.520925, -45.843592, 0.0 ], [ -67.520924, -45.843467, 0.0 ], [ -67.520841, -45.843291, 0.0 ], [ -67.52034, -45.842298, 0.0 ], [ -67.520292, -45.842129, 0.0 ], [ -67.520372, -45.842026, 0.0 ], [ -67.520509, -45.841932, 0.0 ], [ -67.520748, -45.841921, 0.0 ], [ -67.521016, -45.84195, 0.0 ], [ -67.521165, -45.841982, 0.0 ], [ -67.521205, -45.842136, 0.0 ], [ -67.521492, -45.843311, 0.0 ] ] } }
]
}
