{
"type": "FeatureCollection",
"name": "linea-15",
"crs": { "type": "name", "properties": { "name": "urn:ogc:def:crs:OGC:1.3:CRS84" } },
"features": [
{ "type": "Feature", "properties": { "fid": 1, "linea": "15", "sentido": "ida", "nombre": "Centro - Los Tres Pinos" }, "geometry": { "type": "LineString", "coordinates": [ [ -67.479944, -45.863232, 0.0 ], [ -67.479955, -45.862149, 0.0 ], [ -67.481506, -45.862163, 0.0 ], [ -67.481498, -45.862837, 0.0 ], [ -67.481503, -45.862949, 0.0 ], [ -67.481501, -45.863196, 0.0 ], [ -67.481473, -45.864485, 0.0 ], [ -67.481543, -45.864596, 0.0 ], [ -67.481743, -45.864698, 0.0 ], [ -67.482076, -45.864818, 0.0 ], [ -67.482955, -45.865253, 0.0 ], [ -67.484146, -45.865803, 0.0 ], [ -67.484509, -45.865939, 0.0 ], [ -67.485366, -45.866261, 0.0 ], [ -67.485797, -45.866448, 0.0 ], [ -67.486414, -45.8668, 0.0 ], [ -67.487071, -45.867193, 0.0 ], [ -67.487978, -45.867816, 0.0 ], [ -67.48844, -45.868175, 0.0 ], [ -67.488913, -45.868535, 0.0 ], [ -67.490214, -45.869498, 0.0 ], [ -67.490919, -45.870036, 0.0 ], [ -67.491547, -45.870488, 0.0 ], [ -67.492213, -45.870884, 0.0 ], [ -67.493839, -45.871708, 0.0 ], [ -67.495482, -45.872394, 0.0 ], [ -67.496109, -45.872645, 0.0 ], [ -67.497342, -45.873163, 0.0 ], [ -67.498105, -45.873635, 0.0 ], [ -67.499001, -45.874277, 0.0 ], [ -67.499649, -45.874756, 0.0 ], [ -67.500303, -45.875234, 0.0 ], [ -67.500999, -45.875656, 0.0 ], [ -67.501832, -45.875992, 0.0 ], [ -67.50783, -45.878463, 0.0 ], [ -67.50953, -45.879166, 0.0 ], [ -67.510188, -45.879454, 0.0 ], [ -67.510864, -45.879781, 0.0 ], [ -67.512552, -45.880745, 0.0 ], [ -67.513475, -45.88131, 0.0 ], [ -67.513873, -45.881494, 0.0 ], [ -67.514057, -45.881494, 0.0 ], [ -67.515672, -45.880517, 0.0 ], [ -67.518589, -45.878659, 0.0 ], [ -67.531183, -45.870564, 0.0 ], [ -67.543025, -45.862946, 0.0 ], [ -67.548647, -45.85931, 0.0 ], [ -67.548919, -45.859126, 0.0 ], [ -67.549394, -45.858819, 0.0 ], [ -67.549806, -45.858538, 0.0 ], [ -67.550074, -45.858166, 0.0 ], [ -67.550334, -45.857574, 0.0 ], [ -67.550487, -45.857237, 0.0 ], [ -67.550601, -45.856987, 0.0 ], [ -67.550828, -45.856808, 0.0 ], [ -67.551157, -45.856683, 0.0 ], [ -67.551719, -45.856517, 0.0 ], [ -67.552659, -45.856184, 0.0 ], [ -67.553873, -45.855775, 0.0 ], [ -67.555164, -45.855371, 0.0 ], [ -67.556508, -45.854894, 0.0 ], [ -67.556736, -45.854741, 0.0 ], [ -67.556812, -45.854566, 0.0 ], [ -67.556837, -45.854357, 0.0 ], [ -67.556803, -45.854124, 0.0 ], [ -67.556878, -45.853922, 0.0 ], [ -67.557054, -45.853693, 0.0 ], [ -67.557455, -45.853506, 0.0 ], [ -67.558262, -45.853292, 0.0 ], [ -67.558749, -45.853218, 0.0 ], [ -67.559744, -45.853152, 0.0 ], [ -67.560208, -45.853198, 0.0 ], [ -67.560759, -45.853369, 0.0 ], [ -67.56111, -45.853384, 0.0 ], [ -67.56142, -45.853311, 0.0 ], [ -67.561737, -45.853216, 0.0 ], [ -67.562061, -45.853219, 0.0 ], [ -67.562278, -45.853261, 0.0 ], [ -67.562521, -45.853393, 0.0 ], [ -67.562562, -45.853552, 0.0 ], [ -67.562604, -45.853767, 0.0 ], [ -67.56268, -45.854027, 0.0 ], [ -67.562836, -45.854214, 0.0 ], [ -67.562986, -45.854401, 0.0 ], [ -67.563275, -45.854583, 0.0 ], [ -67.563763, -45.854736, 0.0 ], [ -67.564137, -45.854947, 0.0 ], [ -67.564393, -45.855044, 0.0 ], [ -67.564414, -45.855125, 0.0 ], [ -67.564318, -45.855292, 0.0 ] ] } },
{ "type": "Feature", "properties": { "fid": 2, "linea": "15", "sentido": "vuelta", "nombre": "Centro - Los Tres Pinos" }, "geometry": { "type": "LineString", "coordinates": [ [ -67.564358, -45.855334, 0.0 ], [ -67.564811, -45.855474, 0.0 ], [ -67.566512, -45.856185, 0.0 ], [ -67.565407, -45.8576, 0.0 ], [ -67.56547, -45.857667, 0.0 ], [ -67.566044, -45.857933, 0.0 ], [ -67.566624, -45.858494, 0.0 ], [ -67.566879, -45.858722, 0.0 ], [ -67.566784, -45.858785, 0.0 ], [ -67.562833, -45.85987, 0.0 ], [ -67.563935, -45.861718, 0.0 ], [ -67.568558, -45.860414, 0.0 ], [ -67.57219, -45.864326, 0.0 ], [ -67.572088, -45.864393, 0.0 ], [ -67.569361, -45.865113, 0.0 ], [ -67.569196, -45.86524, 0.0 ], [ -67.570131, -45.867216, 0.0 ], [ -67.576554, -45.865058, 0.0 ], [ -67.576688, -45.86509, 0.0 ], [ -67.578181, -45.866406, 0.0 ], [ -67.578024, -45.866489, 0.0 ], [ -67.570482, -45.868971, 0.0 ], [ -67.57044, -45.869114, 0.0 ], [ -67.570547, -45.87002, 0.0 ], [ -67.570505, -45.870117, 0.0 ], [ -67.570609, -45.870307, 0.0 ], [ -67.570779, -45.870468, 0.0 ], [ -67.571305, -45.870484, 0.0 ], [ -67.57176, -45.870589, 0.0 ], [ -67.572184, -45.870861, 0.0 ], [ -67.572606, -45.870973, 0.0 ], [ -67.573769, -45.871368, 0.0 ], [ -67.573845, -45.872965, 0.0 ], [ -67.573724, -45.873023, 0.0 ], [ -67.571368, -45.873022, 0.0 ], [ -67.568842, -45.872549, 0.0 ], [ -67.568669, -45.87246, 0.0 ], [ -67.568746, -45.872088, 0.0 ], [ -67.568709, -45.871567, 0.0 ], [ -67.568648, -45.871458, 0.0 ], [ -67.565387, -45.870682, 0.0 ], [ -67.564899, -45.870669, 0.0 ], [ -67.564476, -45.870663, 0.0 ], [ -67.562101, -45.870929, 0.0 ], [ -67.561188, -45.871086, 0.0 ], [ -67.560974, -45.871096, 0.0 ], [ -67.559439, -45.870726, 0.0 ], [ -67.559223, -45.870654, 0.0 ], [ -67.550918, -45.869055, 0.0 ], [ -67.550617, -45.868935, 0.0 ], [ -67.547926, -45.868438, 0.0 ], [ -67.538015, -45.86651, 0.0 ], [ -67.537761, -45.866535, 0.0 ], [ -67.513918, -45.881789, 0.0 ], [ -67.513851, -45.88188, 0.0 ], [ -67.513722, -45.881914, 0.0 ], [ -67.512482, -45.881161, 0.0 ], [ -67.511239, -45.880443, 0.0 ], [ -67.510154, -45.87986, 0.0 ], [ -67.507641, -45.878739, 0.0 ], [ -67.506037, -45.878051, 0.0 ], [ -67.502141, -45.876392, 0.0 ], [ -67.500822, -45.875682, 0.0 ], [ -67.499686, -45.874907, 0.0 ], [ -67.499458, -45.874769, 0.0 ], [ -67.499276, -45.874691, 0.0 ], [ -67.498968, -45.87458, 0.0 ], [ -67.498664, -45.874523, 0.0 ], [ -67.498284, -45.874539, 0.0 ], [ -67.497949, -45.874622, 0.0 ], [ -67.496617, -45.875213, 0.0 ], [ -67.496302, -45.875273, 0.0 ], [ -67.495974, -45.875301, 0.0 ], [ -67.49561, -45.875273, 0.0 ], [ -67.495222, -45.875127, 0.0 ], [ -67.494671, -45.87482, 0.0 ], [ -67.490264, -45.872119, 0.0 ], [ -67.49027, -45.871991, 0.0 ], [ -67.490344, -45.871918, 0.0 ], [ -67.490875, -45.871482, 0.0 ], [ -67.490905, -45.871436, 0.0 ], [ -67.490883, -45.871383, 0.0 ], [ -67.488709, -45.870036, 0.0 ], [ -67.487941, -45.869604, 0.0 ], [ -67.487626, -45.869565, 0.0 ], [ -67.487418, -45.869502, 0.0 ], [ -67.486387, -45.868916, 0.0 ], [ -67.486393, -45.868185, 0.0 ], [ -67.486366, -45.868123, 0.0 ], [ -67.486303, -45.868093, 0.0 ], [ -67.484377, -45.868072, 0.0 ], [ -67.484046, -45.868041, 0.0 ], [ -67.480124, -45.866266, 0.0 ], [ -67.479992, -45.866151, 0.0 ], [ -67.479909, -45.866026, 0.0 ], [ -67.479926, -45.863229, 0.0 ] ] } }
]
}
