{"type": "FeatureCollection", "name": "linea-5u", "crs": {"type": "name", "properties": {"name": "urn:ogc:def:crs:OGC:1.3:CRS84"}}, "features": [{"type": "Feature", "properties": {"fid": 1, "linea": "5u", "sentido": "completo", "nombre": "Abel Amaya - Las Orquídeas"}, "geometry": {"type": "MultiLineString", "coordinates": [[[-67.468205, -45.823423, 0.0], [-67.467908, -45.823717, 0.0], [-67.467292, -45.823983, 0.0], [-67.4667743, -45.8241304, 0.0], [-67.466541, -45.823407, 0.0], [-67.466645, -45.82307, 0.0], [-67.466985, -45.822759, 0.0], [-67.467574, -45.822696, 0.0], [-67.467947, -45.822827, 0.0], [-67.4682, -45.823026, 0.0], [-67.468205, -45.823423, 0.0]], [[-67.475375, -45.862183, 0.0], [-67.493868, -45.862135, 0.0], [-67.493894, -45.860031, 0.0], [-67.498871, -45.859987, 0.0], [-67.4988133, -45.869981, 0.0], [-67.497297, -45.869976, 0.0], [-67.49726, -45.862456, 0.0], [-67.495718, -45.862463, 0.0], [-67.484537, -45.862445, 0.0], [-67.484573, -45.865864, 0.0], [-67.484291, -45.866074, 0.0], [-67.484303, -45.868056, 0.0], [-67.480039, -45.86624, 0.0], [-67.479881, -45.86445, 0.0], [-67.47619, -45.863714, 0.0], [-67.475425, -45.863572, 0.0], [-67.475066, -45.863295, 0.0], [-67.475003, -45.862828, 0.0], [-67.474042, -45.861662, 0.0], [-67.474185, -45.861201, 0.0], [-67.475282, -45.859318, 0.0], [-67.476109, -45.856521, 0.0], [-67.476118, -45.855655, 0.0], [-67.476382, -45.855107, 0.0], [-67.476742, -45.854727, 0.0], [-67.477414, -45.854228, 0.0], [-67.477697, -45.853814, 0.0], [-67.477697, -45.853427, 0.0], [-67.47739, -45.852789, 0.0], [-67.476781, -45.851851, 0.0], [-67.476674, -45.851494, 0.0], [-67.476671, -45.851308, 0.0], [-67.477091, -45.84962, 0.0], [-67.47714, -45.849189, 0.0], [-67.477056, -45.848842, 0.0], [-67.476734, -45.848377, 0.0], [-67.475939, -45.847756, 0.0], [-67.475394, -45.847302, 0.0], [-67.475151, -45.846942, 0.0], [-67.475086, -45.846397, 0.0], [-67.475692, -45.844591, 0.0], [-67.476104, -45.843342, 0.0], [-67.476386, -45.841511, 0.0], [-67.476343, -45.839549, 0.0], [-67.475806, -45.839455, 0.0], [-67.474744, -45.839466, 0.0], [-67.474781, -45.837794, 0.0], [-67.476254, -45.838087, 0.0], [-67.476341, -45.837993, 0.0], [-67.476373, -45.837085, 0.0], [-67.476131, -45.836277, 0.0], [-67.475356, -45.835658, 0.0], [-67.474046, -45.834659, 0.0], [-67.46915, -45.828932, 0.0], [-67.468456, -45.827983, 0.0], [-67.468064, -45.827286, 0.0], [-67.467347, -45.826365, 0.0], [-67.465964, -45.824796, 0.0], [-67.465869, -45.824762, 0.0], [-67.465535, -45.824685, 0.0], [-67.46529, -45.824495, 0.0], [-67.464968, -45.824332, 0.0], [-67.463845, -45.824266, 0.0], [-67.462849, -45.824025, 0.0], [-67.460213, -45.822679, 0.0], [-67.45927, -45.822457, 0.0], [-67.458678, -45.822352, 0.0], [-67.458107, -45.822393, 0.0], [-67.45771, -45.822306, 0.0], [-67.456909, -45.821454, 0.0], [-67.456572, -45.82059, 0.0], [-67.456223, -45.819528, 0.0], [-67.456248, -45.819383, 0.0], [-67.45633, -45.819262, 0.0], [-67.456484, -45.819206, 0.0], [-67.456727, -45.819185, 0.0], [-67.456875, -45.819094, 0.0], [-67.457168, -45.81768, 0.0], [-67.457116, -45.817272, 0.0], [-67.455967, -45.813483, 0.0], [-67.455715, -45.813505, 0.0], [-67.454628, -45.81394, 0.0], [-67.454343, -45.813893, 0.0], [-67.453978, -45.813967, 0.0], [-67.453781, -45.814126, 0.0], [-67.453467, -45.81426, 0.0], [-67.452712, -45.815137, 0.0], [-67.452518, -45.815139, 0.0], [-67.452055, -45.814722, 0.0], [-67.451165, -45.814321, 0.0], [-67.450674, -45.814855, 0.0], [-67.450288, -45.815052, 0.0], [-67.449862, -45.815246, 0.0], [-67.449051, -45.815401, 0.0], [-67.445722, -45.814951, 0.0], [-67.444791, -45.81396, 0.0], [-67.444581, -45.813738, 0.0], [-67.444543, -45.813676, 0.0], [-67.444123, -45.813854, 0.0], [-67.440419, -45.8146, 0.0], [-67.440251, -45.814758, 0.0], [-67.440082, -45.814657, 0.0], [-67.44012, -45.814518, 0.0], [-67.440344, -45.81452, 0.0], [-67.440586, -45.814508, 0.0], [-67.444045, -45.813818, 0.0], [-67.447153, -45.812474, 0.0], [-67.447712, -45.812234, 0.0], [-67.448896, -45.811711, 0.0], [-67.449273, -45.811488, 0.0], [-67.449566, -45.811144, 0.0], [-67.450038, -45.810149, 0.0], [-67.450088, -45.809409, 0.0], [-67.450112, -45.808864, 0.0], [-67.449949, -45.808701, 0.0], [-67.449658, -45.808501, 0.0], [-67.449629, -45.808286, 0.0], [-67.450092, -45.808147, 0.0], [-67.450736, -45.808033, 0.0], [-67.451428, -45.808044, 0.0], [-67.452825, -45.808178, 0.0], [-67.454079, -45.808319, 0.0], [-67.454654, -45.808405, 0.0], [-67.455603, -45.80788, 0.0], [-67.456002, -45.807555, 0.0], [-67.457129, -45.808448, 0.0], [-67.457474, -45.808406, 0.0], [-67.458239, -45.808953, 0.0], [-67.458199, -45.8088, 0.0], [-67.459981, -45.808349, 0.0], [-67.461055, -45.808278, 0.0], [-67.461774, -45.808316, 0.0], [-67.462374, -45.808381, 0.0], [-67.462894, -45.807072, 0.0], [-67.462942, -45.807057, 0.0], [-67.463673, -45.806765, 0.0], [-67.464968, -45.808018, 0.0], [-67.463123, -45.808428, 0.0], [-67.463069, -45.808872, 0.0], [-67.459865, -45.810319, 0.0], [-67.455828, -45.810259, 0.0], [-67.45548, -45.810502, 0.0], [-67.455396, -45.811089, 0.0], [-67.456627, -45.815273, 0.0], [-67.457327, -45.817892, 0.0], [-67.456767, -45.820421, 0.0], [-67.45734, -45.821628, 0.0], [-67.457854, -45.82202, 0.0], [-67.458784, -45.822253, 0.0], [-67.460109, -45.822557, 0.0], [-67.460636, -45.822759, 0.0], [-67.462629, -45.823802, 0.0], [-67.463671, -45.824147, 0.0], [-67.464715, -45.824232, 0.0], [-67.465523, -45.824231, 0.0], [-67.465908, -45.824231, 0.0], [-67.466375, -45.824244, 0.0], [-67.4667743, -45.8241304, 0.0], [-67.466838, -45.824328, 0.0], [-67.467999, -45.826788, 0.0], [-67.46918, -45.828698, 0.0], [-67.472417, -45.832508, 0.0], [-67.473729, -45.83396, 0.0], [-67.474744, -45.834879, 0.0], [-67.475391, -45.835452, 0.0], [-67.475849, -45.835861, 0.0], [-67.476121, -45.83613, 0.0], [-67.476504, -45.83687, 0.0], [-67.476492, -45.836999, 0.0], [-67.476504, -45.837539, 0.0], [-67.476442, -45.838033, 0.0], [-67.476577, -45.838141, 0.0], [-67.476595, -45.838518, 0.0], [-67.47665, -45.839607, 0.0], [-67.476608, -45.83992, 0.0], [-67.476561, -45.840025, 0.0], [-67.476505, -45.841592, 0.0], [-67.476233, -45.843326, 0.0], [-67.475531, -45.84553, 0.0], [-67.475225, -45.846501, 0.0], [-67.47523, -45.846741, 0.0], [-67.475305, -45.847008, 0.0], [-67.475524, -45.847299, 0.0], [-67.476825, -45.848361, 0.0], [-67.477088, -45.848662, 0.0], [-67.477241, -45.848975, 0.0], [-67.477281, -45.849184, 0.0], [-67.477215, -45.849844, 0.0], [-67.477108, -45.850202, 0.0], [-67.47686, -45.851192, 0.0], [-67.476872, -45.851536, 0.0], [-67.476936, -45.851777, 0.0], [-67.477094, -45.852171, 0.0], [-67.47766, -45.852897, 0.0], [-67.477837, -45.853344, 0.0], [-67.477922, -45.853707, 0.0], [-67.47772, -45.854142, 0.0], [-67.477262, -45.854497, 0.0], [-67.476726, -45.854952, 0.0], [-67.476473, -45.855342, 0.0], [-67.47627, -45.855875, 0.0], [-67.476308, -45.856267, 0.0], [-67.476263, -45.856646, 0.0], [-67.475517, -45.859195, 0.0], [-67.475391, -45.860018, 0.0], [-67.475371, -45.860962, 0.0], [-67.475375, -45.862183, 0.0]], [[-67.504347, -45.869845, 0.0], [-67.504014, -45.869998, 0.0], [-67.5018933, -45.8699911, 0.0], [-67.501891, -45.869919, 0.0], [-67.504114, -45.869942, 0.0], [-67.504364, -45.869747, 0.0], [-67.505663, -45.87092, 0.0], [-67.506671, -45.872198, 0.0], [-67.51273, -45.872155, 0.0], [-67.512722, -45.8732, 0.0], [-67.51308, -45.873228, 0.0], [-67.513303, -45.873382, 0.0], [-67.5128774, -45.8736607, 0.0], [-67.512728, -45.873547, 0.0], [-67.512712, -45.87329, 0.0], [-67.512489, -45.873225, 0.0], [-67.506512, -45.873212, 0.0], [-67.506541, -45.872188, 0.0], [-67.505649, -45.870941, 0.0], [-67.504347, -45.869845, 0.0]], [[-67.499207, -45.871093, 0.0], [-67.498807, -45.871064, 0.0], [-67.4988133, -45.869981, 0.0], [-67.5018933, -45.8699911, 0.0], [-67.501928, -45.871063, 0.0], [-67.50036, -45.871005, 0.0], [-67.500405, -45.873309, 0.0], [-67.499227, -45.873487, 0.0], [-67.499207, -45.871093, 0.0]], [[-67.5179569, -45.8790531, 0.0], [-67.511831, -45.874346, 0.0], [-67.5128774, -45.8736607, 0.0], [-67.519047, -45.878358, 0.0], [-67.5179569, -45.8790531, 0.0]], [[-67.518786, -45.880491, 0.0], [-67.519057, -45.880347, 0.0], [-67.517623, -45.879266, 0.0], [-67.5179569, -45.8790531, 0.0], [-67.51807, -45.87914, 0.0], [-67.517816, -45.879341, 0.0], [-67.519213, -45.880292, 0.0], [-67.519442, -45.880144, 0.0], [-67.520168, -45.880642, 0.0], [-67.519882, -45.880841, 0.0], [-67.5219412, -45.8823, 0.0], [-67.521752, -45.882422, 0.0], [-67.5197, -45.88081, 0.0], [-67.519405, -45.880985, 0.0], [-67.518786, -45.880491, 0.0]], [[-67.528893, -45.882694, 0.0], [-67.527264, -45.882629, 0.0], [-67.52204, -45.88237, 0.0], [-67.5219412, -45.8823, 0.0], [-67.523648, -45.8812, 0.0], [-67.528439, -45.881456, 0.0], [-67.531718, -45.881646, 0.0], [-67.533735, -45.881713, 0.0], [-67.5336444, -45.8829319, 0.0], [-67.531331, -45.882811, 0.0], [-67.528893, -45.882694, 0.0]], [[-67.54071, -45.882432, 0.0], [-67.541204, -45.882839, 0.0], [-67.541567, -45.883058, 0.0], [-67.541726, -45.88327, 0.0], [-67.5417045, -45.8833488, 0.0], [-67.541548, -45.883354, 0.0], [-67.540851, -45.88334, 0.0], [-67.540066, -45.883274, 0.0], [-67.5388543, -45.8832042, 0.0], [-67.53878, -45.883157, 0.0], [-67.53885, -45.882157, 0.0], [-67.538912, -45.881985, 0.0], [-67.540215, -45.882034, 0.0], [-67.54071, -45.882432, 0.0]], [[-67.542084, -45.883572, 0.0], [-67.538651, -45.883376, 0.0], [-67.533626, -45.883179, 0.0], [-67.5336444, -45.8829319, 0.0], [-67.538799, -45.883201, 0.0], [-67.5388543, -45.8832042, 0.0], [-67.538939, -45.883258, 0.0], [-67.539841, -45.883315, 0.0], [-67.541509, -45.883391, 0.0], [-67.5416912, -45.883398, 0.0], [-67.541683, -45.883428, 0.0], [-67.541813, -45.883515, 0.0], [-67.5422181, -45.8835393, 0.0], [-67.542084, -45.883572, 0.0]], [[-67.541948, -45.883323, 0.0], [-67.542205, -45.883337, 0.0], [-67.542379, -45.883431, 0.0], [-67.54238, -45.883549, 0.0], [-67.5422181, -45.8835393, 0.0], [-67.542248, -45.883532, 0.0], [-67.542287, -45.883468, 0.0], [-67.542233, -45.883394, 0.0], [-67.542079, -45.883377, 0.0], [-67.541832, -45.883381, 0.0], [-67.541692, -45.883398, 0.0], [-67.5416912, -45.883398, 0.0], [-67.5417045, -45.8833488, 0.0], [-67.54176, -45.883347, 0.0], [-67.541948, -45.883323, 0.0]]]}}]}