{
"type": "FeatureCollection",
"name": "linea-21",
"crs": { "type": "name", "properties": { "name": "urn:ogc:def:crs:OGC:1.3:CRS84" } },
"features": [
{ "type": "Feature", "properties": { "fid": 1, "linea": "21", "sentido": "vuelta", "nombre": "Padre Corti - Don Bosco - Standard" }, "geometry": { "type": "LineString", "coordinates": [ [ -67.425265, -45.798394, 0.0 ], [ -67.426998, -45.797462, 0.0 ], [ -67.428171, -45.796763, 0.0 ], [ -67.4283, -45.796203, 0.0 ], [ -67.428221, -45.795753, 0.0 ], [ -67.426858, -45.795926, 0.0 ], [ -67.426217, -45.796246, 0.0 ], [ -67.425172, -45.796671, 0.0 ], [ -67.424603, -45.796786, 0.0 ], [ -67.424362, -45.796648, 0.0 ], [ -67.423902, -45.796327, 0.0 ], [ -67.423044, -45.79573, 0.0 ], [ -67.422872, -45.795416, 0.0 ], [ -67.421583, -45.794146, 0.0 ], [ -67.420201, -45.792441, 0.0 ], [ -67.421306, -45.791958, 0.0 ], [ -67.421015, -45.791752, 0.0 ], [ -67.422783, -45.791086, 0.0 ], [ -67.424381, -45.790531, 0.0 ], [ -67.424952, -45.790248, 0.0 ], [ -67.426856, -45.788869, 0.0 ], [ -67.428574, -45.79011, 0.0 ], [ -67.431022, -45.789113, 0.0 ], [ -67.431282, -45.788966, 0.0 ], [ -67.431485, -45.78928, 0.0 ], [ -67.431434, -45.790524, 0.0 ], [ -67.431434, -45.792104, 0.0 ], [ -67.431417, -45.79262, 0.0 ], [ -67.431797, -45.795353, 0.0 ], [ -67.435325, -45.795637, 0.0 ], [ -67.44287, -45.796195, 0.0 ], [ -67.446481, -45.79629, 0.0 ], [ -67.446805, -45.796228, 0.0 ], [ -67.44706, -45.796155, 0.0 ], [ -67.447432, -45.796175, 0.0 ], [ -67.447666, -45.796246, 0.0 ], [ -67.449883, -45.796179, 0.0 ], [ -67.450637, -45.796075, 0.0 ], [ -67.454076, -45.795785, 0.0 ], [ -67.455623, -45.795651, 0.0 ], [ -67.456643, -45.795679, 0.0 ], [ -67.457142, -45.795708, 0.0 ], [ -67.457425, -45.79562, 0.0 ], [ -67.457661, -45.795435, 0.0 ], [ -67.460151, -45.795192, 0.0 ], [ -67.466081, -45.794536, 0.0 ], [ -67.466475, -45.794735, 0.0 ], [ -67.469343, -45.794905, 0.0 ], [ -67.470762, -45.794929, 0.0 ], [ -67.473415, -45.795161, 0.0 ], [ -67.473441, -45.794816, 0.0 ], [ -67.474826, -45.794812, 0.0 ], [ -67.474762, -45.795168, 0.0 ], [ -67.479943, -45.795427, 0.0 ], [ -67.489167, -45.796019, 0.0 ], [ -67.489352, -45.794863, 0.0 ], [ -67.48364, -45.79453, 0.0 ], [ -67.484024, -45.793937, 0.0 ], [ -67.49191, -45.794485, 0.0 ], [ -67.492439, -45.794318, 0.0 ], [ -67.49274, -45.794395, 0.0 ], [ -67.492918, -45.794654, 0.0 ], [ -67.492796, -45.795013, 0.0 ], [ -67.492211, -45.795272, 0.0 ], [ -67.492141, -45.795656, 0.0 ], [ -67.499514, -45.796378, 0.0 ], [ -67.500683, -45.796515, 0.0 ], [ -67.500897, -45.795549, 0.0 ], [ -67.506654, -45.795841, 0.0 ], [ -67.506497, -45.79755, 0.0 ], [ -67.507902, -45.797646, 0.0 ], [ -67.508126, -45.795719, 0.0 ], [ -67.519156, -45.793512, 0.0 ], [ -67.519241, -45.793244, 0.0 ] ] } },
{ "type": "Feature", "properties": { "fid": 2, "linea": "21", "sentido": "ida", "nombre": "Padre Corti - Don Bosco - Standard" }, "geometry": { "type": "LineString", "coordinates": [ [ -67.519228, -45.793137, 0.0 ], [ -67.521317, -45.79252, 0.0 ], [ -67.523546, -45.792076, 0.0 ], [ -67.523622, -45.792452, 0.0 ], [ -67.521448, -45.792881, 0.0 ], [ -67.522082, -45.793668, 0.0 ], [ -67.521916, -45.793789, 0.0 ], [ -67.519568, -45.794233, 0.0 ], [ -67.51937, -45.794102, 0.0 ], [ -67.519174, -45.79362, 0.0 ], [ -67.519023, -45.793612, 0.0 ], [ -67.515062, -45.794334, 0.0 ], [ -67.513548, -45.794597, 0.0 ], [ -67.511061, -45.795165, 0.0 ], [ -67.509032, -45.795561, 0.0 ], [ -67.50815, -45.795714, 0.0 ], [ -67.508083, -45.795834, 0.0 ], [ -67.508017, -45.79704, 0.0 ], [ -67.507882, -45.797095, 0.0 ], [ -67.506535, -45.79702, 0.0 ], [ -67.506493, -45.796886, 0.0 ], [ -67.506585, -45.795875, 0.0 ], [ -67.506465, -45.795835, 0.0 ], [ -67.50268, -45.79561, 0.0 ], [ -67.500974, -45.795557, 0.0 ], [ -67.500876, -45.795641, 0.0 ], [ -67.500664, -45.796582, 0.0 ], [ -67.500455, -45.796583, 0.0 ], [ -67.499167, -45.796434, 0.0 ], [ -67.499083, -45.796545, 0.0 ], [ -67.498949, -45.79703, 0.0 ], [ -67.498848, -45.797089, 0.0 ], [ -67.497629, -45.796906, 0.0 ], [ -67.496203, -45.796757, 0.0 ], [ -67.493377, -45.796386, 0.0 ], [ -67.4951, -45.795319, 0.0 ], [ -67.495408, -45.795183, 0.0 ], [ -67.495969, -45.795248, 0.0 ], [ -67.496061, -45.794691, 0.0 ], [ -67.495548, -45.794719, 0.0 ], [ -67.495234, -45.794847, 0.0 ], [ -67.494929, -45.794894, 0.0 ], [ -67.493819, -45.794864, 0.0 ], [ -67.493229, -45.794932, 0.0 ], [ -67.49266, -45.795046, 0.0 ], [ -67.492259, -45.795124, 0.0 ], [ -67.491922, -45.795039, 0.0 ], [ -67.49189, -45.794881, 0.0 ], [ -67.491489, -45.794615, 0.0 ], [ -67.490927, -45.794506, 0.0 ], [ -67.489757, -45.79441, 0.0 ], [ -67.484141, -45.794084, 0.0 ], [ -67.483965, -45.794258, 0.0 ], [ -67.483851, -45.794498, 0.0 ], [ -67.484413, -45.794563, 0.0 ], [ -67.48754, -45.794721, 0.0 ], [ -67.490353, -45.794871, 0.0 ], [ -67.490466, -45.79495, 0.0 ], [ -67.490374, -45.795093, 0.0 ], [ -67.490042, -45.795805, 0.0 ], [ -67.489899, -45.796042, 0.0 ], [ -67.489662, -45.796063, 0.0 ], [ -67.488437, -45.796027, 0.0 ], [ -67.483819, -45.79573, 0.0 ], [ -67.482922, -45.795693, 0.0 ], [ -67.474656, -45.795261, 0.0 ], [ -67.474567, -45.795837, 0.0 ], [ -67.47445, -45.79652, 0.0 ], [ -67.474325, -45.796549, 0.0 ], [ -67.465333, -45.796052, 0.0 ], [ -67.465331, -45.795933, 0.0 ], [ -67.465724, -45.795311, 0.0 ], [ -67.466084, -45.79488, 0.0 ], [ -67.466132, -45.794761, 0.0 ], [ -67.465825, -45.794627, 0.0 ], [ -67.465548, -45.79472, 0.0 ], [ -67.462413, -45.795009, 0.0 ], [ -67.461242, -45.795148, 0.0 ], [ -67.459973, -45.795299, 0.0 ], [ -67.459542, -45.795372, 0.0 ], [ -67.458461, -45.795545, 0.0 ], [ -67.457339, -45.795685, 0.0 ], [ -67.456538, -45.795697, 0.0 ], [ -67.455678, -45.79569, 0.0 ], [ -67.454733, -45.79577, 0.0 ], [ -67.45013, -45.796197, 0.0 ], [ -67.448898, -45.796224, 0.0 ], [ -67.44831, -45.796271, 0.0 ], [ -67.447905, -45.796345, 0.0 ], [ -67.447771, -45.796425, 0.0 ], [ -67.447665, -45.796559, 0.0 ], [ -67.447482, -45.79664, 0.0 ], [ -67.44725, -45.7966, 0.0 ], [ -67.446911, -45.796499, 0.0 ], [ -67.446667, -45.796412, 0.0 ], [ -67.446154, -45.796338, 0.0 ], [ -67.445602, -45.796271, 0.0 ], [ -67.44408, -45.796263, 0.0 ], [ -67.442706, -45.79624, 0.0 ], [ -67.432757, -45.795457, 0.0 ], [ -67.432735, -45.795236, 0.0 ], [ -67.432704, -45.795012, 0.0 ], [ -67.432932, -45.794853, 0.0 ], [ -67.435448, -45.793806, 0.0 ], [ -67.435583, -45.793668, 0.0 ], [ -67.435647, -45.793048, 0.0 ], [ -67.435622, -45.790204, 0.0 ], [ -67.435411, -45.790168, 0.0 ], [ -67.435089, -45.790199, 0.0 ], [ -67.434781, -45.790307, 0.0 ], [ -67.434606, -45.790413, 0.0 ], [ -67.434403, -45.790452, 0.0 ], [ -67.431497, -45.789261, 0.0 ], [ -67.431101, -45.789181, 0.0 ], [ -67.430338, -45.78946, 0.0 ], [ -67.428623, -45.790144, 0.0 ], [ -67.428476, -45.790122, 0.0 ], [ -67.426882, -45.78891, 0.0 ], [ -67.426801, -45.788896, 0.0 ], [ -67.424875, -45.790259, 0.0 ], [ -67.424313, -45.790521, 0.0 ], [ -67.422901, -45.791078, 0.0 ], [ -67.421291, -45.791722, 0.0 ], [ -67.421191, -45.791857, 0.0 ], [ -67.421308, -45.791958, 0.0 ], [ -67.42033, -45.792372, 0.0 ], [ -67.420334, -45.792468, 0.0 ], [ -67.420664, -45.792838, 0.0 ], [ -67.421137, -45.793394, 0.0 ], [ -67.422593, -45.794998, 0.0 ], [ -67.422854, -45.795213, 0.0 ], [ -67.423087, -45.79536, 0.0 ], [ -67.423202, -45.795457, 0.0 ], [ -67.423306, -45.795563, 0.0 ], [ -67.423249, -45.795656, 0.0 ], [ -67.423147, -45.795701, 0.0 ], [ -67.422934, -45.795901, 0.0 ], [ -67.422415, -45.796307, 0.0 ], [ -67.421922, -45.796721, 0.0 ], [ -67.421876, -45.79686, 0.0 ], [ -67.421937, -45.797032, 0.0 ], [ -67.422115, -45.797274, 0.0 ], [ -67.422978, -45.798802, 0.0 ], [ -67.425046, -45.798482, 0.0 ] ] } }
]
}
