{
"type": "FeatureCollection",
"name": "linea-6ah",
"crs": { "type": "name", "properties": { "name": "urn:ogc:def:crs:OGC:1.3:CRS84" } },
"features": [
{ "type": "Feature", "properties": { "fid": 1, "linea": "6ah", "sentido": "antihorario", "nombre": "Estadio Centenario - Centro - General Mosconi - Máximo Abásolo - Stella Maris - Centro" }, "geometry": { "type": "MultiLineString", "coordinates": [ [ [ -67.492682, -45.87215, 0.0 ], [ -67.49186, -45.872836, 0.0 ], [ -67.491709, -45.87293, 0.0 ], [ -67.491494, -45.872845, 0.0 ], [ -67.488202, -45.870933, 0.0 ], [ -67.486621, -45.869942, 0.0 ], [ -67.486384, -45.869785, 0.0 ], [ -67.486268, -45.869641, 0.0 ], [ -67.486274, -45.869259, 0.0 ], [ -67.486209, -45.869093, 0.0 ], [ -67.480134, -45.866235, 0.0 ], [ -67.479986, -45.86612, 0.0 ], [ -67.479951, -45.865893, 0.0 ], [ -67.479945, -45.864569, 0.0 ], [ -67.479851, -45.864473, 0.0 ], [ -67.475702, -45.863618, 0.0 ], [ -67.475442, -45.863544, 0.0 ], [ -67.475266, -45.863403, 0.0 ], [ -67.475173, -45.863235, 0.0 ], [ -67.47512, -45.862938, 0.0 ], [ -67.474824, -45.862557, 0.0 ], [ -67.47441, -45.862148, 0.0 ], [ -67.474159, -45.861767, 0.0 ], [ -67.474128, -45.861441, 0.0 ], [ -67.474416, -45.860852, 0.0 ], [ -67.47511, -45.859701, 0.0 ], [ -67.47536, -45.859181, 0.0 ], [ -67.475633, -45.858236, 0.0 ], [ -67.475842, -45.857437, 0.0 ], [ -67.476021, -45.856783, 0.0 ], [ -67.476114, -45.856442, 0.0 ], [ -67.476102, -45.855833, 0.0 ], [ -67.476172, -45.855466, 0.0 ], [ -67.476318, -45.855188, 0.0 ], [ -67.476488, -45.855011, 0.0 ], [ -67.476854, -45.854674, 0.0 ], [ -67.477365, -45.854294, 0.0 ], [ -67.477591, -45.854027, 0.0 ], [ -67.477736, -45.853597, 0.0 ], [ -67.477678, -45.853286, 0.0 ], [ -67.477507, -45.852977, 0.0 ], [ -67.477096, -45.852348, 0.0 ], [ -67.476785, -45.851813, 0.0 ], [ -67.476707, -45.851386, 0.0 ], [ -67.47674, -45.85093, 0.0 ], [ -67.476988, -45.850119, 0.0 ], [ -67.477108, -45.849508, 0.0 ], [ -67.477111, -45.849116, 0.0 ], [ -67.477064, -45.848828, 0.0 ], [ -67.47686, -45.848536, 0.0 ], [ -67.476601, -45.848261, 0.0 ], [ -67.475917, -45.847755, 0.0 ], [ -67.475295, -45.847239, 0.0 ], [ -67.475103, -45.846876, 0.0 ], [ -67.475113, -45.846391, 0.0 ], [ -67.475512, -45.84512, 0.0 ], [ -67.476026, -45.843692, 0.0 ], [ -67.476201, -45.842783, 0.0 ], [ -67.476402, -45.84165, 0.0 ], [ -67.476441, -45.840893, 0.0 ], [ -67.476422, -45.840073, 0.0 ], [ -67.476348, -45.839665, 0.0 ], [ -67.47625, -45.839562, 0.0 ], [ -67.4761, -45.839518, 0.0 ], [ -67.475841, -45.839472, 0.0 ], [ -67.475624, -45.839472, 0.0 ], [ -67.475286, -45.839463, 0.0 ], [ -67.474972, -45.839471, 0.0 ], [ -67.474811, -45.839467, 0.0 ], [ -67.474754, -45.839399, 0.0 ], [ -67.474749, -45.83926, 0.0 ], [ -67.474745, -45.838761, 0.0 ], [ -67.474746, -45.838381, 0.0 ], [ -67.474728, -45.838051, 0.0 ], [ -67.474738, -45.837901, 0.0 ], [ -67.474785, -45.837822, 0.0 ], [ -67.47489, -45.837799, 0.0 ], [ -67.475066, -45.837818, 0.0 ], [ -67.475635, -45.837943, 0.0 ], [ -67.47613, -45.838066, 0.0 ], [ -67.476412, -45.838141, 0.0 ], [ -67.476595, -45.838165, 0.0 ], [ -67.476891, -45.838241, 0.0 ], [ -67.477498, -45.838397, 0.0 ], [ -67.477751, -45.838453, 0.0 ], [ -67.478575, -45.838645, 0.0 ], [ -67.478948, -45.838704, 0.0 ], [ -67.479249, -45.838745, 0.0 ], [ -67.479975, -45.838785, 0.0 ], [ -67.480979, -45.838863, 0.0 ], [ -67.482334, -45.838932, 0.0 ], [ -67.48353, -45.839005, 0.0 ], [ -67.485046, -45.839064, 0.0 ], [ -67.486107, -45.839057, 0.0 ], [ -67.487868, -45.839126, 0.0 ], [ -67.488384, -45.839137, 0.0 ], [ -67.489119, -45.839142, 0.0 ], [ -67.489987, -45.839158, 0.0 ], [ -67.49099, -45.839201, 0.0 ], [ -67.494048, -45.839363, 0.0 ], [ -67.494841, -45.839372, 0.0 ], [ -67.495424, -45.839376, 0.0 ], [ -67.495805, -45.839337, 0.0 ], [ -67.496052, -45.839305, 0.0 ], [ -67.496299, -45.839333, 0.0 ], [ -67.496522, -45.839632, 0.0 ], [ -67.497375, -45.839665, 0.0 ], [ -67.499278, -45.839699, 0.0 ], [ -67.499981, -45.839788, 0.0 ], [ -67.50064, -45.83986, 0.0 ], [ -67.501516, -45.839913, 0.0 ], [ -67.50236, -45.8399, 0.0 ], [ -67.502814, -45.839922, 0.0 ], [ -67.503421, -45.839948, 0.0 ], [ -67.503439, -45.839808, 0.0 ], [ -67.503471, -45.839703, 0.0 ], [ -67.504746, -45.839734, 0.0 ], [ -67.506301, -45.839732, 0.0 ], [ -67.50675, -45.839691, 0.0 ], [ -67.507696, -45.839535, 0.0 ], [ -67.508484, -45.839399, 0.0 ], [ -67.509203, -45.839273, 0.0 ], [ -67.509659, -45.839205, 0.0 ], [ -67.510307, -45.839052, 0.0 ], [ -67.510833, -45.838947, 0.0 ], [ -67.511163, -45.838947, 0.0 ], [ -67.511486, -45.83913, 0.0 ], [ -67.511488, -45.839426, 0.0 ], [ -67.511489, -45.839738, 0.0 ], [ -67.511736, -45.840024, 0.0 ], [ -67.513673, -45.841185, 0.0 ], [ -67.514962, -45.841893, 0.0 ], [ -67.516314, -45.842482, 0.0 ], [ -67.518214, -45.843338, 0.0 ], [ -67.518461, -45.843489, 0.0 ], [ -67.518687, -45.843553, 0.0 ], [ -67.519141, -45.843641, 0.0 ], [ -67.519237, -45.843828, 0.0 ], [ -67.519663, -45.84406, 0.0 ], [ -67.52062, -45.844519, 0.0 ], [ -67.521805, -45.844956, 0.0 ], [ -67.522766, -45.845288, 0.0 ], [ -67.523706, -45.845493, 0.0 ], [ -67.525384, -45.845544, 0.0 ], [ -67.526567, -45.845633, 0.0 ], [ -67.527615, -45.845823, 0.0 ], [ -67.528547, -45.845988, 0.0 ], [ -67.529096, -45.846091, 0.0 ], [ -67.529929, -45.846159, 0.0 ], [ -67.530573, -45.84622, 0.0 ], [ -67.531382, -45.846319, 0.0 ], [ -67.532106, -45.846456, 0.0 ], [ -67.532691, -45.846577, 0.0 ], [ -67.533301, -45.846644, 0.0 ], [ -67.533934, -45.846577, 0.0 ], [ -67.534732, -45.846346, 0.0 ], [ -67.538453, -45.845128, 0.0 ], [ -67.53943, -45.844836, 0.0 ], [ -67.540063, -45.844709, 0.0 ], [ -67.540809, -45.844612, 0.0 ], [ -67.541668, -45.844627, 0.0 ], [ -67.542333, -45.844662, 0.0 ], [ -67.543208, -45.844741, 0.0 ], [ -67.543938, -45.844854, 0.0 ], [ -67.544904, -45.845171, 0.0 ], [ -67.545686, -45.845593, 0.0 ], [ -67.546465, -45.84621, 0.0 ], [ -67.546889, -45.846705, 0.0 ], [ -67.547561, -45.847444, 0.0 ], [ -67.548283, -45.848056, 0.0 ], [ -67.549181, -45.848598, 0.0 ], [ -67.550406, -45.848977, 0.0 ], [ -67.55205, -45.849318, 0.0 ], [ -67.553747, -45.849613, 0.0 ], [ -67.55637, -45.850014, 0.0 ], [ -67.558225, -45.85035, 0.0 ], [ -67.559273, -45.850597, 0.0 ], [ -67.560459, -45.850889, 0.0 ], [ -67.561085, -45.85113, 0.0 ], [ -67.561749, -45.851524, 0.0 ], [ -67.562115, -45.851906, 0.0 ], [ -67.56241, -45.852303, 0.0 ], [ -67.562558, -45.852649, 0.0 ], [ -67.562559, -45.852852, 0.0 ], [ -67.562566, -45.853181, 0.0 ], [ -67.562563, -45.85347, 0.0 ], [ -67.562534, -45.853657, 0.0 ], [ -67.562326, -45.853819, 0.0 ], [ -67.562061, -45.853879, 0.0 ], [ -67.561743, -45.853798, 0.0 ], [ -67.561271, -45.853645, 0.0 ], [ -67.560637, -45.853419, 0.0 ], [ -67.560063, -45.853241, 0.0 ], [ -67.559604, -45.853218, 0.0 ], [ -67.559156, -45.853226, 0.0 ], [ -67.558684, -45.853266, 0.0 ], [ -67.558113, -45.853348, 0.0 ], [ -67.557578, -45.853534, 0.0 ], [ -67.557139, -45.853732, 0.0 ], [ -67.556923, -45.854014, 0.0 ], [ -67.556949, -45.854312, 0.0 ], [ -67.556969, -45.854575, 0.0 ], [ -67.556793, -45.854884, 0.0 ], [ -67.556243, -45.855147, 0.0 ], [ -67.554844, -45.85556, 0.0 ], [ -67.552761, -45.856249, 0.0 ], [ -67.551546, -45.856639, 0.0 ], [ -67.551062, -45.856791, 0.0 ], [ -67.550784, -45.856932, 0.0 ], [ -67.55073, -45.856987, 0.0 ], [ -67.550639, -45.857176, 0.0 ], [ -67.550496, -45.857595, 0.0 ], [ -67.55028, -45.858106, 0.0 ], [ -67.550272, -45.858466, 0.0 ], [ -67.550417, -45.858693, 0.0 ], [ -67.550786, -45.859426, 0.0 ], [ -67.550585, -45.859466, 0.0 ], [ -67.550386, -45.85946, 0.0 ], [ -67.548808, -45.859515, 0.0 ], [ -67.548501, -45.859568, 0.0 ], [ -67.545547, -45.861527, 0.0 ], [ -67.528288, -45.872603, 0.0 ], [ -67.528249, -45.87268, 0.0 ], [ -67.528289, -45.872764, 0.0 ], [ -67.532086, -45.875655, 0.0 ], [ -67.532466, -45.875982, 0.0 ], [ -67.532606, -45.876066, 0.0 ], [ -67.532626, -45.876204, 0.0 ], [ -67.532575, -45.876295, 0.0 ], [ -67.532393, -45.876472, 0.0 ], [ -67.532221, -45.876571, 0.0 ], [ -67.532221, -45.876825, 0.0 ], [ -67.531727, -45.881222, 0.0 ], [ -67.531595, -45.882859, 0.0 ], [ -67.531616, -45.883149, 0.0 ], [ -67.531556, -45.883459, 0.0 ], [ -67.531567, -45.883823, 0.0 ], [ -67.531609, -45.884569, 0.0 ], [ -67.531542, -45.885235, 0.0 ], [ -67.531211, -45.888662, 0.0 ], [ -67.531176, -45.888939, 0.0 ], [ -67.53112, -45.889175, 0.0 ], [ -67.530815, -45.889318, 0.0 ], [ -67.53032, -45.889149, 0.0 ], [ -67.529012, -45.888695, 0.0 ], [ -67.524677, -45.887294, 0.0 ], [ -67.52345, -45.886888, 0.0 ], [ -67.523221, -45.886888, 0.0 ], [ -67.52307, -45.887141, 0.0 ], [ -67.520715, -45.890586, 0.0 ], [ -67.517538, -45.895291, 0.0 ], [ -67.517391, -45.895463, 0.0 ], [ -67.517303, -45.895541, 0.0 ], [ -67.517155, -45.895596, 0.0 ], [ -67.517034, -45.895653, 0.0 ], [ -67.51695, -45.895758, 0.0 ], [ -67.516865, -45.89589, 0.0 ], [ -67.516685, -45.896014, 0.0 ], [ -67.516485, -45.896003, 0.0 ], [ -67.516389, -45.895998, 0.0 ], [ -67.51626, -45.89593, 0.0 ], [ -67.51597, -45.895657, 0.0 ], [ -67.515639, -45.895352, 0.0 ], [ -67.515333, -45.895022, 0.0 ], [ -67.515013, -45.894556, 0.0 ], [ -67.514724, -45.893824, 0.0 ], [ -67.514588, -45.893447, 0.0 ], [ -67.514124, -45.892875, 0.0 ], [ -67.513247, -45.891984, 0.0 ], [ -67.512554, -45.891247, 0.0 ], [ -67.512275, -45.890793, 0.0 ], [ -67.512038, -45.890227, 0.0 ], [ -67.511855, -45.889654, 0.0 ], [ -67.511695, -45.889147, 0.0 ], [ -67.511511, -45.888706, 0.0 ], [ -67.511348, -45.888397, 0.0 ], [ -67.510998, -45.887888, 0.0 ], [ -67.510089, -45.886448, 0.0 ], [ -67.508629, -45.884391, 0.0 ], [ -67.507829, -45.883308, 0.0 ], [ -67.507452, -45.882677, 0.0 ], [ -67.50734, -45.882497, 0.0 ], [ -67.507104, -45.882393, 0.0 ], [ -67.506427, -45.882085, 0.0 ], [ -67.506078, -45.881913, 0.0 ], [ -67.506047, -45.88174, 0.0 ], [ -67.506314, -45.88159, 0.0 ], [ -67.50939, -45.879596, 0.0 ], [ -67.50944, -45.879511, 0.0 ], [ -67.509156, -45.879354, 0.0 ], [ -67.50602, -45.87805, 0.0 ], [ -67.50278, -45.876663, 0.0 ], [ -67.502576, -45.876599, 0.0 ], [ -67.502299, -45.876461, 0.0 ], [ -67.50213, -45.876335, 0.0 ], [ -67.501678, -45.87612, 0.0 ], [ -67.500973, -45.875822, 0.0 ], [ -67.500436, -45.87542, 0.0 ], [ -67.499963, -45.875072, 0.0 ], [ -67.499375, -45.874714, 0.0 ], [ -67.498907, -45.874567, 0.0 ], [ -67.498518, -45.874532, 0.0 ], [ -67.498172, -45.874578, 0.0 ], [ -67.497601, -45.874788, 0.0 ], [ -67.496974, -45.875126, 0.0 ], [ -67.496374, -45.87529, 0.0 ], [ -67.4959, -45.87531, 0.0 ], [ -67.495433, -45.875222, 0.0 ], [ -67.495149, -45.875113, 0.0 ], [ -67.491685, -45.873036, 0.0 ], [ -67.490269, -45.872173, 0.0 ], [ -67.490158, -45.872071, 0.0 ], [ -67.490423, -45.871877, 0.0 ], [ -67.491053, -45.87134, 0.0 ], [ -67.491557, -45.870947, 0.0 ], [ -67.491741, -45.870912, 0.0 ], [ -67.491908, -45.870888, 0.0 ], [ -67.492167, -45.870943, 0.0 ], [ -67.492757, -45.871226, 0.0 ], [ -67.493195, -45.871445, 0.0 ], [ -67.493374, -45.871514, 0.0 ], [ -67.493382, -45.871629, 0.0 ], [ -67.493232, -45.871738, 0.0 ], [ -67.49292, -45.871981, 0.0 ], [ -67.492754, -45.872097, 0.0 ] ] ] } }
]
}
