{
"type": "FeatureCollection",
"name": "linea-5",
"crs": { "type": "name", "properties": { "name": "urn:ogc:def:crs:OGC:1.3:CRS84" } },
"features": [
{ "type": "Feature", "properties": { "fid": 1, "linea": "5", "sentido": "ida", "nombre": "Estadio Centenario - Abel Amaya" }, "geometry": { "type": "LineString", "coordinates": [ [ -67.541983, -45.883572, 0.0 ], [ -67.541607, -45.883558, 0.0 ], [ -67.533662, -45.88312, 0.0 ], [ -67.533601, -45.883008, 0.0 ], [ -67.533768, -45.881715, 0.0 ], [ -67.532633, -45.881665, 0.0 ], [ -67.523664, -45.881226, 0.0 ], [ -67.521948, -45.88228, 0.0 ], [ -67.521833, -45.882393, 0.0 ], [ -67.521668, -45.882411, 0.0 ], [ -67.521589, -45.882357, 0.0 ], [ -67.521589, -45.88226, 0.0 ], [ -67.519736, -45.880893, 0.0 ], [ -67.51964, -45.880875, 0.0 ], [ -67.519544, -45.880905, 0.0 ], [ -67.519448, -45.880959, 0.0 ], [ -67.518839, -45.880511, 0.0 ], [ -67.518874, -45.880438, 0.0 ], [ -67.519046, -45.880308, 0.0 ], [ -67.517821, -45.879412, 0.0 ], [ -67.517735, -45.879319, 0.0 ], [ -67.5178, -45.879207, 0.0 ], [ -67.517844, -45.87914, 0.0 ], [ -67.519014, -45.878391, 0.0 ], [ -67.518975, -45.878327, 0.0 ], [ -67.518902, -45.87827, 0.0 ], [ -67.512727, -45.873605, 0.0 ], [ -67.512704, -45.87355, 0.0 ], [ -67.512705, -45.873399, 0.0 ], [ -67.51271, -45.873331, 0.0 ], [ -67.512687, -45.873286, 0.0 ], [ -67.512585, -45.87325, 0.0 ], [ -67.512334, -45.873235, 0.0 ], [ -67.50656, -45.873236, 0.0 ], [ -67.506494, -45.873188, 0.0 ], [ -67.50651, -45.872304, 0.0 ], [ -67.506409, -45.872104, 0.0 ], [ -67.505651, -45.87101, 0.0 ], [ -67.504459, -45.869924, 0.0 ], [ -67.504375, -45.869876, 0.0 ], [ -67.504227, -45.869915, 0.0 ], [ -67.504068, -45.869968, 0.0 ], [ -67.503867, -45.870007, 0.0 ], [ -67.501919, -45.870011, 0.0 ], [ -67.49736, -45.869983, 0.0 ], [ -67.497267, -45.869929, 0.0 ], [ -67.497256, -45.862467, 0.0 ], [ -67.497196, -45.862433, 0.0 ], [ -67.49579, -45.862437, 0.0 ], [ -67.495639, -45.862432, 0.0 ], [ -67.484738, -45.862457, 0.0 ], [ -67.484619, -45.862494, 0.0 ], [ -67.484605, -45.862543, 0.0 ], [ -67.484619, -45.863464, 0.0 ], [ -67.484466, -45.863492, 0.0 ], [ -67.481661, -45.863476, 0.0 ], [ -67.481512, -45.863556, 0.0 ], [ -67.481334, -45.863647, 0.0 ], [ -67.480898, -45.863674, 0.0 ], [ -67.480247, -45.863675, 0.0 ], [ -67.479965, -45.863637, 0.0 ], [ -67.479939, -45.86346, 0.0 ], [ -67.479957, -45.862817, 0.0 ], [ -67.479974, -45.86236, 0.0 ], [ -67.479978, -45.862201, 0.0 ], [ -67.480044, -45.862162, 0.0 ], [ -67.48026, -45.862157, 0.0 ], [ -67.481396, -45.862166, 0.0 ], [ -67.481482, -45.862219, 0.0 ], [ -67.481513, -45.863326, 0.0 ], [ -67.481521, -45.863912, 0.0 ], [ -67.481497, -45.864432, 0.0 ], [ -67.48151, -45.864529, 0.0 ], [ -67.481615, -45.864612, 0.0 ], [ -67.481875, -45.864746, 0.0 ], [ -67.482877, -45.865208, 0.0 ], [ -67.4831, -45.86534, 0.0 ], [ -67.483788, -45.865649, 0.0 ], [ -67.484394, -45.865901, 0.0 ], [ -67.484718, -45.866034, 0.0 ], [ -67.485132, -45.866182, 0.0 ], [ -67.485641, -45.866391, 0.0 ], [ -67.486247, -45.866747, 0.0 ], [ -67.486956, -45.867147, 0.0 ], [ -67.48779, -45.867733, 0.0 ], [ -67.489239, -45.868776, 0.0 ], [ -67.49, -45.869331, 0.0 ], [ -67.490304, -45.86958, 0.0 ], [ -67.490788, -45.869982, 0.0 ], [ -67.491221, -45.870298, 0.0 ], [ -67.491841, -45.870733, 0.0 ], [ -67.492297, -45.870965, 0.0 ], [ -67.492745, -45.871215, 0.0 ], [ -67.493311, -45.871477, 0.0 ], [ -67.493437, -45.871565, 0.0 ], [ -67.493402, -45.871652, 0.0 ], [ -67.492832, -45.872077, 0.0 ] ] } },
{ "type": "Feature", "properties": { "fid": 2, "linea": "5", "sentido": "vuelta", "nombre": "Estadio Centenario - Abel Amaya" }, "geometry": { "type": "LineString", "coordinates": [ [ -67.492696, -45.872161, 0.0 ], [ -67.491983, -45.872766, 0.0 ], [ -67.491753, -45.872875, 0.0 ], [ -67.491604, -45.872867, 0.0 ], [ -67.491401, -45.872753, 0.0 ], [ -67.490097, -45.872013, 0.0 ], [ -67.487991, -45.87077, 0.0 ], [ -67.486519, -45.869857, 0.0 ], [ -67.486301, -45.869717, 0.0 ], [ -67.486239, -45.869526, 0.0 ], [ -67.486235, -45.869182, 0.0 ], [ -67.48618, -45.86902, 0.0 ], [ -67.485951, -45.868923, 0.0 ], [ -67.480259, -45.866285, 0.0 ], [ -67.480104, -45.866196, 0.0 ], [ -67.480007, -45.866059, 0.0 ], [ -67.479946, -45.86581, 0.0 ], [ -67.479954, -45.864698, 0.0 ], [ -67.479942, -45.862327, 0.0 ], [ -67.479954, -45.862226, 0.0 ], [ -67.48006, -45.862153, 0.0 ], [ -67.487886, -45.862155, 0.0 ], [ -67.488312, -45.862168, 0.0 ], [ -67.48896, -45.862163, 0.0 ], [ -67.490598, -45.862134, 0.0 ], [ -67.493682, -45.862127, 0.0 ], [ -67.493751, -45.8621, 0.0 ], [ -67.493791, -45.862065, 0.0 ], [ -67.493842, -45.862002, 0.0 ], [ -67.493827, -45.861791, 0.0 ], [ -67.493814, -45.860113, 0.0 ], [ -67.493834, -45.860069, 0.0 ], [ -67.493894, -45.860028, 0.0 ], [ -67.494001, -45.860014, 0.0 ], [ -67.496562, -45.860003, 0.0 ], [ -67.498661, -45.860011, 0.0 ], [ -67.498717, -45.860022, 0.0 ], [ -67.498776, -45.860058, 0.0 ], [ -67.49881, -45.860112, 0.0 ], [ -67.49882, -45.860184, 0.0 ], [ -67.498832, -45.862222, 0.0 ], [ -67.498881, -45.870966, 0.0 ], [ -67.498927, -45.871017, 0.0 ], [ -67.499108, -45.871072, 0.0 ], [ -67.499211, -45.871198, 0.0 ], [ -67.499248, -45.873378, 0.0 ], [ -67.499336, -45.873382, 0.0 ], [ -67.500273, -45.873231, 0.0 ], [ -67.500346, -45.873195, 0.0 ], [ -67.500369, -45.871044, 0.0 ], [ -67.501826, -45.871042, 0.0 ], [ -67.501895, -45.871018, 0.0 ], [ -67.50196, -45.870867, 0.0 ], [ -67.501925, -45.870677, 0.0 ], [ -67.501933, -45.869986, 0.0 ], [ -67.502028, -45.869938, 0.0 ], [ -67.502205, -45.869933, 0.0 ], [ -67.503605, -45.869951, 0.0 ], [ -67.503743, -45.869948, 0.0 ], [ -67.503855, -45.869925, 0.0 ], [ -67.504082, -45.869833, 0.0 ], [ -67.504151, -45.869797, 0.0 ], [ -67.504297, -45.869794, 0.0 ], [ -67.504396, -45.869821, 0.0 ], [ -67.504543, -45.869931, 0.0 ], [ -67.504832, -45.870164, 0.0 ], [ -67.505534, -45.870815, 0.0 ], [ -67.505672, -45.870963, 0.0 ], [ -67.505786, -45.871094, 0.0 ], [ -67.506213, -45.871728, 0.0 ], [ -67.506423, -45.872052, 0.0 ], [ -67.506507, -45.872143, 0.0 ], [ -67.506667, -45.872164, 0.0 ], [ -67.506888, -45.872192, 0.0 ], [ -67.512701, -45.872158, 0.0 ], [ -67.512696, -45.873231, 0.0 ], [ -67.513067, -45.873247, 0.0 ], [ -67.513288, -45.873406, 0.0 ], [ -67.511845, -45.874357, 0.0 ], [ -67.511911, -45.874444, 0.0 ], [ -67.512402, -45.87481, 0.0 ], [ -67.517889, -45.878962, 0.0 ], [ -67.518037, -45.879118, 0.0 ], [ -67.518037, -45.879162, 0.0 ], [ -67.517933, -45.879241, 0.0 ], [ -67.517829, -45.879324, 0.0 ], [ -67.517884, -45.879365, 0.0 ], [ -67.519075, -45.880214, 0.0 ], [ -67.519154, -45.880256, 0.0 ], [ -67.519236, -45.880253, 0.0 ], [ -67.519368, -45.880171, 0.0 ], [ -67.519491, -45.880171, 0.0 ], [ -67.51956, -45.880206, 0.0 ], [ -67.52002, -45.880555, 0.0 ], [ -67.52002, -45.880634, 0.0 ], [ -67.519966, -45.880678, 0.0 ], [ -67.519902, -45.880748, 0.0 ], [ -67.519889, -45.880812, 0.0 ], [ -67.519962, -45.880891, 0.0 ], [ -67.521629, -45.882133, 0.0 ], [ -67.521996, -45.882344, 0.0 ], [ -67.522206, -45.882379, 0.0 ], [ -67.522822, -45.8824, 0.0 ], [ -67.524074, -45.882468, 0.0 ], [ -67.528217, -45.882671, 0.0 ], [ -67.529872, -45.882755, 0.0 ], [ -67.531196, -45.882824, 0.0 ], [ -67.534589, -45.883012, 0.0 ], [ -67.535605, -45.883059, 0.0 ], [ -67.536807, -45.883125, 0.0 ], [ -67.541485, -45.88335, 0.0 ], [ -67.541661, -45.883349, 0.0 ], [ -67.541833, -45.883327, 0.0 ], [ -67.542023, -45.883305, 0.0 ], [ -67.542209, -45.883311, 0.0 ], [ -67.542332, -45.883393, 0.0 ], [ -67.542351, -45.883472, 0.0 ], [ -67.542305, -45.883551, 0.0 ], [ -67.542201, -45.883576, 0.0 ] ] } }
]
}
