{"type": "FeatureCollection", "name": "linea-1", "crs": {"type": "name", "properties": {"name": "urn:ogc:def:crs:OGC:1.3:CRS84"}}, "features": [{"type": "Feature", "properties": {"fid": 1, "linea": "1", "sentido": "ida", "nombre": "Máximo Abásolo - Centro"}, "geometry": {"type": "LineString", "coordinates": [[-67.548831, -45.859392, 0.0], [-67.548738, -45.859334, 0.0], [-67.549751, -45.858628, 0.0], [-67.549848, -45.858555, 0.0], [-67.549885, -45.858534, 0.0], [-67.549333, -45.857546, 0.0], [-67.548777, -45.856604, 0.0], [-67.548665, -45.856419, 0.0], [-67.548564, -45.856323, 0.0], [-67.548554, -45.856316, 0.0], [-67.5482, -45.856209, 0.0], [-67.547721, -45.856032, 0.0], [-67.547547, -45.855976, 0.0], [-67.547429, -45.855961, 0.0], [-67.546458, -45.856158, 0.0], [-67.546298, -45.856206, 0.0], [-67.542307, -45.857073, 0.0], [-67.542255, -45.85715, 0.0], [-67.542163, -45.857248, 0.0], [-67.54197, -45.857298, 0.0], [-67.541759, -45.85725, 0.0], [-67.541522, -45.857117, 0.0], [-67.541333, -45.857069, 0.0], [-67.541141, -45.857128, 0.0], [-67.533029, -45.858662, 0.0], [-67.532656, -45.858707, 0.0], [-67.532418, -45.858738, 0.0], [-67.528535, -45.858866, 0.0], [-67.528429, -45.858922, 0.0], [-67.528435, -45.85905, 0.0], [-67.528501, -45.860188, 0.0], [-67.528396, -45.860301, 0.0], [-67.526399, -45.86036, 0.0], [-67.5211, -45.860508, 0.0], [-67.520971, -45.860563, 0.0], [-67.520985, -45.862197, 0.0], [-67.520884, -45.862295, 0.0], [-67.520535, -45.862316, 0.0], [-67.508293, -45.862434, 0.0], [-67.501699, -45.862385, 0.0], [-67.500979, -45.862417, 0.0], [-67.500642, -45.862417, 0.0], [-67.500491, -45.86239, 0.0], [-67.500373, -45.862265, 0.0], [-67.500351, -45.859451, 0.0], [-67.500384, -45.856822, 0.0], [-67.500367, -45.856769, 0.0], [-67.500262, -45.856736, 0.0], [-67.499772, -45.856742, 0.0], [-67.495944, -45.85675, 0.0], [-67.495812, -45.856822, 0.0], [-67.495744, -45.856927, 0.0], [-67.495749, -45.857222, 0.0], [-67.495708, -45.862286, 0.0], [-67.495637, -45.862391, 0.0], [-67.495456, -45.862419, 0.0], [-67.48468, -45.862402, 0.0], [-67.48458, -45.8625, 0.0], [-67.4846, -45.863426, 0.0], [-67.484581, -45.865663, 0.0], [-67.484537, -45.865896, 0.0], [-67.484395, -45.865969, 0.0], [-67.484311, -45.866079, 0.0], [-67.484301, -45.866421, 0.0], [-67.484302, -45.866643, 0.0], [-67.484322, -45.867372, 0.0], [-67.484322, -45.86797, 0.0], [-67.484314, -45.868019, 0.0], [-67.484292, -45.868064, 0.0], [-67.484228, -45.868091, 0.0], [-67.484121, -45.868089, 0.0], [-67.480021, -45.866167, 0.0], [-67.479968, -45.86605, 0.0], [-67.479857, -45.862774, 0.0], [-67.480844, -45.862782, 0.0]]}}, {"type": "Feature", "properties": {"fid": 2, "linea": "1", "sentido": "vuelta", "nombre": "Máximo Abásolo - Centro"}, "geometry": {"type": "LineString", "coordinates": [[-67.480912, -45.862764, 0.0], [-67.480931, -45.862791, 0.0], [-67.48149, -45.862779, 0.0], [-67.481502, -45.863937, 0.0], [-67.481503, -45.864054, 0.0], [-67.481515, -45.864302, 0.0], [-67.481559, -45.864659, 0.0], [-67.483346, -45.865423, 0.0], [-67.48616, -45.866664, 0.0], [-67.491938, -45.870682, 0.0], [-67.49329, -45.869772, 0.0], [-67.493781, -45.869179, 0.0], [-67.493802, -45.864571, 0.0], [-67.497293, -45.864575, 0.0], [-67.497302, -45.855723, 0.0], [-67.49737, -45.855676, 0.0], [-67.498551, -45.855677, 0.0], [-67.4988, -45.855663, 0.0], [-67.499202, -45.855649, 0.0], [-67.499748, -45.855655, 0.0], [-67.500083, -45.855655, 0.0], [-67.500319, -45.855656, 0.0], [-67.500452, -45.855696, 0.0], [-67.501726, -45.8557, 0.0], [-67.501865, -45.8557, 0.0], [-67.501914, -45.855739, 0.0], [-67.50193, -45.858857, 0.0], [-67.501884, -45.858896, 0.0], [-67.499039, -45.858897, 0.0], [-67.498911, -45.858903, 0.0], [-67.498855, -45.858953, 0.0], [-67.498837, -45.861972, 0.0], [-67.498869, -45.862105, 0.0], [-67.498919, -45.86214, 0.0], [-67.50764, -45.86215, 0.0], [-67.509663, -45.862162, 0.0], [-67.515125, -45.862112, 0.0], [-67.516698, -45.862098, 0.0], [-67.5196, -45.862052, 0.0], [-67.519814, -45.862046, 0.0], [-67.519905, -45.862023, 0.0], [-67.519963, -45.861954, 0.0], [-67.519945, -45.861373, 0.0], [-67.519944, -45.861043, 0.0], [-67.519935, -45.860678, 0.0], [-67.520008, -45.860597, 0.0], [-67.520101, -45.860522, 0.0], [-67.523775, -45.86041, 0.0], [-67.525252, -45.860361, 0.0], [-67.528196, -45.860276, 0.0], [-67.52839, -45.860258, 0.0], [-67.528462, -45.860174, 0.0], [-67.528394, -45.859017, 0.0], [-67.528404, -45.85889, 0.0], [-67.528585, -45.858828, 0.0], [-67.532551, -45.858682, 0.0], [-67.532841, -45.858657, 0.0], [-67.535781, -45.85808, 0.0], [-67.540695, -45.857151, 0.0], [-67.541256, -45.857041, 0.0], [-67.547013, -45.855906, 0.0], [-67.547299, -45.855857, 0.0], [-67.547535, -45.855896, 0.0], [-67.548494, -45.856254, 0.0], [-67.548655, -45.856347, 0.0], [-67.549121, -45.857127, 0.0], [-67.549757, -45.858239, 0.0], [-67.549903, -45.858355, 0.0], [-67.550013, -45.85845, 0.0], [-67.550126, -45.858477, 0.0], [-67.550251, -45.858561, 0.0], [-67.550353, -45.858727, 0.0], [-67.55053, -45.859023, 0.0], [-67.55071, -45.859317, 0.0], [-67.550709, -45.859432, 0.0], [-67.55039, -45.85948, 0.0], [-67.548944, -45.859526, 0.0], [-67.548798, -45.859505, 0.0], [-67.54875, -45.859434, 0.0]]}}]}