{
"type": "FeatureCollection",
"name": "linea-12",
"crs": { "type": "name", "properties": { "name": "urn:ogc:def:crs:OGC:1.3:CRS84" } },
"features": [
{ "type": "Feature", "properties": { "fid": 1, "linea": "12", "sentido": "vuelta", "nombre": "Centro - Máximo Abásolo" }, "geometry": { "type": "LineString", "coordinates": [ [ -67.550148, -45.85848, 0.0 ], [ -67.550269, -45.85857, 0.0 ], [ -67.550448, -45.858892, 0.0 ], [ -67.550685, -45.859404, 0.0 ], [ -67.550617, -45.859422, 0.0 ], [ -67.550482, -45.859469, 0.0 ], [ -67.550364, -45.859468, 0.0 ], [ -67.548614, -45.859507, 0.0 ], [ -67.542992, -45.86315, 0.0 ], [ -67.546846, -45.866026, 0.0 ], [ -67.54677, -45.866063, 0.0 ], [ -67.545097, -45.866014, 0.0 ], [ -67.545011, -45.866057, 0.0 ], [ -67.544946, -45.866615, 0.0 ], [ -67.54451, -45.867841, 0.0 ], [ -67.544404, -45.867829, 0.0 ], [ -67.543428, -45.867623, 0.0 ], [ -67.543322, -45.86763, 0.0 ], [ -67.54086, -45.869204, 0.0 ], [ -67.541728, -45.869853, 0.0 ], [ -67.541755, -45.869946, 0.0 ], [ -67.541729, -45.87012, 0.0 ], [ -67.541687, -45.870431, 0.0 ], [ -67.541589, -45.870851, 0.0 ], [ -67.541526, -45.871124, 0.0 ], [ -67.542351, -45.871055, 0.0 ], [ -67.542458, -45.871191, 0.0 ], [ -67.542689, -45.871496, 0.0 ], [ -67.542809, -45.871695, 0.0 ], [ -67.540663, -45.872794, 0.0 ], [ -67.540565, -45.872776, 0.0 ], [ -67.537374, -45.870406, 0.0 ], [ -67.537286, -45.870323, 0.0 ], [ -67.536096, -45.869445, 0.0 ], [ -67.537434, -45.868546, 0.0 ], [ -67.539908, -45.866942, 0.0 ], [ -67.539951, -45.866922, 0.0 ], [ -67.539903, -45.866928, 0.0 ], [ -67.53762, -45.866459, 0.0 ], [ -67.536648, -45.866159, 0.0 ], [ -67.536409, -45.866069, 0.0 ], [ -67.527481, -45.864302, 0.0 ], [ -67.527327, -45.864182, 0.0 ], [ -67.527362, -45.864139, 0.0 ], [ -67.53019, -45.862304, 0.0 ], [ -67.53026, -45.862243, 0.0 ], [ -67.530049, -45.862219, 0.0 ], [ -67.528227, -45.86223, 0.0 ], [ -67.515347, -45.862363, 0.0 ], [ -67.502239, -45.862388, 0.0 ], [ -67.495745, -45.862408, 0.0 ], [ -67.495797, -45.865608, 0.0 ], [ -67.495347, -45.865684, 0.0 ], [ -67.486086, -45.865591, 0.0 ], [ -67.484777, -45.86543, 0.0 ], [ -67.484245, -45.865273, 0.0 ], [ -67.483015, -45.864694, 0.0 ], [ -67.483022, -45.864045, 0.0 ], [ -67.483016, -45.863537, 0.0 ], [ -67.482976, -45.863508, 0.0 ], [ -67.481581, -45.863495, 0.0 ], [ -67.48154, -45.863545, 0.0 ], [ -67.4815, -45.863609, 0.0 ], [ -67.481391, -45.863669, 0.0 ], [ -67.481254, -45.863716, 0.0 ], [ -67.480138, -45.863722, 0.0 ], [ -67.480029, -45.863678, 0.0 ], [ -67.480002, -45.863621, 0.0 ], [ -67.480007, -45.863394, 0.0 ], [ -67.480019, -45.86289, 0.0 ], [ -67.480074, -45.862817, 0.0 ], [ -67.480373, -45.862786, 0.0 ], [ -67.480618, -45.862793, 0.0 ] ] } },
{ "type": "Feature", "properties": { "fid": 2, "linea": "12", "sentido": "ida", "nombre": "Centro - Máximo Abásolo" }, "geometry": { "type": "LineString", "coordinates": [ [ -67.480719, -45.86277, 0.0 ], [ -67.481282, -45.862765, 0.0 ], [ -67.481501, -45.862833, 0.0 ], [ -67.481482, -45.86298, 0.0 ], [ -67.481478, -45.863332, 0.0 ], [ -67.481492, -45.863548, 0.0 ], [ -67.481505, -45.864538, 0.0 ], [ -67.48156, -45.864619, 0.0 ], [ -67.481941, -45.86479, 0.0 ], [ -67.482478, -45.865031, 0.0 ], [ -67.483396, -45.865481, 0.0 ], [ -67.484492, -45.865952, 0.0 ], [ -67.485523, -45.866335, 0.0 ], [ -67.486271, -45.866688, 0.0 ], [ -67.487088, -45.867204, 0.0 ], [ -67.488272, -45.868018, 0.0 ], [ -67.489172, -45.868696, 0.0 ], [ -67.490178, -45.869492, 0.0 ], [ -67.490995, -45.87013, 0.0 ], [ -67.491582, -45.87051, 0.0 ], [ -67.49179, -45.870663, 0.0 ], [ -67.491919, -45.870656, 0.0 ], [ -67.49225, -45.870416, 0.0 ], [ -67.492989, -45.869997, 0.0 ], [ -67.493322, -45.869759, 0.0 ], [ -67.493654, -45.869358, 0.0 ], [ -67.493812, -45.869002, 0.0 ], [ -67.493735, -45.867929, 0.0 ], [ -67.493785, -45.864661, 0.0 ], [ -67.493932, -45.864561, 0.0 ], [ -67.494262, -45.864561, 0.0 ], [ -67.497182, -45.864564, 0.0 ], [ -67.49739, -45.864522, 0.0 ], [ -67.497337, -45.863965, 0.0 ], [ -67.497375, -45.8626, 0.0 ], [ -67.497381, -45.862233, 0.0 ], [ -67.497651, -45.862135, 0.0 ], [ -67.498577, -45.862152, 0.0 ], [ -67.509662, -45.862165, 0.0 ], [ -67.515277, -45.862119, 0.0 ], [ -67.52922, -45.861953, 0.0 ], [ -67.529791, -45.861951, 0.0 ], [ -67.530242, -45.861959, 0.0 ], [ -67.530443, -45.861968, 0.0 ], [ -67.530709, -45.862036, 0.0 ], [ -67.530744, -45.862161, 0.0 ], [ -67.530527, -45.862285, 0.0 ], [ -67.530077, -45.862573, 0.0 ], [ -67.527653, -45.86416, 0.0 ], [ -67.527697, -45.864235, 0.0 ], [ -67.527935, -45.864288, 0.0 ], [ -67.530574, -45.864805, 0.0 ], [ -67.534895, -45.865685, 0.0 ], [ -67.535338, -45.865766, 0.0 ], [ -67.535771, -45.865825, 0.0 ], [ -67.536205, -45.865914, 0.0 ], [ -67.536543, -45.866003, 0.0 ], [ -67.537207, -45.866197, 0.0 ], [ -67.537869, -45.866312, 0.0 ], [ -67.537958, -45.866399, 0.0 ], [ -67.537848, -45.86651, 0.0 ], [ -67.537425, -45.866758, 0.0 ], [ -67.53625, -45.867532, 0.0 ], [ -67.534934, -45.868413, 0.0 ], [ -67.535148, -45.868575, 0.0 ], [ -67.53613, -45.869316, 0.0 ], [ -67.536316, -45.869195, 0.0 ], [ -67.537332, -45.868533, 0.0 ], [ -67.53744, -45.86857, 0.0 ], [ -67.539304, -45.869979, 0.0 ], [ -67.5408, -45.871147, 0.0 ], [ -67.540892, -45.871156, 0.0 ], [ -67.540795, -45.871219, 0.0 ], [ -67.540736, -45.871245, 0.0 ], [ -67.540743, -45.871308, 0.0 ], [ -67.540908, -45.871424, 0.0 ], [ -67.541188, -45.871664, 0.0 ], [ -67.54176, -45.872195, 0.0 ], [ -67.54263, -45.871698, 0.0 ], [ -67.542695, -45.871657, 0.0 ], [ -67.54264, -45.871543, 0.0 ], [ -67.542338, -45.87122, 0.0 ], [ -67.542268, -45.871126, 0.0 ], [ -67.541748, -45.871179, 0.0 ], [ -67.541485, -45.871195, 0.0 ], [ -67.541438, -45.871126, 0.0 ], [ -67.541626, -45.869989, 0.0 ], [ -67.54161, -45.869875, 0.0 ], [ -67.541454, -45.869745, 0.0 ], [ -67.540716, -45.869203, 0.0 ], [ -67.540723, -45.869144, 0.0 ], [ -67.541283, -45.868759, 0.0 ], [ -67.54302, -45.867616, 0.0 ], [ -67.542927, -45.867568, 0.0 ], [ -67.542702, -45.867493, 0.0 ], [ -67.542423, -45.867322, 0.0 ], [ -67.542292, -45.867215, 0.0 ], [ -67.54226, -45.867092, 0.0 ], [ -67.542613, -45.86714, 0.0 ], [ -67.543022, -45.867215, 0.0 ], [ -67.543459, -45.867296, 0.0 ], [ -67.543741, -45.867398, 0.0 ], [ -67.543917, -45.867516, 0.0 ], [ -67.544283, -45.867591, 0.0 ], [ -67.544443, -45.867623, 0.0 ], [ -67.544555, -45.867431, 0.0 ], [ -67.544801, -45.866734, 0.0 ], [ -67.544854, -45.866559, 0.0 ], [ -67.544884, -45.866071, 0.0 ], [ -67.544999, -45.865993, 0.0 ], [ -67.545182, -45.865972, 0.0 ], [ -67.545471, -45.865982, 0.0 ], [ -67.546584, -45.865998, 0.0 ], [ -67.54659, -45.865908, 0.0 ], [ -67.543938, -45.86395, 0.0 ], [ -67.542832, -45.863092, 0.0 ], [ -67.542985, -45.862964, 0.0 ], [ -67.544149, -45.862172, 0.0 ], [ -67.548387, -45.859442, 0.0 ], [ -67.549211, -45.858904, 0.0 ], [ -67.549577, -45.858666, 0.0 ], [ -67.549816, -45.858548, 0.0 ], [ -67.549958, -45.858491, 0.0 ], [ -67.550107, -45.858465, 0.0 ] ] } }
]
}
