{
"type": "FeatureCollection",
"name": "linea-3",
"crs": { "type": "name", "properties": { "name": "urn:ogc:def:crs:OGC:1.3:CRS84" } },
"features": [
{ "type": "Feature", "properties": { "fid": 1, "linea": "3", "sentido": "vuelta", "nombre": "Estadio Centenario - Abel Amaya" }, "geometry": { "type": "LineString", "coordinates": [ [ -67.492555, -45.872259, 0.0 ], [ -67.49202, -45.8727, 0.0 ], [ -67.491793, -45.872881, 0.0 ], [ -67.491566, -45.872879, 0.0 ], [ -67.489508, -45.871704, 0.0 ], [ -67.486662, -45.869962, 0.0 ], [ -67.486346, -45.869725, 0.0 ], [ -67.486306, -45.869573, 0.0 ], [ -67.486229, -45.869177, 0.0 ], [ -67.486108, -45.869037, 0.0 ], [ -67.485464, -45.868707, 0.0 ], [ -67.480246, -45.866315, 0.0 ], [ -67.480083, -45.866223, 0.0 ], [ -67.479943, -45.865996, 0.0 ], [ -67.479983, -45.862697, 0.0 ], [ -67.479983, -45.862226, 0.0 ], [ -67.480011, -45.862183, 0.0 ], [ -67.480081, -45.862158, 0.0 ], [ -67.480173, -45.862152, 0.0 ], [ -67.480311, -45.862149, 0.0 ], [ -67.481339, -45.862144, 0.0 ], [ -67.483419, -45.862145, 0.0 ], [ -67.484584, -45.862142, 0.0 ], [ -67.486781, -45.862117, 0.0 ], [ -67.487331, -45.862139, 0.0 ], [ -67.487812, -45.862158, 0.0 ], [ -67.488273, -45.862173, 0.0 ], [ -67.488475, -45.862177, 0.0 ], [ -67.488827, -45.862179, 0.0 ], [ -67.489264, -45.862147, 0.0 ], [ -67.489731, -45.862136, 0.0 ], [ -67.490492, -45.862129, 0.0 ], [ -67.490843, -45.862136, 0.0 ], [ -67.491159, -45.862136, 0.0 ], [ -67.492546, -45.862148, 0.0 ], [ -67.493135, -45.862136, 0.0 ], [ -67.493799, -45.862136, 0.0 ], [ -67.49898, -45.862133, 0.0 ], [ -67.511765, -45.862144, 0.0 ], [ -67.515188, -45.862113, 0.0 ], [ -67.515589, -45.86211, 0.0 ], [ -67.515923, -45.862113, 0.0 ], [ -67.516093, -45.86215, 0.0 ], [ -67.516212, -45.862178, 0.0 ], [ -67.516375, -45.862177, 0.0 ], [ -67.516854, -45.862201, 0.0 ], [ -67.516994, -45.862267, 0.0 ], [ -67.517064, -45.8624, 0.0 ], [ -67.517012, -45.862547, 0.0 ], [ -67.516963, -45.862719, 0.0 ], [ -67.516806, -45.862925, 0.0 ], [ -67.516674, -45.863098, 0.0 ], [ -67.516682, -45.863272, 0.0 ], [ -67.516724, -45.863436, 0.0 ], [ -67.516957, -45.86369, 0.0 ], [ -67.519018, -45.865445, 0.0 ], [ -67.521383, -45.867465, 0.0 ], [ -67.521926, -45.867905, 0.0 ], [ -67.525538, -45.870663, 0.0 ], [ -67.527972, -45.872491, 0.0 ], [ -67.531842, -45.875451, 0.0 ], [ -67.535262, -45.878087, 0.0 ], [ -67.540843, -45.882322, 0.0 ], [ -67.541962, -45.883217, 0.0 ], [ -67.542123, -45.883289, 0.0 ], [ -67.54232, -45.883349, 0.0 ], [ -67.54243, -45.883441, 0.0 ], [ -67.542431, -45.883538, 0.0 ], [ -67.542328, -45.883573, 0.0 ], [ -67.54205, -45.883573, 0.0 ] ] } },
{ "type": "Feature", "properties": { "fid": 2, "linea": "3", "sentido": "ida", "nombre": "Estadio Centenario - Abel Amaya" }, "geometry": { "type": "LineString", "coordinates": [ [ -67.541738, -45.883536, 0.0 ], [ -67.541707, -45.883347, 0.0 ], [ -67.541744, -45.883214, 0.0 ], [ -67.533332, -45.876845, 0.0 ], [ -67.531768, -45.875606, 0.0 ], [ -67.530766, -45.87487, 0.0 ], [ -67.5295, -45.873882, 0.0 ], [ -67.527213, -45.872159, 0.0 ], [ -67.523546, -45.869332, 0.0 ], [ -67.521676, -45.867901, 0.0 ], [ -67.518262, -45.864997, 0.0 ], [ -67.515836, -45.862881, 0.0 ], [ -67.515378, -45.862466, 0.0 ], [ -67.515186, -45.862408, 0.0 ], [ -67.514843, -45.862398, 0.0 ], [ -67.514335, -45.862411, 0.0 ], [ -67.513213, -45.862412, 0.0 ], [ -67.507222, -45.862433, 0.0 ], [ -67.503671, -45.862431, 0.0 ], [ -67.502853, -45.862409, 0.0 ], [ -67.501718, -45.862391, 0.0 ], [ -67.501186, -45.862392, 0.0 ], [ -67.500325, -45.862421, 0.0 ], [ -67.498808, -45.862433, 0.0 ], [ -67.490581, -45.862419, 0.0 ], [ -67.489226, -45.862419, 0.0 ], [ -67.487776, -45.862427, 0.0 ], [ -67.484762, -45.862439, 0.0 ], [ -67.484639, -45.862476, 0.0 ], [ -67.484577, -45.862596, 0.0 ], [ -67.484596, -45.862811, 0.0 ], [ -67.484584, -45.863295, 0.0 ], [ -67.484577, -45.863438, 0.0 ], [ -67.484528, -45.863489, 0.0 ], [ -67.484378, -45.863506, 0.0 ], [ -67.48408, -45.86351, 0.0 ], [ -67.481707, -45.863473, 0.0 ], [ -67.481575, -45.863538, 0.0 ], [ -67.481512, -45.863581, 0.0 ], [ -67.481411, -45.863686, 0.0 ], [ -67.481286, -45.863721, 0.0 ], [ -67.480894, -45.863725, 0.0 ], [ -67.480095, -45.863733, 0.0 ], [ -67.479907, -45.863618, 0.0 ], [ -67.479929, -45.862288, 0.0 ], [ -67.48002, -45.862187, 0.0 ], [ -67.480296, -45.86215, 0.0 ], [ -67.481266, -45.862201, 0.0 ], [ -67.481432, -45.862211, 0.0 ], [ -67.481516, -45.862401, 0.0 ], [ -67.481476, -45.864256, 0.0 ], [ -67.481485, -45.864536, 0.0 ], [ -67.481565, -45.864597, 0.0 ], [ -67.481802, -45.86472, 0.0 ], [ -67.482812, -45.865187, 0.0 ], [ -67.483611, -45.865566, 0.0 ], [ -67.484384, -45.865882, 0.0 ], [ -67.484999, -45.866132, 0.0 ], [ -67.485554, -45.86635, 0.0 ], [ -67.486111, -45.866642, 0.0 ], [ -67.48675, -45.867009, 0.0 ], [ -67.487489, -45.867492, 0.0 ], [ -67.48834, -45.868097, 0.0 ], [ -67.489191, -45.868772, 0.0 ], [ -67.489922, -45.869266, 0.0 ], [ -67.490696, -45.869891, 0.0 ], [ -67.491719, -45.870624, 0.0 ], [ -67.492541, -45.871089, 0.0 ], [ -67.493182, -45.871401, 0.0 ], [ -67.4934, -45.8715, 0.0 ], [ -67.493414, -45.871596, 0.0 ], [ -67.492988, -45.871957, 0.0 ], [ -67.492753, -45.872138, 0.0 ] ] } }
]
}
