{
"type": "FeatureCollection",
"name": "linea-6h",
"crs": { "type": "name", "properties": { "name": "urn:ogc:def:crs:OGC:1.3:CRS84" } },
"features": [
{ "type": "Feature", "properties": { "fid": 1, "linea": "6h", "sentido": "horario", "nombre": "Estadio Centenario - Stella Maris - Máximo Abásolo - General Mosconi - Centro" }, "geometry": { "type": "MultiLineString", "coordinates": [ [ [ -67.492804, -45.872139, 0.0 ], [ -67.491959, -45.872814, 0.0 ], [ -67.491688, -45.872944, 0.0 ], [ -67.490262, -45.8721, 0.0 ], [ -67.490253, -45.872033, 0.0 ], [ -67.49035, -45.871957, 0.0 ], [ -67.491546, -45.870979, 0.0 ], [ -67.491707, -45.870911, 0.0 ], [ -67.491862, -45.870872, 0.0 ], [ -67.492085, -45.870892, 0.0 ], [ -67.49487, -45.87215, 0.0 ], [ -67.497339, -45.87311, 0.0 ], [ -67.498431, -45.873741, 0.0 ], [ -67.499257, -45.874446, 0.0 ], [ -67.500815, -45.875646, 0.0 ], [ -67.502026, -45.87603, 0.0 ], [ -67.5038, -45.876694, 0.0 ], [ -67.506781, -45.875326, 0.0 ], [ -67.509103, -45.877471, 0.0 ], [ -67.510702, -45.87643, 0.0 ], [ -67.512542, -45.877885, 0.0 ], [ -67.506258, -45.881887, 0.0 ], [ -67.507377, -45.882334, 0.0 ], [ -67.50753, -45.882692, 0.0 ], [ -67.511312, -45.888029, 0.0 ], [ -67.511592, -45.888644, 0.0 ], [ -67.511782, -45.889211, 0.0 ], [ -67.511958, -45.889835, 0.0 ], [ -67.512366, -45.8909, 0.0 ], [ -67.513912, -45.892646, 0.0 ], [ -67.514645, -45.89342, 0.0 ], [ -67.515012, -45.894293, 0.0 ], [ -67.515265, -45.894699, 0.0 ], [ -67.515544, -45.895123, 0.0 ], [ -67.51673, -45.895514, 0.0 ], [ -67.517104, -45.895503, 0.0 ], [ -67.517356, -45.895293, 0.0 ], [ -67.523248, -45.886569, 0.0 ], [ -67.53106, -45.889147, 0.0 ], [ -67.531162, -45.888949, 0.0 ], [ -67.531436, -45.885658, 0.0 ], [ -67.531496, -45.884686, 0.0 ], [ -67.531455, -45.883591, 0.0 ], [ -67.53134, -45.883068, 0.0 ], [ -67.531332, -45.882737, 0.0 ], [ -67.531715, -45.87948, 0.0 ], [ -67.531761, -45.879058, 0.0 ], [ -67.527615, -45.87882, 0.0 ], [ -67.527439, -45.878667, 0.0 ], [ -67.52748, -45.878592, 0.0 ], [ -67.528907, -45.877656, 0.0 ], [ -67.534676, -45.873935, 0.0 ], [ -67.530684, -45.870883, 0.0 ], [ -67.549899, -45.858549, 0.0 ], [ -67.550069, -45.858328, 0.0 ], [ -67.550588, -45.857053, 0.0 ], [ -67.550726, -45.856838, 0.0 ], [ -67.556769, -45.854813, 0.0 ], [ -67.55691, -45.854534, 0.0 ], [ -67.556837, -45.854075, 0.0 ], [ -67.556905, -45.853838, 0.0 ], [ -67.557195, -45.853585, 0.0 ], [ -67.558581, -45.853211, 0.0 ], [ -67.559359, -45.853171, 0.0 ], [ -67.559957, -45.853163, 0.0 ], [ -67.560699, -45.85334, 0.0 ], [ -67.561096, -45.853412, 0.0 ], [ -67.561564, -45.853315, 0.0 ], [ -67.562224, -45.853019, 0.0 ], [ -67.562396, -45.852588, 0.0 ], [ -67.562236, -45.852221, 0.0 ], [ -67.561854, -45.851751, 0.0 ], [ -67.560897, -45.851081, 0.0 ], [ -67.560314, -45.850907, 0.0 ], [ -67.558667, -45.85053, 0.0 ], [ -67.551144, -45.849236, 0.0 ], [ -67.549772, -45.848889, 0.0 ], [ -67.54898, -45.848609, 0.0 ], [ -67.547994, -45.847949, 0.0 ], [ -67.546299, -45.846224, 0.0 ], [ -67.545546, -45.845611, 0.0 ], [ -67.544704, -45.845197, 0.0 ], [ -67.543991, -45.844946, 0.0 ], [ -67.543522, -45.844872, 0.0 ], [ -67.542713, -45.844738, 0.0 ], [ -67.541039, -45.844708, 0.0 ], [ -67.540065, -45.844782, 0.0 ], [ -67.534111, -45.846598, 0.0 ], [ -67.533656, -45.846688, 0.0 ], [ -67.533005, -45.846695, 0.0 ], [ -67.530767, -45.846318, 0.0 ], [ -67.529163, -45.846193, 0.0 ], [ -67.526473, -45.8457, 0.0 ], [ -67.523268, -45.845496, 0.0 ], [ -67.520178, -45.844399, 0.0 ], [ -67.519053, -45.843933, 0.0 ], [ -67.518776, -45.843892, 0.0 ], [ -67.518728, -45.843773, 0.0 ], [ -67.518669, -45.843717, 0.0 ], [ -67.517931, -45.843371, 0.0 ], [ -67.515771, -45.842354, 0.0 ], [ -67.514425, -45.841739, 0.0 ], [ -67.510205, -45.839277, 0.0 ], [ -67.509953, -45.839244, 0.0 ], [ -67.509605, -45.839252, 0.0 ], [ -67.506279, -45.839755, 0.0 ], [ -67.503481, -45.839747, 0.0 ], [ -67.50346, -45.839909, 0.0 ], [ -67.503369, -45.839928, 0.0 ], [ -67.50254, -45.839924, 0.0 ], [ -67.501794, -45.839911, 0.0 ], [ -67.501415, -45.839894, 0.0 ], [ -67.500668, -45.839875, 0.0 ], [ -67.499944, -45.83977, 0.0 ], [ -67.499471, -45.839703, 0.0 ], [ -67.499062, -45.839677, 0.0 ], [ -67.497683, -45.839647, 0.0 ], [ -67.496999, -45.839791, 0.0 ], [ -67.496617, -45.839869, 0.0 ], [ -67.496524, -45.839831, 0.0 ], [ -67.496335, -45.839476, 0.0 ], [ -67.496242, -45.839414, 0.0 ], [ -67.495278, -45.839424, 0.0 ], [ -67.492944, -45.839353, 0.0 ], [ -67.490185, -45.839212, 0.0 ], [ -67.487702, -45.839162, 0.0 ], [ -67.48412, -45.839067, 0.0 ], [ -67.479741, -45.838828, 0.0 ], [ -67.479403, -45.838823, 0.0 ], [ -67.479276, -45.838916, 0.0 ], [ -67.479224, -45.839078, 0.0 ], [ -67.479129, -45.83974, 0.0 ], [ -67.479031, -45.83978, 0.0 ], [ -67.476746, -45.839784, 0.0 ], [ -67.476607, -45.839907, 0.0 ], [ -67.476513, -45.840097, 0.0 ], [ -67.476504, -45.84159, 0.0 ], [ -67.476256, -45.843268, 0.0 ], [ -67.476214, -45.843661, 0.0 ], [ -67.475224, -45.846388, 0.0 ], [ -67.47518, -45.846748, 0.0 ], [ -67.475291, -45.847101, 0.0 ], [ -67.475506, -45.847339, 0.0 ], [ -67.47669, -45.848231, 0.0 ], [ -67.476999, -45.848543, 0.0 ], [ -67.477177, -45.848813, 0.0 ], [ -67.477258, -45.849024, 0.0 ], [ -67.4773, -45.849273, 0.0 ], [ -67.477248, -45.849593, 0.0 ], [ -67.47686, -45.85106, 0.0 ], [ -67.476821, -45.851335, 0.0 ], [ -67.476838, -45.85164, 0.0 ], [ -67.477062, -45.852061, 0.0 ], [ -67.477566, -45.852802, 0.0 ], [ -67.477768, -45.853148, 0.0 ], [ -67.477839, -45.853485, 0.0 ], [ -67.477863, -45.853728, 0.0 ], [ -67.477764, -45.854004, 0.0 ], [ -67.477523, -45.854316, 0.0 ], [ -67.477008, -45.854699, 0.0 ], [ -67.476646, -45.855038, 0.0 ], [ -67.47641, -45.855348, 0.0 ], [ -67.476307, -45.855567, 0.0 ], [ -67.476278, -45.85587, 0.0 ], [ -67.476256, -45.856223, 0.0 ], [ -67.476265, -45.856527, 0.0 ], [ -67.476177, -45.856923, 0.0 ], [ -67.475953, -45.857749, 0.0 ], [ -67.475708, -45.858646, 0.0 ], [ -67.475765, -45.85902, 0.0 ], [ -67.476109, -45.859554, 0.0 ], [ -67.476643, -45.859865, 0.0 ], [ -67.477129, -45.859987, 0.0 ], [ -67.478468, -45.860007, 0.0 ], [ -67.481411, -45.859983, 0.0 ], [ -67.481488, -45.860071, 0.0 ], [ -67.481523, -45.864589, 0.0 ], [ -67.481596, -45.864649, 0.0 ], [ -67.482472, -45.865018, 0.0 ], [ -67.483603, -45.865558, 0.0 ], [ -67.484563, -45.865994, 0.0 ], [ -67.485264, -45.866249, 0.0 ], [ -67.485755, -45.866459, 0.0 ], [ -67.487403, -45.86741, 0.0 ], [ -67.489431, -45.868947, 0.0 ], [ -67.491995, -45.870772, 0.0 ], [ -67.492675, -45.871148, 0.0 ], [ -67.493298, -45.871504, 0.0 ], [ -67.493425, -45.871592, 0.0 ], [ -67.493129, -45.87185, 0.0 ], [ -67.492909, -45.872036, 0.0 ] ] ] } }
]
}
