{
"type": "FeatureCollection",
"name": "linea-18",
"crs": { "type": "name", "properties": { "name": "urn:ogc:def:crs:OGC:1.3:CRS84" } },
"features": [
{ "type": "Feature", "properties": { "fid": 1, "linea": "18", "sentido": "ida", "nombre": "Estadio Centenario - Restinga Alí" }, "geometry": { "type": "LineString", "coordinates": [ [ -67.492584, -45.872223, 0.0 ], [ -67.491841, -45.872849, 0.0 ], [ -67.491558, -45.87285, 0.0 ], [ -67.4895, -45.871691, 0.0 ], [ -67.486315, -45.869736, 0.0 ], [ -67.48625, -45.86939, 0.0 ], [ -67.486224, -45.869091, 0.0 ], [ -67.486007, -45.868885, 0.0 ], [ -67.48575, -45.868835, 0.0 ], [ -67.485545, -45.868759, 0.0 ], [ -67.484793, -45.868398, 0.0 ], [ -67.48216, -45.867177, 0.0 ], [ -67.480286, -45.866345, 0.0 ], [ -67.480162, -45.866268, 0.0 ], [ -67.480037, -45.866166, 0.0 ], [ -67.479941, -45.866038, 0.0 ], [ -67.479958, -45.865824, 0.0 ], [ -67.479907, -45.864915, 0.0 ], [ -67.479925, -45.864726, 0.0 ], [ -67.479905, -45.864558, 0.0 ], [ -67.479811, -45.864472, 0.0 ], [ -67.479657, -45.864466, 0.0 ], [ -67.478955, -45.864314, 0.0 ], [ -67.476157, -45.863711, 0.0 ], [ -67.47576, -45.863644, 0.0 ], [ -67.475497, -45.863563, 0.0 ], [ -67.475279, -45.863431, 0.0 ], [ -67.475144, -45.863249, 0.0 ], [ -67.475069, -45.862917, 0.0 ], [ -67.474948, -45.862713, 0.0 ], [ -67.474722, -45.86249, 0.0 ], [ -67.474245, -45.861992, 0.0 ], [ -67.474109, -45.861816, 0.0 ], [ -67.474073, -45.861608, 0.0 ], [ -67.474153, -45.861447, 0.0 ], [ -67.4744, -45.860917, 0.0 ], [ -67.474879, -45.860137, 0.0 ], [ -67.47501, -45.859904, 0.0 ], [ -67.475112, -45.859708, 0.0 ], [ -67.475228, -45.859381, 0.0 ], [ -67.475381, -45.859086, 0.0 ], [ -67.475552, -45.858533, 0.0 ], [ -67.475883, -45.857406, 0.0 ], [ -67.476047, -45.856787, 0.0 ], [ -67.476109, -45.856528, 0.0 ], [ -67.47611, -45.85629, 0.0 ], [ -67.47609, -45.855829, 0.0 ], [ -67.476159, -45.855522, 0.0 ], [ -67.476283, -45.855247, 0.0 ], [ -67.476529, -45.854931, 0.0 ], [ -67.477193, -45.854413, 0.0 ], [ -67.477401, -45.854212, 0.0 ], [ -67.477544, -45.854087, 0.0 ], [ -67.477632, -45.853857, 0.0 ], [ -67.477686, -45.8536, 0.0 ], [ -67.477652, -45.853329, 0.0 ], [ -67.477468, -45.852937, 0.0 ], [ -67.477309, -45.852673, 0.0 ], [ -67.47711, -45.852372, 0.0 ], [ -67.476878, -45.852019, 0.0 ], [ -67.47679, -45.851815, 0.0 ], [ -67.476716, -45.851564, 0.0 ], [ -67.476716, -45.851341, 0.0 ], [ -67.476757, -45.851075, 0.0 ], [ -67.476818, -45.85076, 0.0 ], [ -67.47692, -45.850445, 0.0 ], [ -67.476975, -45.850125, 0.0 ], [ -67.47703, -45.849922, 0.0 ], [ -67.477092, -45.849476, 0.0 ], [ -67.47714, -45.849192, 0.0 ], [ -67.477047, -45.848878, 0.0 ], [ -67.476895, -45.84861, 0.0 ], [ -67.476738, -45.848399, 0.0 ], [ -67.476476, -45.848172, 0.0 ], [ -67.476009, -45.847802, 0.0 ], [ -67.475726, -45.847614, 0.0 ], [ -67.475485, -45.847425, 0.0 ], [ -67.475308, -45.847242, 0.0 ], [ -67.475189, -45.847022, 0.0 ], [ -67.475116, -45.846839, 0.0 ], [ -67.475116, -45.84666, 0.0 ], [ -67.475156, -45.846457, 0.0 ], [ -67.475294, -45.84588, 0.0 ], [ -67.475565, -45.845021, 0.0 ], [ -67.475799, -45.844286, 0.0 ], [ -67.476077, -45.843463, 0.0 ], [ -67.47614, -45.843152, 0.0 ], [ -67.476264, -45.842294, 0.0 ], [ -67.476361, -45.841594, 0.0 ], [ -67.476383, -45.841098, 0.0 ], [ -67.476393, -45.84056, 0.0 ], [ -67.476391, -45.839961, 0.0 ], [ -67.47641, -45.839701, 0.0 ], [ -67.476267, -45.839552, 0.0 ], [ -67.47597, -45.839444, 0.0 ], [ -67.475541, -45.839444, 0.0 ], [ -67.475077, -45.839444, 0.0 ], [ -67.474845, -45.839438, 0.0 ], [ -67.474802, -45.839306, 0.0 ], [ -67.474778, -45.838933, 0.0 ], [ -67.474761, -45.837901, 0.0 ], [ -67.474809, -45.837839, 0.0 ], [ -67.474897, -45.837809, 0.0 ], [ -67.475057, -45.83784, 0.0 ], [ -67.476162, -45.838077, 0.0 ], [ -67.476927, -45.838223, 0.0 ], [ -67.477633, -45.83837, 0.0 ], [ -67.47779, -45.838404, 0.0 ], [ -67.477891, -45.838404, 0.0 ], [ -67.477958, -45.838315, 0.0 ], [ -67.478072, -45.838094, 0.0 ], [ -67.478147, -45.837799, 0.0 ], [ -67.478339, -45.836977, 0.0 ], [ -67.478335, -45.836887, 0.0 ], [ -67.478269, -45.836815, 0.0 ], [ -67.47813, -45.836797, 0.0 ], [ -67.477911, -45.836789, 0.0 ], [ -67.47765, -45.836764, 0.0 ], [ -67.477528, -45.836724, 0.0 ], [ -67.477317, -45.836448, 0.0 ], [ -67.477322, -45.836376, 0.0 ], [ -67.477445, -45.836287, 0.0 ], [ -67.478166, -45.835876, 0.0 ], [ -67.478345, -45.835761, 0.0 ], [ -67.4784, -45.835647, 0.0 ], [ -67.478451, -45.835414, 0.0 ], [ -67.478419, -45.835154, 0.0 ], [ -67.478347, -45.834874, 0.0 ], [ -67.47824, -45.834526, 0.0 ], [ -67.478042, -45.834258, 0.0 ], [ -67.477841, -45.834056, 0.0 ], [ -67.477318, -45.8333, 0.0 ], [ -67.476739, -45.832466, 0.0 ], [ -67.476268, -45.831853, 0.0 ], [ -67.476091, -45.831649, 0.0 ], [ -67.475797, -45.831402, 0.0 ], [ -67.475498, -45.831187, 0.0 ], [ -67.474877, -45.830887, 0.0 ], [ -67.472853, -45.829755, 0.0 ], [ -67.470733, -45.8286, 0.0 ], [ -67.470474, -45.828476, 0.0 ], [ -67.470328, -45.828406, 0.0 ], [ -67.470176, -45.828353, 0.0 ], [ -67.470055, -45.828325, 0.0 ], [ -67.469912, -45.828343, 0.0 ], [ -67.469763, -45.828459, 0.0 ], [ -67.469597, -45.828621, 0.0 ], [ -67.46946, -45.828777, 0.0 ], [ -67.469401, -45.828859, 0.0 ], [ -67.469323, -45.828898, 0.0 ], [ -67.469214, -45.828909, 0.0 ], [ -67.469194, -45.828905, 0.0 ], [ -67.469173, -45.828905, 0.0 ], [ -67.469152, -45.828902, 0.0 ], [ -67.469137, -45.828898, 0.0 ], [ -67.469058, -45.828808, 0.0 ], [ -67.468786, -45.828487, 0.0 ], [ -67.468483, -45.827939, 0.0 ], [ -67.468161, -45.827475, 0.0 ], [ -67.467983, -45.8272, 0.0 ], [ -67.467838, -45.827004, 0.0 ], [ -67.467626, -45.826683, 0.0 ], [ -67.467282, -45.826284, 0.0 ], [ -67.466827, -45.825767, 0.0 ], [ -67.466346, -45.825221, 0.0 ], [ -67.466186, -45.824999, 0.0 ], [ -67.466033, -45.824859, 0.0 ], [ -67.46585, -45.824777, 0.0 ], [ -67.465733, -45.82476, 0.0 ], [ -67.465595, -45.824753, 0.0 ], [ -67.465458, -45.824702, 0.0 ], [ -67.465358, -45.824618, 0.0 ], [ -67.46531, -45.8245, 0.0 ], [ -67.465237, -45.824434, 0.0 ], [ -67.465088, -45.824365, 0.0 ], [ -67.464931, -45.824346, 0.0 ], [ -67.464733, -45.824336, 0.0 ], [ -67.46457, -45.824309, 0.0 ], [ -67.464294, -45.824289, 0.0 ], [ -67.463969, -45.824241, 0.0 ], [ -67.463551, -45.824187, 0.0 ], [ -67.463167, -45.824095, 0.0 ], [ -67.462825, -45.824002, 0.0 ], [ -67.462535, -45.823872, 0.0 ], [ -67.461226, -45.823203, 0.0 ], [ -67.460729, -45.822936, 0.0 ], [ -67.460203, -45.822659, 0.0 ], [ -67.459595, -45.822522, 0.0 ], [ -67.458917, -45.822378, 0.0 ], [ -67.458551, -45.822334, 0.0 ], [ -67.458276, -45.822355, 0.0 ], [ -67.458, -45.822386, 0.0 ], [ -67.457845, -45.822378, 0.0 ], [ -67.457669, -45.822295, 0.0 ], [ -67.457582, -45.822194, 0.0 ], [ -67.457325, -45.821901, 0.0 ], [ -67.456923, -45.82138, 0.0 ], [ -67.456747, -45.82104, 0.0 ], [ -67.45661, -45.82071, 0.0 ], [ -67.456458, -45.820375, 0.0 ], [ -67.456292, -45.819883, 0.0 ], [ -67.456221, -45.819535, 0.0 ], [ -67.456222, -45.819358, 0.0 ], [ -67.456361, -45.819221, 0.0 ], [ -67.456528, -45.819185, 0.0 ], [ -67.456689, -45.819185, 0.0 ], [ -67.456827, -45.81914, 0.0 ], [ -67.456892, -45.818988, 0.0 ], [ -67.457031, -45.818342, 0.0 ], [ -67.457138, -45.817941, 0.0 ], [ -67.457155, -45.817561, 0.0 ], [ -67.457097, -45.817283, 0.0 ], [ -67.456967, -45.816763, 0.0 ], [ -67.456408, -45.815023, 0.0 ], [ -67.456235, -45.814453, 0.0 ], [ -67.455997, -45.813606, 0.0 ], [ -67.455537, -45.812045, 0.0 ], [ -67.455335, -45.811406, 0.0 ], [ -67.455226, -45.811148, 0.0 ], [ -67.455031, -45.810896, 0.0 ], [ -67.454895, -45.810725, 0.0 ], [ -67.454715, -45.810413, 0.0 ], [ -67.45473, -45.810247, 0.0 ], [ -67.454867, -45.810024, 0.0 ], [ -67.455064, -45.809989, 0.0 ], [ -67.455371, -45.810166, 0.0 ], [ -67.455468, -45.810211, 0.0 ], [ -67.455713, -45.810211, 0.0 ], [ -67.456804, -45.810214, 0.0 ], [ -67.459973, -45.810267, 0.0 ], [ -67.461044, -45.80974, 0.0 ], [ -67.461996, -45.809296, 0.0 ], [ -67.462864, -45.807117, 0.0 ], [ -67.463512, -45.806827, 0.0 ], [ -67.462906, -45.806315, 0.0 ], [ -67.462567, -45.806125, 0.0 ], [ -67.461716, -45.805481, 0.0 ], [ -67.460968, -45.804923, 0.0 ], [ -67.460136, -45.804403, 0.0 ], [ -67.459035, -45.803678, 0.0 ], [ -67.458496, -45.803324, 0.0 ], [ -67.45784, -45.802946, 0.0 ], [ -67.457291, -45.802723, 0.0 ], [ -67.456933, -45.802591, 0.0 ], [ -67.456621, -45.802474, 0.0 ], [ -67.455445, -45.802089, 0.0 ], [ -67.454251, -45.80172, 0.0 ], [ -67.453328, -45.80146, 0.0 ], [ -67.452679, -45.801363, 0.0 ], [ -67.452122, -45.801345, 0.0 ], [ -67.451445, -45.801368, 0.0 ], [ -67.450859, -45.801593, 0.0 ], [ -67.450718, -45.801621, 0.0 ], [ -67.450504, -45.801573, 0.0 ], [ -67.450412, -45.801521, 0.0 ], [ -67.450362, -45.801465, 0.0 ], [ -67.450302, -45.800972, 0.0 ], [ -67.450278, -45.800645, 0.0 ], [ -67.450166, -45.800305, 0.0 ], [ -67.449795, -45.79963, 0.0 ], [ -67.449206, -45.798784, 0.0 ], [ -67.448711, -45.79805, 0.0 ], [ -67.448251, -45.797336, 0.0 ], [ -67.448003, -45.797067, 0.0 ], [ -67.447743, -45.796888, 0.0 ], [ -67.447375, -45.7967, 0.0 ], [ -67.447004, -45.796521, 0.0 ], [ -67.446826, -45.796411, 0.0 ], [ -67.446783, -45.796218, 0.0 ], [ -67.446814, -45.796048, 0.0 ], [ -67.446706, -45.795899, 0.0 ], [ -67.446156, -45.795322, 0.0 ], [ -67.44511, -45.794274, 0.0 ], [ -67.44414, -45.793537, 0.0 ], [ -67.442112, -45.792091, 0.0 ], [ -67.440073, -45.790624, 0.0 ], [ -67.439062, -45.789847, 0.0 ], [ -67.438267, -45.789215, 0.0 ], [ -67.437907, -45.788942, 0.0 ], [ -67.437744, -45.788787, 0.0 ], [ -67.437621, -45.788548, 0.0 ], [ -67.437529, -45.788398, 0.0 ], [ -67.437365, -45.788236, 0.0 ], [ -67.436721, -45.788042, 0.0 ], [ -67.436213, -45.787717, 0.0 ], [ -67.435394, -45.787068, 0.0 ], [ -67.435063, -45.786846, 0.0 ], [ -67.434328, -45.786329, 0.0 ], [ -67.431438, -45.784232, 0.0 ], [ -67.431394, -45.784242, 0.0 ], [ -67.429899, -45.785226, 0.0 ], [ -67.427497, -45.786974, 0.0 ], [ -67.4274, -45.786977, 0.0 ], [ -67.42608, -45.785719, 0.0 ], [ -67.425742, -45.785392, 0.0 ], [ -67.425649, -45.785366, 0.0 ], [ -67.425543, -45.785394, 0.0 ], [ -67.422118, -45.787436, 0.0 ], [ -67.421505, -45.787775, 0.0 ], [ -67.4195, -45.788998, 0.0 ], [ -67.418809, -45.789327, 0.0 ], [ -67.418653, -45.78956, 0.0 ], [ -67.421268, -45.791914, 0.0 ], [ -67.421242, -45.791984, 0.0 ], [ -67.417471, -45.793579, 0.0 ], [ -67.416102, -45.793322, 0.0 ], [ -67.413863, -45.793263, 0.0 ], [ -67.410464, -45.79322, 0.0 ], [ -67.409151, -45.793206, 0.0 ], [ -67.409118, -45.793256, 0.0 ], [ -67.409637, -45.793732, 0.0 ], [ -67.41118, -45.795158, 0.0 ], [ -67.411161, -45.795211, 0.0 ], [ -67.410613, -45.795472, 0.0 ], [ -67.410475, -45.795524, 0.0 ], [ -67.409777, -45.795694, 0.0 ], [ -67.409669, -45.795672, 0.0 ] ] } },
{ "type": "Feature", "properties": { "fid": 2, "linea": "18", "sentido": "vuelta", "nombre": "Estadio Centenario - Restinga Alí" }, "geometry": { "type": "LineString", "coordinates": [ [ -67.409664, -45.795667, 0.0 ], [ -67.408409, -45.794542, 0.0 ], [ -67.407592, -45.793747, 0.0 ], [ -67.407728, -45.793024, 0.0 ], [ -67.407746, -45.792986, 0.0 ], [ -67.407902, -45.792987, 0.0 ], [ -67.408135, -45.793029, 0.0 ], [ -67.409323, -45.793147, 0.0 ], [ -67.411908, -45.793199, 0.0 ], [ -67.412965, -45.793211, 0.0 ], [ -67.413525, -45.79322, 0.0 ], [ -67.41478, -45.793243, 0.0 ], [ -67.415899, -45.793267, 0.0 ], [ -67.416125, -45.793289, 0.0 ], [ -67.416426, -45.793339, 0.0 ], [ -67.417075, -45.793467, 0.0 ], [ -67.417317, -45.793522, 0.0 ], [ -67.417465, -45.793544, 0.0 ], [ -67.417618, -45.79351, 0.0 ], [ -67.420005, -45.792467, 0.0 ], [ -67.421192, -45.791961, 0.0 ], [ -67.4212, -45.791919, 0.0 ], [ -67.420725, -45.791505, 0.0 ], [ -67.419085, -45.790041, 0.0 ], [ -67.41888, -45.789838, 0.0 ], [ -67.418613, -45.789617, 0.0 ], [ -67.418582, -45.789567, 0.0 ], [ -67.418586, -45.789501, 0.0 ], [ -67.418661, -45.789402, 0.0 ], [ -67.418787, -45.789291, 0.0 ], [ -67.419061, -45.789142, 0.0 ], [ -67.419428, -45.789004, 0.0 ], [ -67.419717, -45.78881, 0.0 ], [ -67.420326, -45.788456, 0.0 ], [ -67.421052, -45.788035, 0.0 ], [ -67.421253, -45.787858, 0.0 ], [ -67.42143, -45.787712, 0.0 ], [ -67.421552, -45.787573, 0.0 ], [ -67.422087, -45.787271, 0.0 ], [ -67.42293, -45.786774, 0.0 ], [ -67.423195, -45.786618, 0.0 ], [ -67.423365, -45.786508, 0.0 ], [ -67.42359, -45.786406, 0.0 ], [ -67.423711, -45.786349, 0.0 ], [ -67.423886, -45.786363, 0.0 ], [ -67.425425, -45.78543, 0.0 ], [ -67.425635, -45.785349, 0.0 ], [ -67.425767, -45.785372, 0.0 ], [ -67.426065, -45.785652, 0.0 ], [ -67.426571, -45.786118, 0.0 ], [ -67.427391, -45.786921, 0.0 ], [ -67.427505, -45.786901, 0.0 ], [ -67.429147, -45.785772, 0.0 ], [ -67.431135, -45.784385, 0.0 ], [ -67.431324, -45.784239, 0.0 ], [ -67.431486, -45.784159, 0.0 ], [ -67.4317, -45.78422, 0.0 ], [ -67.432718, -45.784948, 0.0 ], [ -67.43357, -45.785546, 0.0 ], [ -67.435429, -45.78687, 0.0 ], [ -67.436262, -45.787451, 0.0 ], [ -67.436591, -45.787661, 0.0 ], [ -67.436783, -45.787749, 0.0 ], [ -67.437067, -45.787849, 0.0 ], [ -67.437431, -45.788025, 0.0 ], [ -67.437605, -45.788147, 0.0 ], [ -67.437789, -45.788463, 0.0 ], [ -67.437892, -45.788714, 0.0 ], [ -67.438142, -45.788909, 0.0 ], [ -67.439778, -45.790095, 0.0 ], [ -67.441405, -45.791297, 0.0 ], [ -67.443664, -45.792944, 0.0 ], [ -67.444461, -45.793506, 0.0 ], [ -67.445076, -45.793955, 0.0 ], [ -67.4459, -45.794729, 0.0 ], [ -67.446417, -45.795287, 0.0 ], [ -67.446902, -45.79576, 0.0 ], [ -67.447117, -45.795986, 0.0 ], [ -67.447361, -45.796146, 0.0 ], [ -67.447574, -45.79625, 0.0 ], [ -67.447634, -45.796354, 0.0 ], [ -67.447662, -45.796545, 0.0 ], [ -67.447802, -45.796818, 0.0 ], [ -67.448095, -45.797115, 0.0 ], [ -67.44834, -45.79739, 0.0 ], [ -67.44869, -45.797914, 0.0 ], [ -67.449625, -45.799296, 0.0 ], [ -67.44998, -45.799798, 0.0 ], [ -67.45021, -45.800205, 0.0 ], [ -67.450328, -45.800569, 0.0 ], [ -67.45038, -45.800807, 0.0 ], [ -67.450629, -45.801046, 0.0 ], [ -67.450838, -45.801203, 0.0 ], [ -67.451311, -45.801311, 0.0 ], [ -67.451794, -45.801331, 0.0 ], [ -67.452081, -45.801324, 0.0 ], [ -67.452537, -45.801314, 0.0 ], [ -67.452925, -45.801357, 0.0 ], [ -67.453517, -45.801461, 0.0 ], [ -67.454368, -45.801712, 0.0 ], [ -67.455619, -45.802101, 0.0 ], [ -67.456643, -45.802434, 0.0 ], [ -67.457548, -45.802752, 0.0 ], [ -67.458094, -45.803024, 0.0 ], [ -67.459015, -45.803624, 0.0 ], [ -67.460192, -45.804373, 0.0 ], [ -67.461201, -45.804974, 0.0 ], [ -67.462381, -45.805832, 0.0 ], [ -67.463008, -45.806249, 0.0 ], [ -67.46343, -45.806559, 0.0 ], [ -67.464542, -45.807627, 0.0 ], [ -67.464786, -45.807868, 0.0 ], [ -67.464835, -45.807952, 0.0 ], [ -67.464753, -45.808013, 0.0 ], [ -67.464438, -45.808104, 0.0 ], [ -67.463275, -45.80838, 0.0 ], [ -67.463062, -45.808477, 0.0 ], [ -67.463051, -45.808902, 0.0 ], [ -67.462639, -45.809086, 0.0 ], [ -67.461222, -45.809714, 0.0 ], [ -67.460093, -45.810249, 0.0 ], [ -67.459889, -45.810314, 0.0 ], [ -67.459508, -45.810314, 0.0 ], [ -67.457453, -45.81029, 0.0 ], [ -67.455863, -45.810309, 0.0 ], [ -67.455652, -45.810363, 0.0 ], [ -67.455553, -45.810459, 0.0 ], [ -67.455402, -45.810594, 0.0 ], [ -67.455391, -45.810749, 0.0 ], [ -67.45534, -45.810942, 0.0 ], [ -67.455346, -45.811208, 0.0 ], [ -67.455508, -45.811735, 0.0 ], [ -67.456253, -45.814115, 0.0 ], [ -67.456512, -45.815104, 0.0 ], [ -67.457171, -45.817195, 0.0 ], [ -67.457227, -45.817516, 0.0 ], [ -67.457221, -45.817798, 0.0 ], [ -67.457193, -45.818022, 0.0 ], [ -67.457054, -45.818699, 0.0 ], [ -67.456949, -45.819082, 0.0 ], [ -67.456882, -45.819271, 0.0 ], [ -67.456893, -45.819434, 0.0 ], [ -67.456809, -45.819716, 0.0 ], [ -67.456765, -45.820314, 0.0 ], [ -67.456826, -45.820632, 0.0 ], [ -67.456987, -45.820992, 0.0 ], [ -67.457362, -45.821622, 0.0 ], [ -67.457704, -45.821924, 0.0 ], [ -67.458156, -45.822113, 0.0 ], [ -67.458799, -45.822266, 0.0 ], [ -67.459637, -45.822429, 0.0 ], [ -67.460209, -45.822584, 0.0 ], [ -67.460698, -45.822781, 0.0 ], [ -67.460996, -45.822955, 0.0 ], [ -67.462198, -45.8236, 0.0 ], [ -67.462816, -45.823885, 0.0 ], [ -67.463106, -45.824014, 0.0 ], [ -67.463592, -45.824108, 0.0 ], [ -67.464217, -45.824191, 0.0 ], [ -67.464695, -45.824198, 0.0 ], [ -67.465177, -45.824247, 0.0 ], [ -67.465479, -45.824223, 0.0 ], [ -67.465683, -45.824223, 0.0 ], [ -67.465978, -45.824258, 0.0 ], [ -67.466313, -45.824252, 0.0 ], [ -67.466558, -45.824198, 0.0 ], [ -67.467195, -45.824051, 0.0 ], [ -67.467664, -45.823816, 0.0 ], [ -67.468088, -45.823549, 0.0 ], [ -67.46821, -45.823384, 0.0 ], [ -67.468276, -45.823199, 0.0 ], [ -67.468145, -45.822953, 0.0 ], [ -67.467918, -45.822795, 0.0 ], [ -67.467484, -45.822697, 0.0 ], [ -67.46702, -45.82277, 0.0 ], [ -67.466784, -45.822934, 0.0 ], [ -67.46658, -45.823154, 0.0 ], [ -67.466512, -45.823431, 0.0 ], [ -67.466542, -45.823706, 0.0 ], [ -67.466708, -45.824063, 0.0 ], [ -67.467233, -45.825203, 0.0 ], [ -67.467979, -45.826467, 0.0 ], [ -67.468301, -45.826774, 0.0 ], [ -67.46945, -45.827695, 0.0 ], [ -67.470069, -45.828188, 0.0 ], [ -67.471856, -45.829111, 0.0 ], [ -67.473143, -45.829834, 0.0 ], [ -67.474206, -45.830423, 0.0 ], [ -67.474947, -45.830835, 0.0 ], [ -67.475227, -45.830966, 0.0 ], [ -67.475516, -45.831097, 0.0 ], [ -67.475796, -45.831282, 0.0 ], [ -67.476142, -45.831568, 0.0 ], [ -67.476336, -45.831809, 0.0 ], [ -67.476539, -45.832072, 0.0 ], [ -67.476962, -45.832675, 0.0 ], [ -67.477608, -45.833576, 0.0 ], [ -67.477922, -45.834005, 0.0 ], [ -67.478029, -45.83414, 0.0 ], [ -67.478155, -45.834225, 0.0 ], [ -67.478287, -45.834225, 0.0 ], [ -67.478462, -45.834208, 0.0 ], [ -67.478574, -45.834204, 0.0 ], [ -67.478623, -45.834266, 0.0 ], [ -67.478542, -45.83551, 0.0 ], [ -67.478474, -45.836294, 0.0 ], [ -67.478419, -45.836752, 0.0 ], [ -67.478434, -45.836924, 0.0 ], [ -67.478287, -45.837671, 0.0 ], [ -67.478155, -45.83825, 0.0 ], [ -67.478092, -45.838439, 0.0 ], [ -67.478195, -45.838524, 0.0 ], [ -67.47836, -45.838581, 0.0 ], [ -67.478696, -45.838672, 0.0 ], [ -67.47891, -45.838733, 0.0 ], [ -67.47906, -45.838807, 0.0 ], [ -67.479128, -45.838861, 0.0 ], [ -67.479185, -45.838945, 0.0 ], [ -67.47919, -45.83908, 0.0 ], [ -67.479163, -45.839357, 0.0 ], [ -67.479108, -45.839643, 0.0 ], [ -67.479064, -45.83972, 0.0 ], [ -67.478967, -45.83976, 0.0 ], [ -67.477128, -45.839788, 0.0 ], [ -67.476953, -45.839785, 0.0 ], [ -67.47685, -45.839786, 0.0 ], [ -67.476738, -45.839799, 0.0 ], [ -67.476626, -45.83986, 0.0 ], [ -67.476566, -45.839984, 0.0 ], [ -67.476541, -45.8401, 0.0 ], [ -67.476527, -45.84034, 0.0 ], [ -67.476523, -45.841109, 0.0 ], [ -67.476501, -45.84157, 0.0 ], [ -67.476417, -45.842142, 0.0 ], [ -67.476285, -45.842847, 0.0 ], [ -67.476205, -45.843359, 0.0 ], [ -67.476158, -45.843546, 0.0 ], [ -67.475934, -45.844302, 0.0 ], [ -67.475528, -45.84547, 0.0 ], [ -67.475319, -45.846118, 0.0 ], [ -67.475213, -45.846508, 0.0 ], [ -67.475224, -45.846852, 0.0 ], [ -67.475362, -45.847127, 0.0 ], [ -67.475591, -45.847371, 0.0 ], [ -67.476065, -45.847732, 0.0 ], [ -67.476414, -45.847988, 0.0 ], [ -67.476642, -45.848178, 0.0 ], [ -67.476903, -45.848398, 0.0 ], [ -67.476996, -45.848562, 0.0 ], [ -67.477131, -45.848759, 0.0 ], [ -67.477227, -45.849045, 0.0 ], [ -67.477276, -45.849269, 0.0 ], [ -67.477262, -45.849512, 0.0 ], [ -67.477186, -45.849914, 0.0 ], [ -67.477082, -45.850344, 0.0 ], [ -67.476945, -45.850766, 0.0 ], [ -67.476845, -45.851241, 0.0 ], [ -67.476866, -45.851688, 0.0 ], [ -67.477072, -45.852164, 0.0 ], [ -67.477457, -45.85272, 0.0 ], [ -67.477794, -45.853208, 0.0 ], [ -67.477846, -45.853486, 0.0 ], [ -67.47778, -45.853827, 0.0 ], [ -67.477643, -45.854102, 0.0 ], [ -67.477534, -45.854218, 0.0 ], [ -67.477132, -45.854594, 0.0 ], [ -67.476757, -45.854913, 0.0 ], [ -67.476462, -45.855238, 0.0 ], [ -67.476316, -45.855516, 0.0 ], [ -67.476256, -45.855726, 0.0 ], [ -67.476245, -45.856078, 0.0 ], [ -67.476213, -45.856476, 0.0 ], [ -67.476164, -45.856713, 0.0 ], [ -67.475752, -45.858268, 0.0 ], [ -67.475693, -45.858529, 0.0 ], [ -67.475706, -45.858766, 0.0 ], [ -67.475743, -45.858971, 0.0 ], [ -67.475868, -45.85921, 0.0 ], [ -67.476053, -45.859519, 0.0 ], [ -67.476376, -45.859735, 0.0 ], [ -67.476791, -45.859908, 0.0 ], [ -67.477258, -45.859965, 0.0 ], [ -67.478931, -45.859977, 0.0 ], [ -67.481262, -45.859982, 0.0 ], [ -67.484416, -45.859984, 0.0 ], [ -67.484523, -45.860022, 0.0 ], [ -67.484568, -45.860159, 0.0 ], [ -67.484576, -45.865568, 0.0 ], [ -67.484579, -45.865666, 0.0 ], [ -67.484538, -45.865767, 0.0 ], [ -67.4845, -45.86587, 0.0 ], [ -67.484504, -45.865919, 0.0 ], [ -67.484533, -45.865968, 0.0 ], [ -67.485009, -45.866148, 0.0 ], [ -67.485456, -45.866335, 0.0 ], [ -67.486111, -45.866642, 0.0 ], [ -67.486846, -45.867039, 0.0 ], [ -67.487547, -45.867568, 0.0 ], [ -67.488826, -45.868448, 0.0 ], [ -67.490625, -45.869775, 0.0 ], [ -67.491418, -45.870359, 0.0 ], [ -67.491921, -45.870686, 0.0 ], [ -67.492693, -45.871159, 0.0 ], [ -67.493205, -45.871432, 0.0 ], [ -67.493318, -45.871587, 0.0 ], [ -67.49322, -45.871743, 0.0 ], [ -67.492989, -45.871962, 0.0 ], [ -67.492788, -45.87208, 0.0 ] ] } }
]
}
