{
"type": "FeatureCollection",
"name": "linea-20",
"crs": { "type": "name", "properties": { "name": "urn:ogc:def:crs:OGC:1.3:CRS84" } },
"features": [
{ "type": "Feature", "properties": { "fid": 1, "linea": "20", "sentido": "ida", "nombre": "Base Sol Bus - Stella Maris - Hospital Alvear" }, "geometry": { "type": "LineString", "coordinates": [ [ -67.544308, -45.893944, 0.0 ], [ -67.544625, -45.893709, 0.0 ], [ -67.544772, -45.893679, 0.0 ], [ -67.545514, -45.894095, 0.0 ], [ -67.546389, -45.894706, 0.0 ], [ -67.54744, -45.8954, 0.0 ], [ -67.546068, -45.896364, 0.0 ], [ -67.545101, -45.897022, 0.0 ], [ -67.543951, -45.897863, 0.0 ], [ -67.543785, -45.897923, 0.0 ], [ -67.539005, -45.894666, 0.0 ], [ -67.536023, -45.892644, 0.0 ], [ -67.534066, -45.891324, 0.0 ], [ -67.532327, -45.890142, 0.0 ], [ -67.53148, -45.88967, 0.0 ], [ -67.530948, -45.889393, 0.0 ], [ -67.530132, -45.889055, 0.0 ], [ -67.529176, -45.888754, 0.0 ], [ -67.527862, -45.888312, 0.0 ], [ -67.524545, -45.887236, 0.0 ], [ -67.523396, -45.886873, 0.0 ], [ -67.523224, -45.886896, 0.0 ], [ -67.520487, -45.89097, 0.0 ], [ -67.52067, -45.891094, 0.0 ], [ -67.523585, -45.892035, 0.0 ], [ -67.526582, -45.893006, 0.0 ], [ -67.52826, -45.893587, 0.0 ], [ -67.528258, -45.893675, 0.0 ], [ -67.528193, -45.893776, 0.0 ], [ -67.528045, -45.893961, 0.0 ], [ -67.527911, -45.893986, 0.0 ], [ -67.527749, -45.894014, 0.0 ], [ -67.527625, -45.893983, 0.0 ], [ -67.527281, -45.89388, 0.0 ], [ -67.527016, -45.893788, 0.0 ], [ -67.526921, -45.893747, 0.0 ], [ -67.526707, -45.893693, 0.0 ], [ -67.526583, -45.893706, 0.0 ], [ -67.526075, -45.893727, 0.0 ], [ -67.522257, -45.893847, 0.0 ], [ -67.5221, -45.893933, 0.0 ], [ -67.522013, -45.894033, 0.0 ], [ -67.522234, -45.894359, 0.0 ], [ -67.522487, -45.894604, 0.0 ], [ -67.522857, -45.894979, 0.0 ], [ -67.523039, -45.895156, 0.0 ], [ -67.522899, -45.895252, 0.0 ], [ -67.521735, -45.895405, 0.0 ], [ -67.52073, -45.895509, 0.0 ], [ -67.52062, -45.895411, 0.0 ], [ -67.517852, -45.894561, 0.0 ], [ -67.518416, -45.893708, 0.0 ], [ -67.517421, -45.893362, 0.0 ], [ -67.516084, -45.892922, 0.0 ], [ -67.516033, -45.892829, 0.0 ], [ -67.516344, -45.892372, 0.0 ], [ -67.514327, -45.8918, 0.0 ], [ -67.514228, -45.891878, 0.0 ], [ -67.513962, -45.892306, 0.0 ], [ -67.513835, -45.892408, 0.0 ], [ -67.513689, -45.892395, 0.0 ], [ -67.512633, -45.891237, 0.0 ], [ -67.512361, -45.890977, 0.0 ], [ -67.512103, -45.890404, 0.0 ], [ -67.51191, -45.889788, 0.0 ], [ -67.51168, -45.8891, 0.0 ], [ -67.511619, -45.888853, 0.0 ], [ -67.511544, -45.888698, 0.0 ], [ -67.511401, -45.88844, 0.0 ], [ -67.510453, -45.887088, 0.0 ], [ -67.507808, -45.883296, 0.0 ], [ -67.507392, -45.882539, 0.0 ], [ -67.50688, -45.882285, 0.0 ], [ -67.506125, -45.881962, 0.0 ], [ -67.505985, -45.881833, 0.0 ], [ -67.506136, -45.881664, 0.0 ], [ -67.506542, -45.88145, 0.0 ], [ -67.506959, -45.881158, 0.0 ], [ -67.509176, -45.879756, 0.0 ], [ -67.509382, -45.87958, 0.0 ], [ -67.509376, -45.879498, 0.0 ], [ -67.509099, -45.87937, 0.0 ], [ -67.508726, -45.879222, 0.0 ], [ -67.507974, -45.878899, 0.0 ], [ -67.506103, -45.878039, 0.0 ], [ -67.503836, -45.87709, 0.0 ], [ -67.503252, -45.876853, 0.0 ], [ -67.502789, -45.876655, 0.0 ], [ -67.50189, -45.876252, 0.0 ], [ -67.501501, -45.876059, 0.0 ], [ -67.501283, -45.875928, 0.0 ], [ -67.501108, -45.875823, 0.0 ], [ -67.500685, -45.87557, 0.0 ], [ -67.500249, -45.875268, 0.0 ], [ -67.499815, -45.874945, 0.0 ], [ -67.499377, -45.874709, 0.0 ], [ -67.499043, -45.874588, 0.0 ], [ -67.498773, -45.874531, 0.0 ], [ -67.498436, -45.874529, 0.0 ], [ -67.498196, -45.87456, 0.0 ], [ -67.497916, -45.874628, 0.0 ], [ -67.497603, -45.874761, 0.0 ], [ -67.497202, -45.874949, 0.0 ], [ -67.496821, -45.875121, 0.0 ], [ -67.496564, -45.875192, 0.0 ], [ -67.496298, -45.875246, 0.0 ], [ -67.496042, -45.875262, 0.0 ], [ -67.495653, -45.875256, 0.0 ], [ -67.495327, -45.875169, 0.0 ], [ -67.495117, -45.875061, 0.0 ], [ -67.494815, -45.874852, 0.0 ], [ -67.49412, -45.874456, 0.0 ], [ -67.493194, -45.873904, 0.0 ], [ -67.49044, -45.872254, 0.0 ], [ -67.490218, -45.871988, 0.0 ], [ -67.490399, -45.871869, 0.0 ], [ -67.490892, -45.871449, 0.0 ], [ -67.49089, -45.871354, 0.0 ], [ -67.49064, -45.871192, 0.0 ], [ -67.488771, -45.870053, 0.0 ], [ -67.488539, -45.869955, 0.0 ], [ -67.488097, -45.869701, 0.0 ], [ -67.487924, -45.869619, 0.0 ], [ -67.487735, -45.869599, 0.0 ], [ -67.487518, -45.869548, 0.0 ], [ -67.487396, -45.869485, 0.0 ], [ -67.487133, -45.869357, 0.0 ], [ -67.486751, -45.869137, 0.0 ], [ -67.486452, -45.868973, 0.0 ], [ -67.486334, -45.868903, 0.0 ], [ -67.486334, -45.868814, 0.0 ], [ -67.486354, -45.868241, 0.0 ], [ -67.486358, -45.868179, 0.0 ], [ -67.486344, -45.868117, 0.0 ], [ -67.486233, -45.86808, 0.0 ], [ -67.485312, -45.868081, 0.0 ], [ -67.48455, -45.868058, 0.0 ], [ -67.483976, -45.868041, 0.0 ], [ -67.480875, -45.866625, 0.0 ], [ -67.480216, -45.866314, 0.0 ], [ -67.48007, -45.866212, 0.0 ], [ -67.479947, -45.866025, 0.0 ], [ -67.479933, -45.86587, 0.0 ], [ -67.479927, -45.865454, 0.0 ], [ -67.47993, -45.864976, 0.0 ], [ -67.479917, -45.864692, 0.0 ], [ -67.479909, -45.864548, 0.0 ], [ -67.479755, -45.864436, 0.0 ], [ -67.478336, -45.864173, 0.0 ], [ -67.47736, -45.863973, 0.0 ], [ -67.476318, -45.863754, 0.0 ], [ -67.475516, -45.863611, 0.0 ], [ -67.475191, -45.863428, 0.0 ], [ -67.47508, -45.863179, 0.0 ], [ -67.474985, -45.862854, 0.0 ], [ -67.474764, -45.862576, 0.0 ], [ -67.474511, -45.862272, 0.0 ], [ -67.474316, -45.862035, 0.0 ], [ -67.47409, -45.861766, 0.0 ], [ -67.47404, -45.861479, 0.0 ], [ -67.474158, -45.861316, 0.0 ], [ -67.474245, -45.86121, 0.0 ], [ -67.474301, -45.861091, 0.0 ], [ -67.474354, -45.861012, 0.0 ], [ -67.474449, -45.860838, 0.0 ], [ -67.474751, -45.860247, 0.0 ], [ -67.475059, -45.85984, 0.0 ], [ -67.475271, -45.859402, 0.0 ], [ -67.475484, -45.858838, 0.0 ], [ -67.475654, -45.858229, 0.0 ], [ -67.475841, -45.85745, 0.0 ], [ -67.476047, -45.856855, 0.0 ], [ -67.476091, -45.856589, 0.0 ], [ -67.476113, -45.856086, 0.0 ], [ -67.476132, -45.855669, 0.0 ], [ -67.476267, -45.855309, 0.0 ], [ -67.476454, -45.855044, 0.0 ], [ -67.47678, -45.854751, 0.0 ], [ -67.477084, -45.8545, 0.0 ], [ -67.477371, -45.854273, 0.0 ], [ -67.477547, -45.854013, 0.0 ], [ -67.477657, -45.85372, 0.0 ], [ -67.477674, -45.853419, 0.0 ], [ -67.477604, -45.853208, 0.0 ], [ -67.477421, -45.852875, 0.0 ], [ -67.476997, -45.852276, 0.0 ], [ -67.476771, -45.851822, 0.0 ], [ -67.476667, -45.851535, 0.0 ], [ -67.476684, -45.851195, 0.0 ], [ -67.476772, -45.8508, 0.0 ], [ -67.476843, -45.850489, 0.0 ], [ -67.476913, -45.850252, 0.0 ], [ -67.477123, -45.849372, 0.0 ], [ -67.477092, -45.849019, 0.0 ], [ -67.476916, -45.848607, 0.0 ], [ -67.476608, -45.848262, 0.0 ], [ -67.475789, -45.847651, 0.0 ], [ -67.475395, -45.847305, 0.0 ], [ -67.475251, -45.84717, 0.0 ], [ -67.475158, -45.847001, 0.0 ], [ -67.475108, -45.84683, 0.0 ], [ -67.475111, -45.846673, 0.0 ], [ -67.475105, -45.846525, 0.0 ], [ -67.475168, -45.846283, 0.0 ], [ -67.475342, -45.845644, 0.0 ], [ -67.475585, -45.844954, 0.0 ], [ -67.476014, -45.843681, 0.0 ], [ -67.476214, -45.842786, 0.0 ], [ -67.476321, -45.841776, 0.0 ], [ -67.476432, -45.841095, 0.0 ], [ -67.476447, -45.839677, 0.0 ], [ -67.476295, -45.839556, 0.0 ], [ -67.476064, -45.839469, 0.0 ], [ -67.474928, -45.839495, 0.0 ], [ -67.474778, -45.83944, 0.0 ], [ -67.474734, -45.837852, 0.0 ], [ -67.474677, -45.837798, 0.0 ], [ -67.473925, -45.837691, 0.0 ], [ -67.472841, -45.837994, 0.0 ], [ -67.47262, -45.838094, 0.0 ], [ -67.468103, -45.839994, 0.0 ], [ -67.467976, -45.839964, 0.0 ], [ -67.466665, -45.838443, 0.0 ], [ -67.465567, -45.83711, 0.0 ], [ -67.465337, -45.83699, 0.0 ], [ -67.46503, -45.836674, 0.0 ], [ -67.463732, -45.8351, 0.0 ], [ -67.46348, -45.834705, 0.0 ], [ -67.463212, -45.834254, 0.0 ], [ -67.463089, -45.833869, 0.0 ], [ -67.462962, -45.833533, 0.0 ], [ -67.462942, -45.833375, 0.0 ], [ -67.462885, -45.83331, 0.0 ], [ -67.462769, -45.833283, 0.0 ], [ -67.462193, -45.833229, 0.0 ], [ -67.462041, -45.833242, 0.0 ], [ -67.462001, -45.833316, 0.0 ], [ -67.461969, -45.833581, 0.0 ], [ -67.461941, -45.833776, 0.0 ] ] } },
{ "type": "Feature", "properties": { "fid": 2, "linea": "20", "sentido": "vuelta", "nombre": "Base Sol Bus - Stella Maris - Hospital Alvear" }, "geometry": { "type": "LineString", "coordinates": [ [ -67.461941, -45.833769, 0.0 ], [ -67.461802, -45.834526, 0.0 ], [ -67.461795, -45.834698, 0.0 ], [ -67.461811, -45.834805, 0.0 ], [ -67.461887, -45.834893, 0.0 ], [ -67.462006, -45.834948, 0.0 ], [ -67.462196, -45.834995, 0.0 ], [ -67.462655, -45.835028, 0.0 ], [ -67.462943, -45.83507, 0.0 ], [ -67.463111, -45.835133, 0.0 ], [ -67.463253, -45.835287, 0.0 ], [ -67.464067, -45.836295, 0.0 ], [ -67.464256, -45.83657, 0.0 ], [ -67.464391, -45.836749, 0.0 ], [ -67.464522, -45.836901, 0.0 ], [ -67.464678, -45.836981, 0.0 ], [ -67.464911, -45.837036, 0.0 ], [ -67.465166, -45.837043, 0.0 ], [ -67.465344, -45.83704, 0.0 ], [ -67.465482, -45.837039, 0.0 ], [ -67.465579, -45.837073, 0.0 ], [ -67.465663, -45.837155, 0.0 ], [ -67.467221, -45.838949, 0.0 ], [ -67.468489, -45.838386, 0.0 ], [ -67.469215, -45.838021, 0.0 ], [ -67.469817, -45.837588, 0.0 ], [ -67.470728, -45.837336, 0.0 ], [ -67.471046, -45.837232, 0.0 ], [ -67.471639, -45.83714, 0.0 ], [ -67.472243, -45.83708, 0.0 ], [ -67.472893, -45.836989, 0.0 ], [ -67.47371, -45.836894, 0.0 ], [ -67.474231, -45.836832, 0.0 ], [ -67.474372, -45.836817, 0.0 ], [ -67.474535, -45.836818, 0.0 ], [ -67.474619, -45.836848, 0.0 ], [ -67.474666, -45.836931, 0.0 ], [ -67.47462, -45.837413, 0.0 ], [ -67.474677, -45.837565, 0.0 ], [ -67.474772, -45.837685, 0.0 ], [ -67.474858, -45.837775, 0.0 ], [ -67.476025, -45.838029, 0.0 ], [ -67.476129, -45.838052, 0.0 ], [ -67.476255, -45.838087, 0.0 ], [ -67.476431, -45.83815, 0.0 ], [ -67.47656, -45.838262, 0.0 ], [ -67.47662, -45.838447, 0.0 ], [ -67.47663, -45.838807, 0.0 ], [ -67.476666, -45.83937, 0.0 ], [ -67.476654, -45.839638, 0.0 ], [ -67.476637, -45.839823, 0.0 ], [ -67.476604, -45.83995, 0.0 ], [ -67.476543, -45.840096, 0.0 ], [ -67.47654, -45.84044, 0.0 ], [ -67.47654, -45.840888, 0.0 ], [ -67.476538, -45.841243, 0.0 ], [ -67.476491, -45.841615, 0.0 ], [ -67.476399, -45.842285, 0.0 ], [ -67.476321, -45.842776, 0.0 ], [ -67.476252, -45.843182, 0.0 ], [ -67.476207, -45.843422, 0.0 ], [ -67.47615, -45.843641, 0.0 ], [ -67.476011, -45.844056, 0.0 ], [ -67.475828, -45.844622, 0.0 ], [ -67.475497, -45.845596, 0.0 ], [ -67.475401, -45.84597, 0.0 ], [ -67.475299, -45.846227, 0.0 ], [ -67.475251, -45.846434, 0.0 ], [ -67.475219, -45.846672, 0.0 ], [ -67.475246, -45.846871, 0.0 ], [ -67.475328, -45.847091, 0.0 ], [ -67.475512, -45.847318, 0.0 ], [ -67.475844, -45.847587, 0.0 ], [ -67.476339, -45.847941, 0.0 ], [ -67.476701, -45.848218, 0.0 ], [ -67.476886, -45.84841, 0.0 ], [ -67.477092, -45.848637, 0.0 ], [ -67.4772, -45.848871, 0.0 ], [ -67.477269, -45.849095, 0.0 ], [ -67.477303, -45.84928, 0.0 ], [ -67.477285, -45.849552, 0.0 ], [ -67.477225, -45.849837, 0.0 ], [ -67.476939, -45.850866, 0.0 ], [ -67.476861, -45.851229, 0.0 ], [ -67.476871, -45.851527, 0.0 ], [ -67.476915, -45.851718, 0.0 ], [ -67.477008, -45.851981, 0.0 ], [ -67.477354, -45.852501, 0.0 ], [ -67.47759, -45.852864, 0.0 ], [ -67.477754, -45.853138, 0.0 ], [ -67.477829, -45.853336, 0.0 ], [ -67.477864, -45.853539, 0.0 ], [ -67.477851, -45.853732, 0.0 ], [ -67.4778, -45.853896, 0.0 ], [ -67.477721, -45.854093, 0.0 ], [ -67.477589, -45.85424, 0.0 ], [ -67.477447, -45.85439, 0.0 ], [ -67.477054, -45.854668, 0.0 ], [ -67.476656, -45.855, 0.0 ], [ -67.476497, -45.855172, 0.0 ], [ -67.476367, -45.855403, 0.0 ], [ -67.476289, -45.855655, 0.0 ], [ -67.476257, -45.855911, 0.0 ], [ -67.476263, -45.856155, 0.0 ], [ -67.476273, -45.856436, 0.0 ], [ -67.476244, -45.856615, 0.0 ], [ -67.476165, -45.856961, 0.0 ], [ -67.476056, -45.857316, 0.0 ], [ -67.475838, -45.858117, 0.0 ], [ -67.475762, -45.85846, 0.0 ], [ -67.475733, -45.858742, 0.0 ], [ -67.475763, -45.858967, 0.0 ], [ -67.475946, -45.859299, 0.0 ], [ -67.476206, -45.859603, 0.0 ], [ -67.476415, -45.859739, 0.0 ], [ -67.47669, -45.859874, 0.0 ], [ -67.476987, -45.859954, 0.0 ], [ -67.477289, -45.859978, 0.0 ], [ -67.4779, -45.859974, 0.0 ], [ -67.478346, -45.859977, 0.0 ], [ -67.478777, -45.859975, 0.0 ], [ -67.480125, -45.859959, 0.0 ], [ -67.480661, -45.859963, 0.0 ], [ -67.481147, -45.859997, 0.0 ], [ -67.481456, -45.860048, 0.0 ], [ -67.481472, -45.860214, 0.0 ], [ -67.481484, -45.862572, 0.0 ], [ -67.481502, -45.864496, 0.0 ], [ -67.481528, -45.864595, 0.0 ], [ -67.481814, -45.864729, 0.0 ], [ -67.484334, -45.865852, 0.0 ], [ -67.485005, -45.866133, 0.0 ], [ -67.485381, -45.866267, 0.0 ], [ -67.485866, -45.866477, 0.0 ], [ -67.486562, -45.866861, 0.0 ], [ -67.487815, -45.867775, 0.0 ], [ -67.489407, -45.868899, 0.0 ], [ -67.49084, -45.870012, 0.0 ], [ -67.491631, -45.870578, 0.0 ], [ -67.492517, -45.871059, 0.0 ], [ -67.493576, -45.87156, 0.0 ], [ -67.494848, -45.872151, 0.0 ], [ -67.496374, -45.872746, 0.0 ], [ -67.4971, -45.873066, 0.0 ], [ -67.497683, -45.873374, 0.0 ], [ -67.498344, -45.873745, 0.0 ], [ -67.498858, -45.874135, 0.0 ], [ -67.499498, -45.874646, 0.0 ], [ -67.500033, -45.875004, 0.0 ], [ -67.500367, -45.875258, 0.0 ], [ -67.500956, -45.875643, 0.0 ], [ -67.501526, -45.87591, 0.0 ], [ -67.502312, -45.876222, 0.0 ], [ -67.502744, -45.876285, 0.0 ], [ -67.503612, -45.876653, 0.0 ], [ -67.505337, -45.876028, 0.0 ], [ -67.506528, -45.875485, 0.0 ], [ -67.506738, -45.875415, 0.0 ], [ -67.506947, -45.875389, 0.0 ], [ -67.507339, -45.875752, 0.0 ], [ -67.508202, -45.876644, 0.0 ], [ -67.508477, -45.876876, 0.0 ], [ -67.509075, -45.877436, 0.0 ], [ -67.509169, -45.87739, 0.0 ], [ -67.509545, -45.877174, 0.0 ], [ -67.509705, -45.877056, 0.0 ], [ -67.51063, -45.876459, 0.0 ], [ -67.512499, -45.877863, 0.0 ], [ -67.511367, -45.878567, 0.0 ], [ -67.510617, -45.879013, 0.0 ], [ -67.510236, -45.879247, 0.0 ], [ -67.506369, -45.881853, 0.0 ], [ -67.506455, -45.881921, 0.0 ], [ -67.506697, -45.882044, 0.0 ], [ -67.507077, -45.882184, 0.0 ], [ -67.507325, -45.882319, 0.0 ], [ -67.507423, -45.882363, 0.0 ], [ -67.507758, -45.88305, 0.0 ], [ -67.50999, -45.886285, 0.0 ], [ -67.511493, -45.888427, 0.0 ], [ -67.511821, -45.889209, 0.0 ], [ -67.512237, -45.890468, 0.0 ], [ -67.512429, -45.890941, 0.0 ], [ -67.512918, -45.891425, 0.0 ], [ -67.513983, -45.892491, 0.0 ], [ -67.514376, -45.893042, 0.0 ], [ -67.514661, -45.893326, 0.0 ], [ -67.514829, -45.893823, 0.0 ], [ -67.514993, -45.894245, 0.0 ], [ -67.515129, -45.894494, 0.0 ], [ -67.515486, -45.894609, 0.0 ], [ -67.515997, -45.894795, 0.0 ], [ -67.516275, -45.894892, 0.0 ], [ -67.516437, -45.894943, 0.0 ], [ -67.517382, -45.895262, 0.0 ], [ -67.517854, -45.894565, 0.0 ], [ -67.518066, -45.894611, 0.0 ], [ -67.520683, -45.895455, 0.0 ], [ -67.520796, -45.895511, 0.0 ], [ -67.521449, -45.895415, 0.0 ], [ -67.522902, -45.895257, 0.0 ], [ -67.523006, -45.895168, 0.0 ], [ -67.522606, -45.89482, 0.0 ], [ -67.522295, -45.894533, 0.0 ], [ -67.522185, -45.894375, 0.0 ], [ -67.521944, -45.894005, 0.0 ], [ -67.522127, -45.893877, 0.0 ], [ -67.522317, -45.893812, 0.0 ], [ -67.526139, -45.893679, 0.0 ], [ -67.526652, -45.89366, 0.0 ], [ -67.526889, -45.893709, 0.0 ], [ -67.527343, -45.893847, 0.0 ], [ -67.527678, -45.893945, 0.0 ], [ -67.527821, -45.893951, 0.0 ], [ -67.527928, -45.893936, 0.0 ], [ -67.528027, -45.893895, 0.0 ], [ -67.528188, -45.893709, 0.0 ], [ -67.5282, -45.89362, 0.0 ], [ -67.528067, -45.893569, 0.0 ], [ -67.526466, -45.893019, 0.0 ], [ -67.523413, -45.892032, 0.0 ], [ -67.520353, -45.891062, 0.0 ], [ -67.52027, -45.890994, 0.0 ], [ -67.522811, -45.887168, 0.0 ], [ -67.523108, -45.886767, 0.0 ], [ -67.5232, -45.886642, 0.0 ], [ -67.523462, -45.88659, 0.0 ], [ -67.523726, -45.886675, 0.0 ], [ -67.529492, -45.888526, 0.0 ], [ -67.529716, -45.888597, 0.0 ], [ -67.530031, -45.888747, 0.0 ], [ -67.530237, -45.888812, 0.0 ], [ -67.530706, -45.888936, 0.0 ], [ -67.531069, -45.889098, 0.0 ], [ -67.531444, -45.889337, 0.0 ], [ -67.532084, -45.889735, 0.0 ], [ -67.533852, -45.890894, 0.0 ], [ -67.535261, -45.891794, 0.0 ], [ -67.535698, -45.892072, 0.0 ], [ -67.540085, -45.895011, 0.0 ], [ -67.541363, -45.895872, 0.0 ], [ -67.543279, -45.897177, 0.0 ], [ -67.543825, -45.897525, 0.0 ], [ -67.543927, -45.89757, 0.0 ], [ -67.544141, -45.897531, 0.0 ], [ -67.545207, -45.896773, 0.0 ], [ -67.546375, -45.895951, 0.0 ], [ -67.547157, -45.895346, 0.0 ], [ -67.547091, -45.895224, 0.0 ], [ -67.546147, -45.894637, 0.0 ], [ -67.544795, -45.893733, 0.0 ], [ -67.544702, -45.893702, 0.0 ], [ -67.544527, -45.893734, 0.0 ], [ -67.54429, -45.893938, 0.0 ] ] } }
]
}
