{
"type": "FeatureCollection",
"name": "linea-2",
"crs": { "type": "name", "properties": { "name": "urn:ogc:def:crs:OGC:1.3:CRS84" } },
"features": [
{ "type": "Feature", "properties": { "fid": 1, "linea": "2", "sentido": "ida", "nombre": "Máximo Abásolo - Centro" }, "geometry": { "type": "LineString", "coordinates": [ [ -67.548806, -45.859491, 0.0 ], [ -67.548605, -45.859372, 0.0 ], [ -67.549879, -45.858504, 0.0 ], [ -67.548644, -45.856383, 0.0 ], [ -67.547424, -45.856005, 0.0 ], [ -67.542398, -45.85708, 0.0 ], [ -67.542089, -45.857269, 0.0 ], [ -67.541798, -45.857298, 0.0 ], [ -67.541646, -45.857162, 0.0 ], [ -67.541423, -45.857172, 0.0 ], [ -67.541098, -45.857376, 0.0 ], [ -67.535905, -45.862266, 0.0 ], [ -67.537395, -45.863352, 0.0 ], [ -67.538418, -45.864088, 0.0 ], [ -67.538958, -45.864569, 0.0 ], [ -67.539811, -45.865164, 0.0 ], [ -67.542563, -45.867177, 0.0 ], [ -67.543727, -45.867326, 0.0 ], [ -67.543867, -45.867514, 0.0 ], [ -67.543644, -45.867674, 0.0 ], [ -67.543182, -45.867669, 0.0 ], [ -67.5409, -45.869173, 0.0 ], [ -67.541792, -45.869953, 0.0 ], [ -67.541445, -45.871176, 0.0 ], [ -67.540878, -45.871207, 0.0 ], [ -67.537439, -45.868555, 0.0 ], [ -67.533458, -45.871119, 0.0 ], [ -67.533288, -45.871109, 0.0 ], [ -67.527938, -45.866968, 0.0 ], [ -67.525825, -45.865364, 0.0 ], [ -67.525668, -45.865351, 0.0 ], [ -67.520431, -45.868826, 0.0 ], [ -67.511376, -45.866794, 0.0 ], [ -67.50969, -45.866786, 0.0 ], [ -67.504318, -45.869893, 0.0 ], [ -67.503967, -45.869986, 0.0 ], [ -67.497247, -45.869994, 0.0 ], [ -67.497243, -45.865662, 0.0 ], [ -67.485921, -45.865636, 0.0 ], [ -67.484663, -45.865403, 0.0 ], [ -67.484556, -45.865466, 0.0 ], [ -67.484544, -45.865875, 0.0 ], [ -67.484255, -45.866072, 0.0 ], [ -67.484311, -45.868144, 0.0 ], [ -67.484203, -45.868144, 0.0 ], [ -67.479962, -45.866174, 0.0 ], [ -67.479934, -45.863167, 0.0 ], [ -67.479946, -45.862772, 0.0 ], [ -67.481089, -45.862753, 0.0 ] ] } },
{ "type": "Feature", "properties": { "fid": 2, "linea": "2", "sentido": "vuelta", "nombre": "Máximo Abásolo - Centro" }, "geometry": { "type": "LineString", "coordinates": [ [ -67.480715, -45.862788, 0.0 ], [ -67.48152, -45.862808, 0.0 ], [ -67.48153, -45.863907, 0.0 ], [ -67.482833, -45.864448, 0.0 ], [ -67.48311, -45.864494, 0.0 ], [ -67.49579, -45.864554, 0.0 ], [ -67.49576, -45.868943, 0.0 ], [ -67.501991, -45.868953, 0.0 ], [ -67.502009, -45.868705, 0.0 ], [ -67.502931, -45.868729, 0.0 ], [ -67.504297, -45.869852, 0.0 ], [ -67.509735, -45.866645, 0.0 ], [ -67.511739, -45.866743, 0.0 ], [ -67.520368, -45.868671, 0.0 ], [ -67.525813, -45.865207, 0.0 ], [ -67.525931, -45.865234, 0.0 ], [ -67.533467, -45.871003, 0.0 ], [ -67.53357, -45.871003, 0.0 ], [ -67.537501, -45.868478, 0.0 ], [ -67.539374, -45.86998, 0.0 ], [ -67.539448, -45.869956, 0.0 ], [ -67.542895, -45.867712, 0.0 ], [ -67.542661, -45.867475, 0.0 ], [ -67.539703, -45.865252, 0.0 ], [ -67.539749, -45.865099, 0.0 ], [ -67.54128, -45.86413, 0.0 ], [ -67.541292, -45.864061, 0.0 ], [ -67.539267, -45.862535, 0.0 ], [ -67.538639, -45.862122, 0.0 ], [ -67.536865, -45.86116, 0.0 ], [ -67.536897, -45.861068, 0.0 ], [ -67.541056, -45.85712, 0.0 ], [ -67.547287, -45.85587, 0.0 ], [ -67.547378, -45.855873, 0.0 ], [ -67.548588, -45.856299, 0.0 ], [ -67.548758, -45.856474, 0.0 ], [ -67.549804, -45.858288, 0.0 ], [ -67.550008, -45.858421, 0.0 ], [ -67.550225, -45.858451, 0.0 ], [ -67.550306, -45.858586, 0.0 ], [ -67.550753, -45.859423, 0.0 ], [ -67.550574, -45.859507, 0.0 ], [ -67.54886, -45.859526, 0.0 ] ] } }
]
}
