{
"type": "FeatureCollection",
"name": "linea-13",
"crs": { "type": "name", "properties": { "name": "urn:ogc:def:crs:OGC:1.3:CRS84" } },
"features": [
{ "type": "Feature", "properties": { "fid": 1, "linea": "13", "sentido": "ida", "nombre": "Estadio Centenario - Standard" }, "geometry": { "type": "LineString", "coordinates": [ [ -67.492629, -45.872283, 0.0 ], [ -67.491775, -45.872923, 0.0 ], [ -67.490232, -45.872038, 0.0 ], [ -67.490591, -45.871761, 0.0 ], [ -67.490986, -45.871398, 0.0 ], [ -67.488009, -45.869622, 0.0 ], [ -67.487555, -45.86954, 0.0 ], [ -67.486318, -45.868871, 0.0 ], [ -67.486379, -45.868065, 0.0 ], [ -67.484004, -45.868038, 0.0 ], [ -67.48216, -45.867177, 0.0 ], [ -67.480286, -45.866345, 0.0 ], [ -67.480162, -45.866268, 0.0 ], [ -67.480037, -45.866166, 0.0 ], [ -67.479941, -45.866038, 0.0 ], [ -67.479958, -45.865824, 0.0 ], [ -67.479907, -45.864915, 0.0 ], [ -67.479925, -45.864726, 0.0 ], [ -67.479905, -45.864558, 0.0 ], [ -67.479811, -45.864472, 0.0 ], [ -67.479657, -45.864466, 0.0 ], [ -67.478955, -45.864314, 0.0 ], [ -67.476157, -45.863711, 0.0 ], [ -67.47576, -45.863644, 0.0 ], [ -67.475497, -45.863563, 0.0 ], [ -67.475279, -45.863431, 0.0 ], [ -67.475144, -45.863249, 0.0 ], [ -67.475069, -45.862917, 0.0 ], [ -67.474948, -45.862713, 0.0 ], [ -67.474722, -45.86249, 0.0 ], [ -67.474245, -45.861992, 0.0 ], [ -67.474109, -45.861816, 0.0 ], [ -67.474073, -45.861608, 0.0 ], [ -67.474153, -45.861447, 0.0 ], [ -67.4744, -45.860917, 0.0 ], [ -67.474879, -45.860137, 0.0 ], [ -67.47501, -45.859904, 0.0 ], [ -67.475112, -45.859708, 0.0 ], [ -67.475228, -45.859381, 0.0 ], [ -67.475381, -45.859086, 0.0 ], [ -67.475552, -45.858533, 0.0 ], [ -67.475883, -45.857406, 0.0 ], [ -67.476047, -45.856787, 0.0 ], [ -67.476109, -45.856528, 0.0 ], [ -67.47611, -45.85629, 0.0 ], [ -67.47609, -45.855829, 0.0 ], [ -67.476159, -45.855522, 0.0 ], [ -67.476283, -45.855247, 0.0 ], [ -67.476529, -45.854931, 0.0 ], [ -67.477193, -45.854413, 0.0 ], [ -67.477401, -45.854212, 0.0 ], [ -67.477544, -45.854087, 0.0 ], [ -67.477632, -45.853857, 0.0 ], [ -67.477686, -45.8536, 0.0 ], [ -67.477652, -45.853329, 0.0 ], [ -67.477468, -45.852937, 0.0 ], [ -67.477309, -45.852673, 0.0 ], [ -67.47711, -45.852372, 0.0 ], [ -67.476878, -45.852019, 0.0 ], [ -67.47679, -45.851815, 0.0 ], [ -67.476716, -45.851564, 0.0 ], [ -67.476716, -45.851341, 0.0 ], [ -67.476757, -45.851075, 0.0 ], [ -67.476818, -45.85076, 0.0 ], [ -67.47692, -45.850445, 0.0 ], [ -67.476975, -45.850125, 0.0 ], [ -67.47703, -45.849922, 0.0 ], [ -67.477092, -45.849476, 0.0 ], [ -67.47714, -45.849192, 0.0 ], [ -67.477047, -45.848878, 0.0 ], [ -67.476895, -45.84861, 0.0 ], [ -67.476738, -45.848399, 0.0 ], [ -67.476476, -45.848172, 0.0 ], [ -67.476009, -45.847802, 0.0 ], [ -67.475726, -45.847614, 0.0 ], [ -67.475485, -45.847425, 0.0 ], [ -67.475308, -45.847242, 0.0 ], [ -67.475189, -45.847022, 0.0 ], [ -67.475116, -45.846839, 0.0 ], [ -67.475116, -45.84666, 0.0 ], [ -67.475156, -45.846457, 0.0 ], [ -67.475294, -45.84588, 0.0 ], [ -67.475565, -45.845021, 0.0 ], [ -67.475799, -45.844286, 0.0 ], [ -67.476077, -45.843463, 0.0 ], [ -67.47614, -45.843152, 0.0 ], [ -67.476264, -45.842294, 0.0 ], [ -67.476361, -45.841594, 0.0 ], [ -67.476383, -45.841098, 0.0 ], [ -67.476393, -45.84056, 0.0 ], [ -67.476391, -45.83986, 0.0 ], [ -67.476364, -45.839559, 0.0 ], [ -67.47474, -45.83945, 0.0 ], [ -67.474761, -45.837817, 0.0 ], [ -67.475605, -45.837947, 0.0 ], [ -67.476386, -45.838094, 0.0 ], [ -67.476317, -45.836905, 0.0 ], [ -67.47618, -45.836477, 0.0 ], [ -67.475874, -45.836062, 0.0 ], [ -67.474814, -45.835061, 0.0 ], [ -67.473933, -45.834329, 0.0 ], [ -67.471904, -45.832167, 0.0 ], [ -67.470147, -45.830096, 0.0 ], [ -67.469126, -45.828923, 0.0 ], [ -67.469058, -45.828808, 0.0 ], [ -67.468786, -45.828487, 0.0 ], [ -67.468483, -45.827939, 0.0 ], [ -67.468161, -45.827475, 0.0 ], [ -67.467983, -45.8272, 0.0 ], [ -67.467838, -45.827004, 0.0 ], [ -67.467626, -45.826683, 0.0 ], [ -67.467282, -45.826284, 0.0 ], [ -67.466827, -45.825767, 0.0 ], [ -67.466346, -45.825221, 0.0 ], [ -67.466186, -45.824999, 0.0 ], [ -67.466033, -45.824859, 0.0 ], [ -67.46585, -45.824777, 0.0 ], [ -67.465733, -45.82476, 0.0 ], [ -67.465595, -45.824753, 0.0 ], [ -67.465458, -45.824702, 0.0 ], [ -67.465358, -45.824618, 0.0 ], [ -67.46531, -45.8245, 0.0 ], [ -67.465237, -45.824434, 0.0 ], [ -67.465088, -45.824365, 0.0 ], [ -67.464931, -45.824346, 0.0 ], [ -67.464733, -45.824336, 0.0 ], [ -67.46457, -45.824309, 0.0 ], [ -67.464294, -45.824289, 0.0 ], [ -67.463969, -45.824241, 0.0 ], [ -67.463551, -45.824187, 0.0 ], [ -67.463167, -45.824095, 0.0 ], [ -67.462825, -45.824002, 0.0 ], [ -67.462535, -45.823872, 0.0 ], [ -67.461226, -45.823203, 0.0 ], [ -67.460729, -45.822936, 0.0 ], [ -67.460203, -45.822659, 0.0 ], [ -67.459595, -45.822522, 0.0 ], [ -67.458917, -45.822378, 0.0 ], [ -67.458551, -45.822334, 0.0 ], [ -67.458276, -45.822355, 0.0 ], [ -67.458, -45.822386, 0.0 ], [ -67.457853, -45.822351, 0.0 ], [ -67.457669, -45.822295, 0.0 ], [ -67.457582, -45.822194, 0.0 ], [ -67.457325, -45.821901, 0.0 ], [ -67.456923, -45.82138, 0.0 ], [ -67.456747, -45.82104, 0.0 ], [ -67.45661, -45.82071, 0.0 ], [ -67.456458, -45.820375, 0.0 ], [ -67.456292, -45.819883, 0.0 ], [ -67.456221, -45.819535, 0.0 ], [ -67.456222, -45.819358, 0.0 ], [ -67.456361, -45.819221, 0.0 ], [ -67.456528, -45.819185, 0.0 ], [ -67.456689, -45.819185, 0.0 ], [ -67.456827, -45.81914, 0.0 ], [ -67.456892, -45.818988, 0.0 ], [ -67.457031, -45.818342, 0.0 ], [ -67.457111, -45.817918, 0.0 ], [ -67.457155, -45.817561, 0.0 ], [ -67.457097, -45.817283, 0.0 ], [ -67.456967, -45.816763, 0.0 ], [ -67.456408, -45.815023, 0.0 ], [ -67.456235, -45.814453, 0.0 ], [ -67.455997, -45.813606, 0.0 ], [ -67.455537, -45.812045, 0.0 ], [ -67.455335, -45.811406, 0.0 ], [ -67.455226, -45.811148, 0.0 ], [ -67.455031, -45.810896, 0.0 ], [ -67.454895, -45.810725, 0.0 ], [ -67.454715, -45.810413, 0.0 ], [ -67.45473, -45.810247, 0.0 ], [ -67.454839, -45.809996, 0.0 ], [ -67.454904, -45.809739, 0.0 ], [ -67.454875, -45.809487, 0.0 ], [ -67.454747, -45.809015, 0.0 ], [ -67.454625, -45.808744, 0.0 ], [ -67.454322, -45.808538, 0.0 ], [ -67.454062, -45.808431, 0.0 ], [ -67.45349, -45.808334, 0.0 ], [ -67.45295, -45.808267, 0.0 ], [ -67.452575, -45.808239, 0.0 ], [ -67.452288, -45.80827, 0.0 ], [ -67.451829, -45.808386, 0.0 ], [ -67.451308, -45.808522, 0.0 ], [ -67.450688, -45.808618, 0.0 ], [ -67.450185, -45.80865, 0.0 ], [ -67.449536, -45.808608, 0.0 ], [ -67.449148, -45.808608, 0.0 ], [ -67.448654, -45.808725, 0.0 ], [ -67.448261, -45.808799, 0.0 ], [ -67.447658, -45.808927, 0.0 ], [ -67.446791, -45.80906, 0.0 ], [ -67.445615, -45.809216, 0.0 ], [ -67.445022, -45.8093, 0.0 ], [ -67.444113, -45.809458, 0.0 ], [ -67.443161, -45.809598, 0.0 ], [ -67.442666, -45.809617, 0.0 ], [ -67.442047, -45.809612, 0.0 ], [ -67.441577, -45.809582, 0.0 ], [ -67.440851, -45.809467, 0.0 ], [ -67.440287, -45.809376, 0.0 ], [ -67.437604, -45.809011, 0.0 ], [ -67.437049, -45.80894, 0.0 ], [ -67.436378, -45.808838, 0.0 ], [ -67.435872, -45.808762, 0.0 ], [ -67.435525, -45.80864, 0.0 ], [ -67.435206, -45.808508, 0.0 ], [ -67.434916, -45.808328, 0.0 ], [ -67.43456, -45.80801, 0.0 ], [ -67.434009, -45.807469, 0.0 ], [ -67.433743, -45.807125, 0.0 ], [ -67.433317, -45.806741, 0.0 ], [ -67.432984, -45.806503, 0.0 ], [ -67.431876, -45.805841, 0.0 ], [ -67.430572, -45.80506, 0.0 ], [ -67.428511, -45.803897, 0.0 ], [ -67.427401, -45.803276, 0.0 ], [ -67.42676, -45.802971, 0.0 ], [ -67.425928, -45.802527, 0.0 ], [ -67.425115, -45.80209, 0.0 ], [ -67.424818, -45.801917, 0.0 ], [ -67.424565, -45.801612, 0.0 ], [ -67.424356, -45.801322, 0.0 ], [ -67.424109, -45.80087, 0.0 ], [ -67.422964, -45.798897, 0.0 ], [ -67.422048, -45.797271, 0.0 ], [ -67.421823, -45.796817, 0.0 ], [ -67.421878, -45.796695, 0.0 ], [ -67.42216, -45.79648, 0.0 ], [ -67.422487, -45.796174, 0.0 ], [ -67.422982, -45.79573, 0.0 ], [ -67.422983, -45.795638, 0.0 ], [ -67.422904, -45.795495, 0.0 ], [ -67.421985, -45.794507, 0.0 ], [ -67.421333, -45.793772, 0.0 ], [ -67.420959, -45.793337, 0.0 ], [ -67.420801, -45.793248, 0.0 ], [ -67.420348, -45.792773, 0.0 ], [ -67.420158, -45.792508, 0.0 ], [ -67.420158, -45.792434, 0.0 ], [ -67.420322, -45.792372, 0.0 ], [ -67.421194, -45.791965, 0.0 ], [ -67.421252, -45.791928, 0.0 ], [ -67.42121, -45.791876, 0.0 ], [ -67.421178, -45.791832, 0.0 ], [ -67.421236, -45.79174, 0.0 ], [ -67.422708, -45.791124, 0.0 ], [ -67.424287, -45.790497, 0.0 ], [ -67.424805, -45.790258, 0.0 ], [ -67.426274, -45.789193, 0.0 ], [ -67.426555, -45.788966, 0.0 ], [ -67.426641, -45.788825, 0.0 ], [ -67.426755, -45.788706, 0.0 ], [ -67.424753, -45.787148, 0.0 ], [ -67.426509, -45.786135, 0.0 ], [ -67.426671, -45.786226, 0.0 ], [ -67.428166, -45.787646, 0.0 ], [ -67.428415, -45.787694, 0.0 ], [ -67.428719, -45.78748, 0.0 ], [ -67.433678, -45.784046, 0.0 ], [ -67.433859, -45.783911, 0.0 ], [ -67.434517, -45.78346, 0.0 ] ] } },
{ "type": "Feature", "properties": { "fid": 2, "linea": "13", "sentido": "vuelta", "nombre": "Estadio Centenario - Standard" }, "geometry": { "type": "LineString", "coordinates": [ [ -67.43456, -45.783425, 0.0 ], [ -67.434674, -45.783417, 0.0 ], [ -67.434877, -45.783502, 0.0 ], [ -67.436969, -45.784626, 0.0 ], [ -67.44202, -45.787393, 0.0 ], [ -67.442119, -45.787462, 0.0 ], [ -67.4421, -45.787531, 0.0 ], [ -67.441584, -45.787918, 0.0 ], [ -67.440136, -45.788874, 0.0 ], [ -67.438819, -45.789752, 0.0 ], [ -67.438693, -45.789894, 0.0 ], [ -67.438509, -45.789914, 0.0 ], [ -67.43813, -45.789955, 0.0 ], [ -67.438014, -45.789968, 0.0 ], [ -67.438004, -45.790056, 0.0 ], [ -67.43842, -45.791596, 0.0 ], [ -67.434521, -45.791667, 0.0 ], [ -67.434546, -45.792346, 0.0 ], [ -67.434575, -45.792514, 0.0 ], [ -67.434789, -45.792595, 0.0 ], [ -67.435387, -45.792669, 0.0 ], [ -67.435629, -45.792717, 0.0 ], [ -67.435629, -45.792973, 0.0 ], [ -67.435676, -45.79335, 0.0 ], [ -67.435605, -45.793654, 0.0 ], [ -67.43545, -45.79387, 0.0 ], [ -67.434096, -45.794416, 0.0 ], [ -67.432257, -45.795185, 0.0 ], [ -67.431944, -45.795306, 0.0 ], [ -67.431766, -45.795411, 0.0 ], [ -67.431588, -45.795411, 0.0 ], [ -67.429594, -45.795243, 0.0 ], [ -67.428685, -45.795232, 0.0 ], [ -67.428416, -45.79528, 0.0 ], [ -67.428319, -45.795385, 0.0 ], [ -67.428271, -45.795645, 0.0 ], [ -67.428277, -45.795885, 0.0 ], [ -67.428323, -45.796126, 0.0 ], [ -67.428335, -45.796415, 0.0 ], [ -67.428264, -45.796652, 0.0 ], [ -67.427977, -45.79689, 0.0 ], [ -67.427311, -45.797334, 0.0 ], [ -67.426009, -45.798063, 0.0 ], [ -67.425459, -45.798375, 0.0 ], [ -67.425095, -45.798472, 0.0 ], [ -67.424395, -45.798588, 0.0 ], [ -67.423141, -45.798802, 0.0 ], [ -67.423026, -45.798843, 0.0 ], [ -67.423035, -45.798901, 0.0 ], [ -67.423436, -45.799578, 0.0 ], [ -67.423699, -45.800043, 0.0 ], [ -67.42432, -45.80113, 0.0 ], [ -67.424517, -45.801416, 0.0 ], [ -67.424724, -45.801712, 0.0 ], [ -67.424835, -45.80184, 0.0 ], [ -67.425006, -45.801934, 0.0 ], [ -67.42702, -45.803021, 0.0 ], [ -67.430293, -45.804797, 0.0 ], [ -67.431263, -45.805367, 0.0 ], [ -67.432008, -45.805825, 0.0 ], [ -67.432658, -45.806215, 0.0 ], [ -67.433108, -45.806475, 0.0 ], [ -67.433505, -45.8068, 0.0 ], [ -67.433714, -45.806996, 0.0 ], [ -67.434021, -45.807326, 0.0 ], [ -67.434362, -45.807702, 0.0 ], [ -67.43493, -45.808233, 0.0 ], [ -67.435299, -45.808483, 0.0 ], [ -67.435768, -45.808663, 0.0 ], [ -67.436288, -45.808778, 0.0 ], [ -67.440242, -45.809321, 0.0 ], [ -67.441063, -45.809449, 0.0 ], [ -67.441667, -45.809544, 0.0 ], [ -67.442426, -45.809587, 0.0 ], [ -67.4432, -45.809563, 0.0 ], [ -67.444351, -45.809392, 0.0 ], [ -67.446393, -45.809058, 0.0 ], [ -67.446974, -45.808993, 0.0 ], [ -67.447623, -45.808887, 0.0 ], [ -67.448323, -45.808724, 0.0 ], [ -67.448883, -45.808578, 0.0 ], [ -67.449418, -45.808357, 0.0 ], [ -67.449931, -45.808133, 0.0 ], [ -67.450527, -45.808058, 0.0 ], [ -67.451083, -45.808017, 0.0 ], [ -67.45192, -45.808062, 0.0 ], [ -67.45295, -45.808183, 0.0 ], [ -67.453679, -45.80824, 0.0 ], [ -67.454218, -45.808356, 0.0 ], [ -67.45455, -45.808578, 0.0 ], [ -67.454753, -45.808716, 0.0 ], [ -67.454906, -45.809164, 0.0 ], [ -67.45506, -45.809697, 0.0 ], [ -67.455166, -45.809914, 0.0 ], [ -67.455287, -45.810173, 0.0 ], [ -67.455372, -45.810496, 0.0 ], [ -67.455397, -45.810903, 0.0 ], [ -67.455365, -45.811173, 0.0 ], [ -67.45574, -45.812365, 0.0 ], [ -67.456183, -45.813835, 0.0 ], [ -67.456856, -45.816254, 0.0 ], [ -67.457062, -45.816994, 0.0 ], [ -67.457218, -45.817428, 0.0 ], [ -67.457264, -45.817706, 0.0 ], [ -67.457218, -45.818017, 0.0 ], [ -67.45696, -45.81917, 0.0 ], [ -67.456895, -45.81941, 0.0 ], [ -67.456776, -45.820247, 0.0 ], [ -67.456805, -45.820569, 0.0 ], [ -67.456907, -45.820822, 0.0 ], [ -67.45724, -45.821451, 0.0 ], [ -67.457497, -45.82182, 0.0 ], [ -67.457862, -45.822006, 0.0 ], [ -67.458354, -45.822166, 0.0 ], [ -67.459063, -45.822277, 0.0 ], [ -67.45979, -45.822455, 0.0 ], [ -67.460272, -45.822562, 0.0 ], [ -67.460601, -45.822728, 0.0 ], [ -67.461329, -45.823136, 0.0 ], [ -67.462338, -45.823635, 0.0 ], [ -67.462899, -45.823923, 0.0 ], [ -67.463193, -45.824013, 0.0 ], [ -67.463871, -45.824108, 0.0 ], [ -67.464421, -45.824198, 0.0 ], [ -67.465216, -45.824229, 0.0 ], [ -67.465434, -45.824222, 0.0 ], [ -67.465723, -45.824208, 0.0 ], [ -67.466007, -45.824226, 0.0 ], [ -67.46645, -45.824186, 0.0 ], [ -67.467008, -45.824071, 0.0 ], [ -67.467512, -45.823862, 0.0 ], [ -67.467963, -45.823597, 0.0 ], [ -67.468179, -45.823333, 0.0 ], [ -67.468185, -45.823176, 0.0 ], [ -67.468019, -45.822944, 0.0 ], [ -67.46783, -45.822806, 0.0 ], [ -67.467471, -45.82273, 0.0 ], [ -67.467167, -45.822723, 0.0 ], [ -67.466858, -45.822861, 0.0 ], [ -67.46663, -45.823061, 0.0 ], [ -67.466538, -45.823357, 0.0 ], [ -67.466551, -45.823648, 0.0 ], [ -67.466725, -45.824128, 0.0 ], [ -67.467138, -45.824997, 0.0 ], [ -67.46811, -45.826985, 0.0 ], [ -67.468488, -45.827762, 0.0 ], [ -67.468934, -45.828473, 0.0 ], [ -67.469497, -45.829205, 0.0 ], [ -67.470596, -45.830463, 0.0 ], [ -67.471503, -45.831508, 0.0 ], [ -67.472121, -45.832291, 0.0 ], [ -67.4734, -45.833618, 0.0 ], [ -67.474316, -45.834534, 0.0 ], [ -67.475127, -45.83527, 0.0 ], [ -67.476037, -45.836073, 0.0 ], [ -67.476355, -45.836423, 0.0 ], [ -67.476503, -45.836792, 0.0 ], [ -67.47651, -45.837208, 0.0 ], [ -67.476437, -45.837998, 0.0 ], [ -67.476644, -45.838409, 0.0 ], [ -67.476685, -45.839411, 0.0 ], [ -67.476521, -45.839789, 0.0 ], [ -67.476499, -45.841309, 0.0 ], [ -67.476424, -45.842354, 0.0 ], [ -67.476269, -45.843146, 0.0 ], [ -67.476002, -45.844052, 0.0 ], [ -67.475534, -45.84551, 0.0 ], [ -67.47533, -45.846092, 0.0 ], [ -67.47522, -45.846559, 0.0 ], [ -67.475224, -45.846773, 0.0 ], [ -67.475275, -45.846979, 0.0 ], [ -67.475538, -45.847348, 0.0 ], [ -67.476058, -45.847759, 0.0 ], [ -67.476764, -45.848261, 0.0 ], [ -67.477084, -45.848637, 0.0 ], [ -67.477249, -45.849055, 0.0 ], [ -67.477262, -45.849426, 0.0 ], [ -67.477139, -45.849952, 0.0 ], [ -67.476932, -45.850792, 0.0 ], [ -67.476849, -45.851362, 0.0 ], [ -67.476922, -45.851782, 0.0 ], [ -67.477078, -45.85214, 0.0 ], [ -67.477643, -45.852922, 0.0 ], [ -67.477809, -45.853379, 0.0 ], [ -67.477855, -45.853651, 0.0 ], [ -67.477736, -45.854067, 0.0 ], [ -67.477319, -45.854482, 0.0 ], [ -67.476562, -45.855069, 0.0 ], [ -67.476313, -45.855454, 0.0 ], [ -67.476241, -45.855886, 0.0 ], [ -67.476231, -45.856401, 0.0 ], [ -67.476169, -45.856759, 0.0 ], [ -67.476004, -45.857478, 0.0 ], [ -67.475703, -45.85863, 0.0 ], [ -67.47548, -45.859248, 0.0 ], [ -67.475344, -45.859824, 0.0 ], [ -67.475316, -45.86049, 0.0 ], [ -67.475308, -45.861297, 0.0 ], [ -67.47536, -45.862063, 0.0 ], [ -67.475481, -45.862121, 0.0 ], [ -67.476898, -45.862141, 0.0 ], [ -67.484474, -45.862134, 0.0 ], [ -67.484616, -45.862255, 0.0 ], [ -67.484595, -45.86399, 0.0 ], [ -67.484541, -45.865771, 0.0 ], [ -67.484456, -45.865915, 0.0 ], [ -67.484566, -45.866019, 0.0 ], [ -67.485538, -45.866306, 0.0 ], [ -67.486192, -45.866658, 0.0 ], [ -67.486977, -45.86714, 0.0 ], [ -67.487889, -45.867801, 0.0 ], [ -67.488922, -45.868551, 0.0 ], [ -67.490067, -45.869387, 0.0 ], [ -67.490829, -45.869975, 0.0 ], [ -67.491933, -45.870724, 0.0 ], [ -67.492618, -45.871116, 0.0 ], [ -67.493324, -45.871505, 0.0 ], [ -67.493364, -45.871589, 0.0 ], [ -67.493314, -45.871698, 0.0 ], [ -67.493113, -45.871893, 0.0 ], [ -67.492693, -45.872212, 0.0 ] ] } }
]
}
