{
"type": "FeatureCollection",
"name": "linea-8h",
"crs": { "type": "name", "properties": { "name": "urn:ogc:def:crs:OGC:1.3:CRS84" } },
"features": [
{ "type": "Feature", "properties": { "fid": 1, "linea": "8h", "sentido": "horario", "nombre": "Palazzo - Standard" }, "geometry": { "type": "MultiLineString", "coordinates": [ [ [ -67.492524, -45.872312, 0.0 ], [ -67.491833, -45.872888, 0.0 ], [ -67.491649, -45.872938, 0.0 ], [ -67.491394, -45.872864, 0.0 ], [ -67.490223, -45.872141, 0.0 ], [ -67.490918, -45.87143, 0.0 ], [ -67.48878, -45.870145, 0.0 ], [ -67.488102, -45.869691, 0.0 ], [ -67.487902, -45.869614, 0.0 ], [ -67.487568, -45.869534, 0.0 ], [ -67.487346, -45.869458, 0.0 ], [ -67.486905, -45.869248, 0.0 ], [ -67.486452, -45.868899, 0.0 ], [ -67.486384, -45.86871, 0.0 ], [ -67.48646, -45.868087, 0.0 ], [ -67.484718, -45.868056, 0.0 ], [ -67.484435, -45.868076, 0.0 ], [ -67.484257, -45.868105, 0.0 ], [ -67.482792, -45.867478, 0.0 ], [ -67.483092, -45.862211, 0.0 ], [ -67.484662, -45.862133, 0.0 ], [ -67.4843, -45.868115, 0.0 ], [ -67.479994, -45.866122, 0.0 ], [ -67.47977, -45.865954, 0.0 ], [ -67.479857, -45.865644, 0.0 ], [ -67.479935, -45.864673, 0.0 ], [ -67.479811, -45.864465, 0.0 ], [ -67.47962, -45.864411, 0.0 ], [ -67.477754, -45.864065, 0.0 ], [ -67.475532, -45.86359, 0.0 ], [ -67.47522, -45.863346, 0.0 ], [ -67.475109, -45.863054, 0.0 ], [ -67.474909, -45.862744, 0.0 ], [ -67.474305, -45.862011, 0.0 ], [ -67.474152, -45.861735, 0.0 ], [ -67.474125, -45.861473, 0.0 ], [ -67.474327, -45.861044, 0.0 ], [ -67.475139, -45.859648, 0.0 ], [ -67.475738, -45.857857, 0.0 ], [ -67.476074, -45.856455, 0.0 ], [ -67.476069, -45.855719, 0.0 ], [ -67.476358, -45.855103, 0.0 ], [ -67.476838, -45.854615, 0.0 ], [ -67.477333, -45.854252, 0.0 ], [ -67.477616, -45.853883, 0.0 ], [ -67.477601, -45.853282, 0.0 ], [ -67.477371, -45.852886, 0.0 ], [ -67.476861, -45.852105, 0.0 ], [ -67.476613, -45.851516, 0.0 ], [ -67.476688, -45.851051, 0.0 ], [ -67.4771, -45.849474, 0.0 ], [ -67.477036, -45.848867, 0.0 ], [ -67.476496, -45.848198, 0.0 ], [ -67.475286, -45.84719, 0.0 ], [ -67.475021, -45.84659, 0.0 ], [ -67.475405, -45.845395, 0.0 ], [ -67.476034, -45.843773, 0.0 ], [ -67.476156, -45.842746, 0.0 ], [ -67.476302, -45.841549, 0.0 ], [ -67.4764, -45.839918, 0.0 ], [ -67.476321, -45.839707, 0.0 ], [ -67.476119, -45.839563, 0.0 ], [ -67.475709, -45.839505, 0.0 ], [ -67.475065, -45.839523, 0.0 ], [ -67.47479, -45.839514, 0.0 ], [ -67.474792, -45.839139, 0.0 ], [ -67.474724, -45.837996, 0.0 ], [ -67.474726, -45.83784, 0.0 ], [ -67.474851, -45.837792, 0.0 ], [ -67.476019, -45.838019, 0.0 ], [ -67.477206, -45.838284, 0.0 ], [ -67.477864, -45.838414, 0.0 ], [ -67.478008, -45.838393, 0.0 ], [ -67.478094, -45.838148, 0.0 ], [ -67.478355, -45.836841, 0.0 ], [ -67.478164, -45.836792, 0.0 ], [ -67.4775, -45.836775, 0.0 ], [ -67.477446, -45.836683, 0.0 ], [ -67.477231, -45.836418, 0.0 ], [ -67.478363, -45.83577, 0.0 ], [ -67.478454, -45.835615, 0.0 ], [ -67.478418, -45.835285, 0.0 ], [ -67.478342, -45.834903, 0.0 ], [ -67.478154, -45.834452, 0.0 ], [ -67.477783, -45.834003, 0.0 ], [ -67.476701, -45.832392, 0.0 ], [ -67.476224, -45.831735, 0.0 ], [ -67.475821, -45.831406, 0.0 ], [ -67.475337, -45.831162, 0.0 ], [ -67.472987, -45.829844, 0.0 ], [ -67.470492, -45.828457, 0.0 ], [ -67.470273, -45.828362, 0.0 ], [ -67.470001, -45.828314, 0.0 ], [ -67.469836, -45.828403, 0.0 ], [ -67.469656, -45.828572, 0.0 ], [ -67.46937, -45.828879, 0.0 ], [ -67.469196, -45.828953, 0.0 ], [ -67.469013, -45.828863, 0.0 ], [ -67.468486, -45.828003, 0.0 ], [ -67.468109, -45.827225, 0.0 ], [ -67.467111, -45.826151, 0.0 ], [ -67.466266, -45.825136, 0.0 ], [ -67.465896, -45.824809, 0.0 ], [ -67.46558, -45.824708, 0.0 ], [ -67.465403, -45.824615, 0.0 ], [ -67.465309, -45.824442, 0.0 ], [ -67.465407, -45.824243, 0.0 ], [ -67.465576, -45.82419, 0.0 ], [ -67.46575, -45.824133, 0.0 ], [ -67.465816, -45.823993, 0.0 ], [ -67.465661, -45.823794, 0.0 ], [ -67.46555, -45.823627, 0.0 ], [ -67.465535, -45.82337, 0.0 ], [ -67.465598, -45.823167, 0.0 ], [ -67.465534, -45.822721, 0.0 ], [ -67.465223, -45.822125, 0.0 ], [ -67.464947, -45.821188, 0.0 ], [ -67.465034, -45.820696, 0.0 ], [ -67.465184, -45.820348, 0.0 ], [ -67.46559, -45.819878, 0.0 ], [ -67.466011, -45.819543, 0.0 ], [ -67.467462, -45.818496, 0.0 ], [ -67.467664, -45.818263, 0.0 ], [ -67.467744, -45.817954, 0.0 ], [ -67.467888, -45.817665, 0.0 ], [ -67.468147, -45.817605, 0.0 ], [ -67.46838, -45.817585, 0.0 ], [ -67.468746, -45.817652, 0.0 ], [ -67.469125, -45.817659, 0.0 ], [ -67.46984, -45.817646, 0.0 ], [ -67.470104, -45.81747, 0.0 ], [ -67.470517, -45.817089, 0.0 ], [ -67.471486, -45.816588, 0.0 ], [ -67.472514, -45.816141, 0.0 ], [ -67.473782, -45.815552, 0.0 ], [ -67.474418, -45.815343, 0.0 ], [ -67.474993, -45.81531, 0.0 ], [ -67.475311, -45.815561, 0.0 ], [ -67.47531, -45.815771, 0.0 ], [ -67.475238, -45.816021, 0.0 ], [ -67.47461, -45.816196, 0.0 ], [ -67.473015, -45.816763, 0.0 ], [ -67.472174, -45.816979, 0.0 ], [ -67.471274, -45.816979, 0.0 ], [ -67.470886, -45.816932, 0.0 ], [ -67.470692, -45.817033, 0.0 ], [ -67.470488, -45.817195, 0.0 ], [ -67.470228, -45.817454, 0.0 ], [ -67.469997, -45.817614, 0.0 ], [ -67.469707, -45.817688, 0.0 ], [ -67.469148, -45.817714, 0.0 ], [ -67.46886, -45.817713, 0.0 ], [ -67.468667, -45.817707, 0.0 ], [ -67.468522, -45.817673, 0.0 ], [ -67.468543, -45.817484, 0.0 ], [ -67.468773, -45.817217, 0.0 ], [ -67.46901, -45.816869, 0.0 ], [ -67.469391, -45.816174, 0.0 ], [ -67.470519, -45.814091, 0.0 ], [ -67.472353, -45.810487, 0.0 ], [ -67.472896, -45.809335, 0.0 ], [ -67.473565, -45.808178, 0.0 ], [ -67.474616, -45.806113, 0.0 ], [ -67.47512, -45.805149, 0.0 ], [ -67.47567, -45.804358, 0.0 ], [ -67.476177, -45.803771, 0.0 ], [ -67.476821, -45.80312, 0.0 ], [ -67.478011, -45.802134, 0.0 ], [ -67.479246, -45.801436, 0.0 ], [ -67.481197, -45.80054, 0.0 ], [ -67.4828, -45.800013, 0.0 ], [ -67.488389, -45.798257, 0.0 ], [ -67.489203, -45.797943, 0.0 ], [ -67.489783, -45.79765, 0.0 ], [ -67.490386, -45.797231, 0.0 ], [ -67.490871, -45.79679, 0.0 ], [ -67.491059, -45.796515, 0.0 ], [ -67.491109, -45.796366, 0.0 ], [ -67.491122, -45.796196, 0.0 ], [ -67.49102, -45.796132, 0.0 ], [ -67.490743, -45.796123, 0.0 ], [ -67.490066, -45.79607, 0.0 ], [ -67.489096, -45.796033, 0.0 ], [ -67.482831, -45.795669, 0.0 ], [ -67.474686, -45.795265, 0.0 ], [ -67.474573, -45.795314, 0.0 ], [ -67.474558, -45.795746, 0.0 ], [ -67.474406, -45.796487, 0.0 ], [ -67.474187, -45.79653, 0.0 ], [ -67.473873, -45.79653, 0.0 ], [ -67.465315, -45.796033, 0.0 ], [ -67.465374, -45.795806, 0.0 ], [ -67.465647, -45.795387, 0.0 ], [ -67.46593, -45.795074, 0.0 ], [ -67.466143, -45.79476, 0.0 ], [ -67.46613, -45.794674, 0.0 ], [ -67.465892, -45.794674, 0.0 ], [ -67.464691, -45.794783, 0.0 ], [ -67.462622, -45.794973, 0.0 ], [ -67.462019, -45.795052, 0.0 ], [ -67.461103, -45.795169, 0.0 ], [ -67.460061, -45.795303, 0.0 ], [ -67.45921, -45.795451, 0.0 ], [ -67.458668, -45.795532, 0.0 ], [ -67.458011, -45.795612, 0.0 ], [ -67.456863, -45.795736, 0.0 ], [ -67.455916, -45.795735, 0.0 ], [ -67.455066, -45.795779, 0.0 ], [ -67.453941, -45.795871, 0.0 ], [ -67.448362, -45.796311, 0.0 ], [ -67.447914, -45.796329, 0.0 ], [ -67.447735, -45.79646, 0.0 ], [ -67.447609, -45.796598, 0.0 ], [ -67.447394, -45.796597, 0.0 ], [ -67.44717, -45.796566, 0.0 ], [ -67.446685, -45.796401, 0.0 ], [ -67.446334, -45.796332, 0.0 ], [ -67.445319, -45.796287, 0.0 ], [ -67.442293, -45.79622, 0.0 ], [ -67.438355, -45.79591, 0.0 ], [ -67.433439, -45.795521, 0.0 ], [ -67.432884, -45.795459, 0.0 ], [ -67.432809, -45.795341, 0.0 ], [ -67.432716, -45.795112, 0.0 ], [ -67.432766, -45.795005, 0.0 ], [ -67.432967, -45.794875, 0.0 ], [ -67.435278, -45.79392, 0.0 ], [ -67.435549, -45.793736, 0.0 ], [ -67.435693, -45.793447, 0.0 ], [ -67.435626, -45.792805, 0.0 ], [ -67.435654, -45.790318, 0.0 ], [ -67.435907, -45.790145, 0.0 ], [ -67.436077, -45.789974, 0.0 ], [ -67.437359, -45.788346, 0.0 ], [ -67.437401, -45.788275, 0.0 ], [ -67.437376, -45.788245, 0.0 ], [ -67.437351, -45.788227, 0.0 ], [ -67.437326, -45.788209, 0.0 ], [ -67.437283, -45.788197, 0.0 ], [ -67.437258, -45.788191, 0.0 ], [ -67.437241, -45.788179, 0.0 ], [ -67.437123, -45.788137, 0.0 ], [ -67.436767, -45.788035, 0.0 ], [ -67.436411, -45.787815, 0.0 ], [ -67.434371, -45.7864, 0.0 ], [ -67.432696, -45.787515, 0.0 ], [ -67.430964, -45.786088, 0.0 ], [ -67.430829, -45.786106, 0.0 ], [ -67.430449, -45.786361, 0.0 ], [ -67.428959, -45.787417, 0.0 ], [ -67.428917, -45.787541, 0.0 ], [ -67.429103, -45.787648, 0.0 ], [ -67.431024, -45.788888, 0.0 ], [ -67.431211, -45.788983, 0.0 ], [ -67.431397, -45.789131, 0.0 ], [ -67.431304, -45.789202, 0.0 ], [ -67.431185, -45.789208, 0.0 ], [ -67.431024, -45.789184, 0.0 ], [ -67.430871, -45.789266, 0.0 ], [ -67.429912, -45.789649, 0.0 ], [ -67.428604, -45.790159, 0.0 ], [ -67.428435, -45.790082, 0.0 ], [ -67.426923, -45.788951, 0.0 ], [ -67.426787, -45.788922, 0.0 ], [ -67.42666, -45.789023, 0.0 ], [ -67.426277, -45.789326, 0.0 ], [ -67.424892, -45.790315, 0.0 ], [ -67.42348, -45.790808, 0.0 ], [ -67.422675, -45.7912, 0.0 ], [ -67.421333, -45.791789, 0.0 ], [ -67.421247, -45.791902, 0.0 ], [ -67.421222, -45.791986, 0.0 ], [ -67.420975, -45.792075, 0.0 ], [ -67.420333, -45.792384, 0.0 ], [ -67.422293, -45.79459, 0.0 ], [ -67.422384, -45.794681, 0.0 ], [ -67.422428, -45.79475, 0.0 ], [ -67.422428, -45.794831, 0.0 ], [ -67.422497, -45.794943, 0.0 ], [ -67.422697, -45.795134, 0.0 ], [ -67.422857, -45.795251, 0.0 ], [ -67.423098, -45.795398, 0.0 ], [ -67.42321, -45.79552, 0.0 ], [ -67.423207, -45.795653, 0.0 ], [ -67.423196, -45.795668, 0.0 ], [ -67.423181, -45.795689, 0.0 ], [ -67.423163, -45.795714, 0.0 ], [ -67.423148, -45.79573, 0.0 ], [ -67.423141, -45.795745, 0.0 ], [ -67.422662, -45.796149, 0.0 ], [ -67.421925, -45.796763, 0.0 ], [ -67.421924, -45.796879, 0.0 ], [ -67.422025, -45.79722, 0.0 ], [ -67.422204, -45.797472, 0.0 ], [ -67.422493, -45.79799, 0.0 ], [ -67.422815, -45.798541, 0.0 ], [ -67.424341, -45.801183, 0.0 ], [ -67.424732, -45.80169, 0.0 ], [ -67.425589, -45.802276, 0.0 ], [ -67.430297, -45.80476, 0.0 ], [ -67.431985, -45.805775, 0.0 ], [ -67.433194, -45.806594, 0.0 ], [ -67.433807, -45.806983, 0.0 ], [ -67.434419, -45.80784, 0.0 ], [ -67.435054, -45.808334, 0.0 ], [ -67.436081, -45.808737, 0.0 ], [ -67.438019, -45.809036, 0.0 ], [ -67.440287, -45.809361, 0.0 ], [ -67.442048, -45.809646, 0.0 ], [ -67.443958, -45.809466, 0.0 ], [ -67.446591, -45.809003, 0.0 ], [ -67.448092, -45.808746, 0.0 ], [ -67.448778, -45.808578, 0.0 ], [ -67.449592, -45.808231, 0.0 ], [ -67.449981, -45.808179, 0.0 ], [ -67.450444, -45.807998, 0.0 ], [ -67.450945, -45.807972, 0.0 ], [ -67.45154, -45.808036, 0.0 ], [ -67.453344, -45.80823, 0.0 ], [ -67.454184, -45.808333, 0.0 ], [ -67.454628, -45.808528, 0.0 ], [ -67.45485, -45.808852, 0.0 ], [ -67.455094, -45.809811, 0.0 ], [ -67.455316, -45.810188, 0.0 ], [ -67.45541, -45.810525, 0.0 ], [ -67.455392, -45.810862, 0.0 ], [ -67.455372, -45.81138, 0.0 ], [ -67.456023, -45.813119, 0.0 ], [ -67.457012, -45.81685, 0.0 ], [ -67.457198, -45.817395, 0.0 ], [ -67.457234, -45.817979, 0.0 ], [ -67.457029, -45.818615, 0.0 ], [ -67.456842, -45.819134, 0.0 ], [ -67.456917, -45.819316, 0.0 ], [ -67.456916, -45.819575, 0.0 ], [ -67.45673, -45.819822, 0.0 ], [ -67.45673, -45.820264, 0.0 ], [ -67.45712, -45.821133, 0.0 ], [ -67.457547, -45.821794, 0.0 ], [ -67.458047, -45.822102, 0.0 ], [ -67.458804, -45.822198, 0.0 ], [ -67.459801, -45.822465, 0.0 ], [ -67.460429, -45.822632, 0.0 ], [ -67.461, -45.822901, 0.0 ], [ -67.462576, -45.823807, 0.0 ], [ -67.463058, -45.824002, 0.0 ], [ -67.463664, -45.824101, 0.0 ], [ -67.464625, -45.824234, 0.0 ], [ -67.465311, -45.824219, 0.0 ], [ -67.465848, -45.824183, 0.0 ], [ -67.466091, -45.824211, 0.0 ], [ -67.466424, -45.824203, 0.0 ], [ -67.467075, -45.824083, 0.0 ], [ -67.46782, -45.823773, 0.0 ], [ -67.468196, -45.823436, 0.0 ], [ -67.468236, -45.823071, 0.0 ], [ -67.46793, -45.822831, 0.0 ], [ -67.467605, -45.822727, 0.0 ], [ -67.467269, -45.82272, 0.0 ], [ -67.466862, -45.822863, 0.0 ], [ -67.46654, -45.82324, 0.0 ], [ -67.466528, -45.823648, 0.0 ], [ -67.466645, -45.82405, 0.0 ], [ -67.466845, -45.824506, 0.0 ], [ -67.467205, -45.825125, 0.0 ], [ -67.467631, -45.825885, 0.0 ], [ -67.467817, -45.826133, 0.0 ], [ -67.468059, -45.82657, 0.0 ], [ -67.468725, -45.8272, 0.0 ], [ -67.470042, -45.828173, 0.0 ], [ -67.471172, -45.828708, 0.0 ], [ -67.472547, -45.829502, 0.0 ], [ -67.474832, -45.83076, 0.0 ], [ -67.475245, -45.830953, 0.0 ], [ -67.475738, -45.831263, 0.0 ], [ -67.476023, -45.831469, 0.0 ], [ -67.476308, -45.831723, 0.0 ], [ -67.476534, -45.832031, 0.0 ], [ -67.477834, -45.833892, 0.0 ], [ -67.478042, -45.834182, 0.0 ], [ -67.47827, -45.834223, 0.0 ], [ -67.478488, -45.834203, 0.0 ], [ -67.478587, -45.834237, 0.0 ], [ -67.478597, -45.834438, 0.0 ], [ -67.478443, -45.836342, 0.0 ], [ -67.478461, -45.836904, 0.0 ], [ -67.478178, -45.838352, 0.0 ], [ -67.478198, -45.838462, 0.0 ], [ -67.478346, -45.838592, 0.0 ], [ -67.479165, -45.838811, 0.0 ], [ -67.479312, -45.838989, 0.0 ], [ -67.479212, -45.83918, 0.0 ], [ -67.47905, -45.839744, 0.0 ], [ -67.478813, -45.839757, 0.0 ], [ -67.478223, -45.83975, 0.0 ], [ -67.477346, -45.839739, 0.0 ], [ -67.476813, -45.83975, 0.0 ], [ -67.476655, -45.839832, 0.0 ], [ -67.476556, -45.839969, 0.0 ], [ -67.476528, -45.840293, 0.0 ], [ -67.47653, -45.841036, 0.0 ], [ -67.476501, -45.841734, 0.0 ], [ -67.476364, -45.842499, 0.0 ], [ -67.476257, -45.843233, 0.0 ], [ -67.476181, -45.843563, 0.0 ], [ -67.476143, -45.84373, 0.0 ], [ -67.476037, -45.843997, 0.0 ], [ -67.475913, -45.844475, 0.0 ], [ -67.475699, -45.844976, 0.0 ], [ -67.475344, -45.846079, 0.0 ], [ -67.4752, -45.84645, 0.0 ], [ -67.47525, -45.846948, 0.0 ], [ -67.475387, -45.847182, 0.0 ], [ -67.475727, -45.847531, 0.0 ], [ -67.476653, -45.848192, 0.0 ], [ -67.476923, -45.848457, 0.0 ], [ -67.477087, -45.848748, 0.0 ], [ -67.477242, -45.849094, 0.0 ], [ -67.477271, -45.849559, 0.0 ], [ -67.477132, -45.850014, 0.0 ], [ -67.476964, -45.850604, 0.0 ], [ -67.476866, -45.851222, 0.0 ], [ -67.476816, -45.851585, 0.0 ], [ -67.476924, -45.851809, 0.0 ], [ -67.47712, -45.852232, 0.0 ], [ -67.477308, -45.852519, 0.0 ], [ -67.477593, -45.852906, 0.0 ], [ -67.477809, -45.853301, 0.0 ], [ -67.477829, -45.853642, 0.0 ], [ -67.477721, -45.85399, 0.0 ], [ -67.477494, -45.854347, 0.0 ], [ -67.477069, -45.854663, 0.0 ], [ -67.476539, -45.855101, 0.0 ], [ -67.476337, -45.855463, 0.0 ], [ -67.476236, -45.855839, 0.0 ], [ -67.476235, -45.856243, 0.0 ], [ -67.476237, -45.856525, 0.0 ], [ -67.476095, -45.857097, 0.0 ], [ -67.475728, -45.858525, 0.0 ], [ -67.475744, -45.858817, 0.0 ], [ -67.475843, -45.859173, 0.0 ], [ -67.476054, -45.859426, 0.0 ], [ -67.476265, -45.859622, 0.0 ], [ -67.476829, -45.859853, 0.0 ], [ -67.477741, -45.859915, 0.0 ], [ -67.478438, -45.859956, 0.0 ], [ -67.481298, -45.859999, 0.0 ], [ -67.484429, -45.859982, 0.0 ], [ -67.484536, -45.860027, 0.0 ], [ -67.484525, -45.86211, 0.0 ], [ -67.484499, -45.863539, 0.0 ], [ -67.484436, -45.865109, 0.0 ], [ -67.484435, -45.865323, 0.0 ], [ -67.484455, -45.865604, 0.0 ], [ -67.484399, -45.865757, 0.0 ], [ -67.484358, -45.865834, 0.0 ], [ -67.485139, -45.86619, 0.0 ], [ -67.485515, -45.866288, 0.0 ], [ -67.48585, -45.866473, 0.0 ], [ -67.486378, -45.86677, 0.0 ], [ -67.486916, -45.867102, 0.0 ], [ -67.487646, -45.867596, 0.0 ], [ -67.492365, -45.870971, 0.0 ], [ -67.493003, -45.87131, 0.0 ], [ -67.493285, -45.871479, 0.0 ], [ -67.493397, -45.871577, 0.0 ], [ -67.493289, -45.871699, 0.0 ], [ -67.493141, -45.871879, 0.0 ], [ -67.492838, -45.872094, 0.0 ] ] ] } }
]
}
