{
"type": "FeatureCollection",
"name": "linea-14",
"crs": { "type": "name", "properties": { "name": "urn:ogc:def:crs:OGC:1.3:CRS84" } },
"features": [
{ "type": "Feature", "properties": { "fid": 1, "linea": "14", "sentido": "ida", "nombre": "30 de Octubre - Centro (F14 - F15)" }, "geometry": { "type": "LineString", "coordinates": [ [ -67.540576, -45.88234, 0.0 ], [ -67.540041, -45.881998, 0.0 ], [ -67.539411, -45.882002, 0.0 ], [ -67.538901, -45.881978, 0.0 ], [ -67.538816, -45.883179, 0.0 ], [ -67.538919, -45.883228, 0.0 ], [ -67.542407, -45.883387, 0.0 ], [ -67.542672, -45.88343, 0.0 ], [ -67.549967, -45.883824, 0.0 ], [ -67.550086, -45.883999, 0.0 ], [ -67.550045, -45.885845, 0.0 ], [ -67.550156, -45.885942, 0.0 ], [ -67.552319, -45.885976, 0.0 ], [ -67.561339, -45.886087, 0.0 ], [ -67.563626, -45.886044, 0.0 ], [ -67.566001, -45.886149, 0.0 ], [ -67.567562, -45.886141, 0.0 ], [ -67.567789, -45.886107, 0.0 ], [ -67.567968, -45.886086, 0.0 ], [ -67.5683, -45.886119, 0.0 ], [ -67.568297, -45.886233, 0.0 ], [ -67.568327, -45.886404, 0.0 ], [ -67.568687, -45.886936, 0.0 ], [ -67.569029, -45.887548, 0.0 ], [ -67.569734, -45.888588, 0.0 ], [ -67.569896, -45.888775, 0.0 ], [ -67.569973, -45.888824, 0.0 ], [ -67.575947, -45.889718, 0.0 ], [ -67.576315, -45.889824, 0.0 ], [ -67.578407, -45.890232, 0.0 ], [ -67.578826, -45.890011, 0.0 ], [ -67.580091, -45.889474, 0.0 ], [ -67.581546, -45.889203, 0.0 ], [ -67.584283, -45.888322, 0.0 ], [ -67.585258, -45.888175, 0.0 ], [ -67.589081, -45.888288, 0.0 ], [ -67.591686, -45.888373, 0.0 ], [ -67.591689, -45.888288, 0.0 ], [ -67.59146, -45.888123, 0.0 ], [ -67.588163, -45.885275, 0.0 ], [ -67.575619, -45.885815, 0.0 ], [ -67.574081, -45.885876, 0.0 ], [ -67.569953, -45.886839, 0.0 ], [ -67.569714, -45.886818, 0.0 ], [ -67.569515, -45.886692, 0.0 ], [ -67.569325, -45.886419, 0.0 ], [ -67.568905, -45.88634, 0.0 ], [ -67.568332, -45.886359, 0.0 ], [ -67.567988, -45.886296, 0.0 ], [ -67.567976, -45.8862, 0.0 ], [ -67.568164, -45.88606, 0.0 ], [ -67.568444, -45.885944, 0.0 ], [ -67.568958, -45.885579, 0.0 ], [ -67.569341, -45.885231, 0.0 ], [ -67.56924, -45.885138, 0.0 ], [ -67.569029, -45.885157, 0.0 ], [ -67.568718, -45.885231, 0.0 ], [ -67.568296, -45.885224, 0.0 ], [ -67.567717, -45.885206, 0.0 ], [ -67.567276, -45.885207, 0.0 ], [ -67.567149, -45.885134, 0.0 ], [ -67.566779, -45.884519, 0.0 ], [ -67.565869, -45.883148, 0.0 ], [ -67.565439, -45.882483, 0.0 ], [ -67.56519, -45.882181, 0.0 ], [ -67.56502, -45.881734, 0.0 ], [ -67.564355, -45.880534, 0.0 ], [ -67.563585, -45.87948, 0.0 ], [ -67.563397, -45.879145, 0.0 ], [ -67.562946, -45.878479, 0.0 ], [ -67.562844, -45.878422, 0.0 ], [ -67.56247, -45.878517, 0.0 ], [ -67.560799, -45.878886, 0.0 ], [ -67.560701, -45.878843, 0.0 ], [ -67.560332, -45.878055, 0.0 ], [ -67.560221, -45.87802, 0.0 ], [ -67.558515, -45.877953, 0.0 ], [ -67.558224, -45.877958, 0.0 ], [ -67.556614, -45.877653, 0.0 ], [ -67.555881, -45.87749, 0.0 ], [ -67.554428, -45.877475, 0.0 ], [ -67.551984, -45.877386, 0.0 ], [ -67.55159, -45.87707, 0.0 ], [ -67.550907, -45.876631, 0.0 ], [ -67.550409, -45.876207, 0.0 ], [ -67.550294, -45.875968, 0.0 ], [ -67.550262, -45.875729, 0.0 ], [ -67.549978, -45.875741, 0.0 ], [ -67.548598, -45.876082, 0.0 ], [ -67.547305, -45.876442, 0.0 ], [ -67.546418, -45.876812, 0.0 ], [ -67.544774, -45.877879, 0.0 ], [ -67.543547, -45.878639, 0.0 ], [ -67.543334, -45.878688, 0.0 ], [ -67.54312, -45.878529, 0.0 ], [ -67.54252, -45.878111, 0.0 ], [ -67.539328, -45.875666, 0.0 ], [ -67.537034, -45.873893, 0.0 ], [ -67.525655, -45.865268, 0.0 ], [ -67.529399, -45.862834, 0.0 ], [ -67.530007, -45.862441, 0.0 ], [ -67.530212, -45.862285, 0.0 ], [ -67.530082, -45.862234, 0.0 ], [ -67.52782, -45.862261, 0.0 ], [ -67.521516, -45.862318, 0.0 ], [ -67.517157, -45.862384, 0.0 ], [ -67.515137, -45.862407, 0.0 ], [ -67.51373, -45.862402, 0.0 ], [ -67.511898, -45.862439, 0.0 ], [ -67.509259, -45.862461, 0.0 ], [ -67.507846, -45.862443, 0.0 ], [ -67.501415, -45.86239, 0.0 ], [ -67.500484, -45.862398, 0.0 ], [ -67.499068, -45.86244, 0.0 ], [ -67.497202, -45.862403, 0.0 ], [ -67.489213, -45.862433, 0.0 ], [ -67.48701, -45.862382, 0.0 ], [ -67.484687, -45.862412, 0.0 ], [ -67.484551, -45.862561, 0.0 ], [ -67.484552, -45.862761, 0.0 ], [ -67.484548, -45.863447, 0.0 ], [ -67.484434, -45.863505, 0.0 ], [ -67.482282, -45.863491, 0.0 ], [ -67.481527, -45.863504, 0.0 ], [ -67.481462, -45.863576, 0.0 ], [ -67.481439, -45.863595, 0.0 ], [ -67.481308, -45.863673, 0.0 ], [ -67.480975, -45.863676, 0.0 ], [ -67.480243, -45.863667, 0.0 ], [ -67.48006, -45.863668, 0.0 ], [ -67.479957, -45.86359, 0.0 ], [ -67.479949, -45.863238, 0.0 ], [ -67.479946, -45.863088, 0.0 ] ] } },
{ "type": "Feature", "properties": { "fid": 2, "linea": "14", "sentido": "vuelta", "nombre": "30 de Octubre - Centro (F14 - F15)" }, "geometry": { "type": "LineString", "coordinates": [ [ -67.479933, -45.863086, 0.0 ], [ -67.479946, -45.862158, 0.0 ], [ -67.480129, -45.862173, 0.0 ], [ -67.480763, -45.862162, 0.0 ], [ -67.48215, -45.862155, 0.0 ], [ -67.483632, -45.862148, 0.0 ], [ -67.486608, -45.862128, 0.0 ], [ -67.48784, -45.862154, 0.0 ], [ -67.491301, -45.862134, 0.0 ], [ -67.49286, -45.86214, 0.0 ], [ -67.505258, -45.862153, 0.0 ], [ -67.515297, -45.86213, 0.0 ], [ -67.521437, -45.862073, 0.0 ], [ -67.529319, -45.861973, 0.0 ], [ -67.530204, -45.86197, 0.0 ], [ -67.530359, -45.861965, 0.0 ], [ -67.530509, -45.861966, 0.0 ], [ -67.530664, -45.861995, 0.0 ], [ -67.53072, -45.862092, 0.0 ], [ -67.530628, -45.862213, 0.0 ], [ -67.530422, -45.86235, 0.0 ], [ -67.529398, -45.86301, 0.0 ], [ -67.527628, -45.864164, 0.0 ], [ -67.52611, -45.865126, 0.0 ], [ -67.526005, -45.865259, 0.0 ], [ -67.526095, -45.865368, 0.0 ], [ -67.527126, -45.866167, 0.0 ], [ -67.530863, -45.868982, 0.0 ], [ -67.53473, -45.871958, 0.0 ], [ -67.53961, -45.875673, 0.0 ], [ -67.54338, -45.878532, 0.0 ], [ -67.54354, -45.878529, 0.0 ], [ -67.54366, -45.878487, 0.0 ], [ -67.545086, -45.877563, 0.0 ], [ -67.545695, -45.877182, 0.0 ], [ -67.546297, -45.876787, 0.0 ], [ -67.546533, -45.876671, 0.0 ], [ -67.546781, -45.87657, 0.0 ], [ -67.547067, -45.876489, 0.0 ], [ -67.549918, -45.875717, 0.0 ], [ -67.550086, -45.875662, 0.0 ], [ -67.550222, -45.875662, 0.0 ], [ -67.550355, -45.875717, 0.0 ], [ -67.550358, -45.875799, 0.0 ], [ -67.550365, -45.875957, 0.0 ], [ -67.550422, -45.876083, 0.0 ], [ -67.550608, -45.876278, 0.0 ], [ -67.550886, -45.87649, 0.0 ], [ -67.55107, -45.876639, 0.0 ], [ -67.551447, -45.876892, 0.0 ], [ -67.551709, -45.877073, 0.0 ], [ -67.552023, -45.87733, 0.0 ], [ -67.555819, -45.877434, 0.0 ], [ -67.556114, -45.877486, 0.0 ], [ -67.55666, -45.877621, 0.0 ], [ -67.557972, -45.877911, 0.0 ], [ -67.558437, -45.877951, 0.0 ], [ -67.560253, -45.877997, 0.0 ], [ -67.560396, -45.878032, 0.0 ], [ -67.560582, -45.878427, 0.0 ], [ -67.560722, -45.878701, 0.0 ], [ -67.560766, -45.878806, 0.0 ], [ -67.560847, -45.878799, 0.0 ], [ -67.562774, -45.878359, 0.0 ], [ -67.562882, -45.878364, 0.0 ], [ -67.562998, -45.878459, 0.0 ], [ -67.563678, -45.879488, 0.0 ], [ -67.56404, -45.880067, 0.0 ], [ -67.564416, -45.880635, 0.0 ], [ -67.564955, -45.881446, 0.0 ], [ -67.565249, -45.881855, 0.0 ], [ -67.565427, -45.88207, 0.0 ], [ -67.566767, -45.884057, 0.0 ], [ -67.567173, -45.884757, 0.0 ], [ -67.567354, -45.885016, 0.0 ], [ -67.567472, -45.885135, 0.0 ], [ -67.56773, -45.885149, 0.0 ], [ -67.567999, -45.885146, 0.0 ], [ -67.568439, -45.885169, 0.0 ], [ -67.568666, -45.885159, 0.0 ], [ -67.568991, -45.885108, 0.0 ], [ -67.569225, -45.885091, 0.0 ], [ -67.569341, -45.885094, 0.0 ], [ -67.569392, -45.885166, 0.0 ], [ -67.569398, -45.885238, 0.0 ], [ -67.569299, -45.885317, 0.0 ], [ -67.56927, -45.885352, 0.0 ], [ -67.568811, -45.88576, 0.0 ], [ -67.568511, -45.885996, 0.0 ], [ -67.5684, -45.886104, 0.0 ], [ -67.568398, -45.886192, 0.0 ], [ -67.568419, -45.886284, 0.0 ], [ -67.568664, -45.886284, 0.0 ], [ -67.568977, -45.8863, 0.0 ], [ -67.569309, -45.886364, 0.0 ], [ -67.569452, -45.886501, 0.0 ], [ -67.569668, -45.886736, 0.0 ], [ -67.569829, -45.886796, 0.0 ], [ -67.570259, -45.88673, 0.0 ], [ -67.570864, -45.886574, 0.0 ], [ -67.57387, -45.885848, 0.0 ], [ -67.574069, -45.885819, 0.0 ], [ -67.577779, -45.88569, 0.0 ], [ -67.587776, -45.885237, 0.0 ], [ -67.588028, -45.88523, 0.0 ], [ -67.588165, -45.88525, 0.0 ], [ -67.588325, -45.885318, 0.0 ], [ -67.588606, -45.885562, 0.0 ], [ -67.591688, -45.888233, 0.0 ], [ -67.591744, -45.888308, 0.0 ], [ -67.591721, -45.888387, 0.0 ], [ -67.591555, -45.888387, 0.0 ], [ -67.590804, -45.888341, 0.0 ], [ -67.587376, -45.888265, 0.0 ], [ -67.585457, -45.888245, 0.0 ], [ -67.585147, -45.888238, 0.0 ], [ -67.584737, -45.888286, 0.0 ], [ -67.584273, -45.888356, 0.0 ], [ -67.583291, -45.888692, 0.0 ], [ -67.582394, -45.888972, 0.0 ], [ -67.581914, -45.889145, 0.0 ], [ -67.581566, -45.889226, 0.0 ], [ -67.581052, -45.889327, 0.0 ], [ -67.580109, -45.889504, 0.0 ], [ -67.579836, -45.889607, 0.0 ], [ -67.578589, -45.890189, 0.0 ], [ -67.57843, -45.89026, 0.0 ], [ -67.578323, -45.89026, 0.0 ], [ -67.577994, -45.890187, 0.0 ], [ -67.576304, -45.889869, 0.0 ], [ -67.576112, -45.889843, 0.0 ], [ -67.575747, -45.889787, 0.0 ], [ -67.574962, -45.889664, 0.0 ], [ -67.571848, -45.889187, 0.0 ], [ -67.570174, -45.888948, 0.0 ], [ -67.569995, -45.888926, 0.0 ], [ -67.569761, -45.888892, 0.0 ], [ -67.569614, -45.888801, 0.0 ], [ -67.569316, -45.888291, 0.0 ], [ -67.568182, -45.886491, 0.0 ], [ -67.56801, -45.886342, 0.0 ], [ -67.567866, -45.886249, 0.0 ], [ -67.567603, -45.886216, 0.0 ], [ -67.566619, -45.8862, 0.0 ], [ -67.564742, -45.886114, 0.0 ], [ -67.563009, -45.88609, 0.0 ], [ -67.560814, -45.886096, 0.0 ], [ -67.552892, -45.886, 0.0 ], [ -67.550205, -45.885966, 0.0 ], [ -67.550047, -45.885901, 0.0 ], [ -67.550018, -45.885738, 0.0 ], [ -67.550057, -45.884023, 0.0 ], [ -67.54994, -45.883966, 0.0 ], [ -67.549771, -45.883966, 0.0 ], [ -67.548965, -45.88391, 0.0 ], [ -67.542647, -45.883591, 0.0 ], [ -67.542258, -45.883571, 0.0 ], [ -67.541693, -45.883534, 0.0 ], [ -67.541706, -45.883463, 0.0 ], [ -67.541762, -45.88332, 0.0 ], [ -67.541723, -45.883194, 0.0 ], [ -67.540675, -45.88247, 0.0 ] ] } }
]
}
