{
"type": "FeatureCollection",
"name": "linea-9",
"crs": { "type": "name", "properties": { "name": "urn:ogc:def:crs:OGC:1.3:CRS84" } },
"features": [
{ "type": "Feature", "properties": { "fid": 1, "linea": "9", "sentido": "ida", "nombre": "Centro - Barrio Industrial" }, "geometry": { "type": "LineString", "coordinates": [ [ -67.480793, -45.862819, 0.0 ], [ -67.481352, -45.862828, 0.0 ], [ -67.481428, -45.862863, 0.0 ], [ -67.481472, -45.862965, 0.0 ], [ -67.481432, -45.863683, 0.0 ], [ -67.481343, -45.863726, 0.0 ], [ -67.480753, -45.863725, 0.0 ], [ -67.480068, -45.863723, 0.0 ], [ -67.479974, -45.863656, 0.0 ], [ -67.479995, -45.862208, 0.0 ], [ -67.4801, -45.86216, 0.0 ], [ -67.483123, -45.862174, 0.0 ], [ -67.484951, -45.862121, 0.0 ], [ -67.487999, -45.862171, 0.0 ], [ -67.490535, -45.862125, 0.0 ], [ -67.494323, -45.86213, 0.0 ], [ -67.497335, -45.862109, 0.0 ], [ -67.508083, -45.862172, 0.0 ], [ -67.511247, -45.862165, 0.0 ], [ -67.518638, -45.862097, 0.0 ], [ -67.519785, -45.86208, 0.0 ], [ -67.519957, -45.862017, 0.0 ], [ -67.519944, -45.860589, 0.0 ], [ -67.520051, -45.860554, 0.0 ], [ -67.522807, -45.860466, 0.0 ], [ -67.528479, -45.860285, 0.0 ], [ -67.528447, -45.859728, 0.0 ], [ -67.528451, -45.858824, 0.0 ], [ -67.530567, -45.858775, 0.0 ], [ -67.531961, -45.858693, 0.0 ], [ -67.533062, -45.858618, 0.0 ], [ -67.53656, -45.857957, 0.0 ], [ -67.539892, -45.857229, 0.0 ], [ -67.541473, -45.856998, 0.0 ], [ -67.541798, -45.856936, 0.0 ], [ -67.542078, -45.856903, 0.0 ], [ -67.542293, -45.857121, 0.0 ], [ -67.542407, -45.857349, 0.0 ], [ -67.542877, -45.857974, 0.0 ], [ -67.543666, -45.859162, 0.0 ], [ -67.544354, -45.860157, 0.0 ], [ -67.544939, -45.860819, 0.0 ], [ -67.545415, -45.861668, 0.0 ], [ -67.544096, -45.862479, 0.0 ], [ -67.539855, -45.865181, 0.0 ], [ -67.532318, -45.870011, 0.0 ], [ -67.514774, -45.881297, 0.0 ], [ -67.514155, -45.881724, 0.0 ], [ -67.514247, -45.881893, 0.0 ], [ -67.515372, -45.882604, 0.0 ], [ -67.516432, -45.883373, 0.0 ], [ -67.517348, -45.884002, 0.0 ], [ -67.5183, -45.884663, 0.0 ], [ -67.518868, -45.884961, 0.0 ], [ -67.519562, -45.885267, 0.0 ], [ -67.521007, -45.885754, 0.0 ], [ -67.522563, -45.886244, 0.0 ], [ -67.524336, -45.88685, 0.0 ], [ -67.528637, -45.888277, 0.0 ], [ -67.529617, -45.888573, 0.0 ], [ -67.529869, -45.8887, 0.0 ], [ -67.53056, -45.888945, 0.0 ], [ -67.531447, -45.88938, 0.0 ], [ -67.532432, -45.889931, 0.0 ], [ -67.533219, -45.890423, 0.0 ], [ -67.534943, -45.891591, 0.0 ], [ -67.536869, -45.892899, 0.0 ], [ -67.539375, -45.894645, 0.0 ], [ -67.542244, -45.896546, 0.0 ], [ -67.543762, -45.897594, 0.0 ], [ -67.544698, -45.898159, 0.0 ], [ -67.545712, -45.898679, 0.0 ], [ -67.547303, -45.899297, 0.0 ], [ -67.548712, -45.89969, 0.0 ], [ -67.551846, -45.900471, 0.0 ], [ -67.558949, -45.902254, 0.0 ], [ -67.559855, -45.902521, 0.0 ], [ -67.561066, -45.902778, 0.0 ], [ -67.562127, -45.903018, 0.0 ], [ -67.563071, -45.90308, 0.0 ], [ -67.564882, -45.903018, 0.0 ], [ -67.565991, -45.902979, 0.0 ], [ -67.566712, -45.902871, 0.0 ], [ -67.568079, -45.902762, 0.0 ], [ -67.568899, -45.902708, 0.0 ], [ -67.569311, -45.902638, 0.0 ], [ -67.570389, -45.902477, 0.0 ], [ -67.570911, -45.9025, 0.0 ], [ -67.572019, -45.902524, 0.0 ], [ -67.573845, -45.902539, 0.0 ], [ -67.577222, -45.902672, 0.0 ], [ -67.581693, -45.902788, 0.0 ], [ -67.58324, -45.902833, 0.0 ], [ -67.58701, -45.902926, 0.0 ], [ -67.587491, -45.902955, 0.0 ], [ -67.587723, -45.903025, 0.0 ], [ -67.587731, -45.903136, 0.0 ] ] } },
{ "type": "Feature", "properties": { "fid": 2, "linea": "9", "sentido": "vuelta", "nombre": "Centro - Barrio Industrial" }, "geometry": { "type": "LineString", "coordinates": [ [ -67.587713, -45.903124, 0.0 ], [ -67.587347, -45.903082, 0.0 ], [ -67.587002, -45.903071, 0.0 ], [ -67.585179, -45.902999, 0.0 ], [ -67.584153, -45.902983, 0.0 ], [ -67.575053, -45.902719, 0.0 ], [ -67.573223, -45.902677, 0.0 ], [ -67.572146, -45.902639, 0.0 ], [ -67.571827, -45.902648, 0.0 ], [ -67.571568, -45.902631, 0.0 ], [ -67.571237, -45.902602, 0.0 ], [ -67.570924, -45.902573, 0.0 ], [ -67.570609, -45.902643, 0.0 ], [ -67.570619, -45.90279, 0.0 ], [ -67.570799, -45.902852, 0.0 ], [ -67.571198, -45.902999, 0.0 ], [ -67.571482, -45.903079, 0.0 ], [ -67.571827, -45.903218, 0.0 ], [ -67.572338, -45.903459, 0.0 ], [ -67.574419, -45.904412, 0.0 ], [ -67.575302, -45.904823, 0.0 ], [ -67.575829, -45.905031, 0.0 ], [ -67.576439, -45.905188, 0.0 ], [ -67.577637, -45.905447, 0.0 ], [ -67.578372, -45.90556, 0.0 ], [ -67.579024, -45.905742, 0.0 ], [ -67.579441, -45.905887, 0.0 ], [ -67.579748, -45.906044, 0.0 ], [ -67.580056, -45.906151, 0.0 ], [ -67.580481, -45.906314, 0.0 ], [ -67.580814, -45.906496, 0.0 ], [ -67.580814, -45.906741, 0.0 ], [ -67.580677, -45.907023, 0.0 ], [ -67.580342, -45.907218, 0.0 ], [ -67.579963, -45.907237, 0.0 ], [ -67.57962, -45.907074, 0.0 ], [ -67.579403, -45.906892, 0.0 ], [ -67.57934, -45.90661, 0.0 ], [ -67.57935, -45.906271, 0.0 ], [ -67.579187, -45.905956, 0.0 ], [ -67.578797, -45.905799, 0.0 ], [ -67.577901, -45.905636, 0.0 ], [ -67.576557, -45.905334, 0.0 ], [ -67.575148, -45.904854, 0.0 ], [ -67.573048, -45.903968, 0.0 ], [ -67.571743, -45.903404, 0.0 ], [ -67.57097, -45.903153, 0.0 ], [ -67.569773, -45.902927, 0.0 ], [ -67.567803, -45.902976, 0.0 ], [ -67.565403, -45.903149, 0.0 ], [ -67.563957, -45.903201, 0.0 ], [ -67.562817, -45.903195, 0.0 ], [ -67.562157, -45.903158, 0.0 ], [ -67.561839, -45.903148, 0.0 ], [ -67.561552, -45.903131, 0.0 ], [ -67.560985, -45.903033, 0.0 ], [ -67.560275, -45.902859, 0.0 ], [ -67.557525, -45.902148, 0.0 ], [ -67.55668, -45.901938, 0.0 ], [ -67.556169, -45.901817, 0.0 ], [ -67.553849, -45.901211, 0.0 ], [ -67.551343, -45.900552, 0.0 ], [ -67.551103, -45.900429, 0.0 ], [ -67.54764, -45.899511, 0.0 ], [ -67.546933, -45.899297, 0.0 ], [ -67.546169, -45.898998, 0.0 ], [ -67.545562, -45.898713, 0.0 ], [ -67.545034, -45.898481, 0.0 ], [ -67.544741, -45.898417, 0.0 ], [ -67.544405, -45.898294, 0.0 ], [ -67.543944, -45.89803, 0.0 ], [ -67.540626, -45.895782, 0.0 ], [ -67.537503, -45.893656, 0.0 ], [ -67.536008, -45.892651, 0.0 ], [ -67.534445, -45.891598, 0.0 ], [ -67.533002, -45.890611, 0.0 ], [ -67.532045, -45.889999, 0.0 ], [ -67.531399, -45.889598, 0.0 ], [ -67.530474, -45.889209, 0.0 ], [ -67.530027, -45.889054, 0.0 ], [ -67.529427, -45.888852, 0.0 ], [ -67.528875, -45.888669, 0.0 ], [ -67.526779, -45.88798, 0.0 ], [ -67.524963, -45.887355, 0.0 ], [ -67.520444, -45.885874, 0.0 ], [ -67.519987, -45.885745, 0.0 ], [ -67.519261, -45.885497, 0.0 ], [ -67.518719, -45.885252, 0.0 ], [ -67.51789, -45.884733, 0.0 ], [ -67.515877, -45.883402, 0.0 ], [ -67.514406, -45.882334, 0.0 ], [ -67.514045, -45.882089, 0.0 ], [ -67.513821, -45.881966, 0.0 ], [ -67.513821, -45.881797, 0.0 ], [ -67.513983, -45.88158, 0.0 ], [ -67.514565, -45.881198, 0.0 ], [ -67.520079, -45.877711, 0.0 ], [ -67.532472, -45.869686, 0.0 ], [ -67.545002, -45.861673, 0.0 ], [ -67.545124, -45.861596, 0.0 ], [ -67.545135, -45.861493, 0.0 ], [ -67.543777, -45.859552, 0.0 ], [ -67.543133, -45.858696, 0.0 ], [ -67.542384, -45.857683, 0.0 ], [ -67.542147, -45.857413, 0.0 ], [ -67.541987, -45.8573, 0.0 ], [ -67.541767, -45.857279, 0.0 ], [ -67.541642, -45.857175, 0.0 ], [ -67.541518, -45.857103, 0.0 ], [ -67.541292, -45.857103, 0.0 ], [ -67.539597, -45.857402, 0.0 ], [ -67.537318, -45.857841, 0.0 ], [ -67.53542, -45.858239, 0.0 ], [ -67.533441, -45.858596, 0.0 ], [ -67.532799, -45.858706, 0.0 ], [ -67.532471, -45.858714, 0.0 ], [ -67.53094, -45.858803, 0.0 ], [ -67.530114, -45.858828, 0.0 ], [ -67.529301, -45.858864, 0.0 ], [ -67.528626, -45.858884, 0.0 ], [ -67.528485, -45.858935, 0.0 ], [ -67.528431, -45.859016, 0.0 ], [ -67.52841, -45.859219, 0.0 ], [ -67.528466, -45.860143, 0.0 ], [ -67.528448, -45.860226, 0.0 ], [ -67.528334, -45.860266, 0.0 ], [ -67.528067, -45.860286, 0.0 ], [ -67.527399, -45.860286, 0.0 ], [ -67.521081, -45.86051, 0.0 ], [ -67.520986, -45.860564, 0.0 ], [ -67.52097, -45.8607, 0.0 ], [ -67.520999, -45.862122, 0.0 ], [ -67.52095, -45.862252, 0.0 ], [ -67.520854, -45.862295, 0.0 ], [ -67.52063, -45.862326, 0.0 ], [ -67.520043, -45.862323, 0.0 ], [ -67.512367, -45.862422, 0.0 ], [ -67.504194, -45.862413, 0.0 ], [ -67.50099, -45.862394, 0.0 ], [ -67.49639, -45.862425, 0.0 ], [ -67.492729, -45.862404, 0.0 ], [ -67.484735, -45.862447, 0.0 ], [ -67.48461, -45.862529, 0.0 ], [ -67.484611, -45.862904, 0.0 ], [ -67.484594, -45.863309, 0.0 ], [ -67.484594, -45.863424, 0.0 ], [ -67.484491, -45.863479, 0.0 ], [ -67.484209, -45.863505, 0.0 ], [ -67.481706, -45.863494, 0.0 ], [ -67.481558, -45.863536, 0.0 ], [ -67.481453, -45.863605, 0.0 ], [ -67.481294, -45.863661, 0.0 ], [ -67.48067, -45.863681, 0.0 ], [ -67.480119, -45.86369, 0.0 ], [ -67.480001, -45.86366, 0.0 ], [ -67.479958, -45.8636, 0.0 ], [ -67.479948, -45.863425, 0.0 ], [ -67.479985, -45.862877, 0.0 ], [ -67.48006, -45.862822, 0.0 ], [ -67.480158, -45.862796, 0.0 ], [ -67.480559, -45.862792, 0.0 ] ] } }
]
}
