{"type": "FeatureCollection", "name": "linea-7", "crs": {"type": "name", "properties": {"name": "urn:ogc:def:crs:OGC:1.3:CRS84"}}, "features": [{"type": "Feature", "properties": {"fid": 1, "linea": "7", "sentido": "ida", "nombre": "Estadio Centenario - Laprida"}, "geometry": {"type": "LineString", "coordinates": [[-67.492617, -45.872245, 0.0], [-67.491903, -45.872864, 0.0], [-67.491671, -45.87292, 0.0], [-67.490263, -45.872081, 0.0], [-67.490265, -45.871993, 0.0], [-67.490931, -45.87144, 0.0], [-67.490839, -45.871331, 0.0], [-67.488711, -45.870012, 0.0], [-67.487999, -45.869638, 0.0], [-67.487814, -45.869577, 0.0], [-67.487577, -45.869528, 0.0], [-67.487339, -45.869455, 0.0], [-67.487023, -45.869253, 0.0], [-67.486361, -45.868823, 0.0], [-67.486365, -45.86807, 0.0], [-67.484458, -45.868075, 0.0], [-67.484071, -45.868072, 0.0], [-67.480153, -45.866269, 0.0], [-67.479904, -45.865976, 0.0], [-67.479869, -45.86451, 0.0], [-67.479795, -45.864445, 0.0], [-67.475923, -45.863638, 0.0], [-67.475584, -45.863583, 0.0], [-67.475424, -45.863532, 0.0], [-67.475136, -45.86327, 0.0], [-67.475084, -45.863009, 0.0], [-67.474964, -45.86279, 0.0], [-67.474805, -45.862577, 0.0], [-67.474527, -45.86227, 0.0], [-67.474114, -45.861774, 0.0], [-67.474016, -45.86154, 0.0], [-67.474224, -45.861182, 0.0], [-67.474529, -45.860705, 0.0], [-67.474914, -45.860027, 0.0], [-67.475155, -45.859601, 0.0], [-67.475376, -45.859031, 0.0], [-67.475666, -45.858165, 0.0], [-67.475914, -45.857284, 0.0], [-67.476108, -45.856637, 0.0], [-67.476122, -45.85626, 0.0], [-67.47611, -45.855914, 0.0], [-67.476167, -45.855531, 0.0], [-67.476381, -45.855085, 0.0], [-67.476761, -45.854705, 0.0], [-67.476919, -45.854597, 0.0], [-67.477234, -45.854394, 0.0], [-67.477498, -45.854094, 0.0], [-67.477655, -45.853775, 0.0], [-67.4777, -45.853545, 0.0], [-67.477656, -45.853266, 0.0], [-67.477574, -45.853111, 0.0], [-67.477212, -45.852511, 0.0], [-67.477029, -45.852234, 0.0], [-67.476798, -45.851873, 0.0], [-67.476709, -45.851574, 0.0], [-67.476723, -45.851284, 0.0], [-67.476807, -45.85084, 0.0], [-67.476935, -45.850254, 0.0], [-67.477045, -45.849847, 0.0], [-67.477058, -45.849558, 0.0], [-67.477111, -45.849199, 0.0], [-67.477074, -45.848937, 0.0], [-67.476986, -45.848759, 0.0], [-67.476833, -45.848431, 0.0], [-67.476597, -45.848231, 0.0], [-67.475588, -45.847481, 0.0], [-67.475366, -45.847305, 0.0], [-67.475193, -45.847028, 0.0], [-67.475115, -45.846791, 0.0], [-67.475094, -45.846547, 0.0], [-67.475215, -45.846199, 0.0], [-67.47538, -45.845623, 0.0], [-67.475627, -45.844864, 0.0], [-67.476055, -45.843614, 0.0], [-67.476127, -45.843347, 0.0], [-67.476204, -45.842917, 0.0], [-67.476321, -45.841996, 0.0], [-67.476383, -45.841673, 0.0], [-67.476421, -45.841293, 0.0], [-67.476444, -45.840914, 0.0], [-67.476414, -45.840331, 0.0], [-67.476399, -45.839909, 0.0], [-67.476366, -45.839687, 0.0], [-67.476293, -45.839561, 0.0], [-67.476165, -45.839493, 0.0], [-67.475382, -45.839474, 0.0], [-67.475102, -45.839497, 0.0], [-67.474871, -45.839462, 0.0], [-67.474805, -45.839356, 0.0], [-67.4748, -45.838912, 0.0], [-67.47475, -45.838027, 0.0], [-67.474878, -45.837895, 0.0], [-67.475052, -45.83789, 0.0], [-67.475453, -45.837939, 0.0], [-67.476207, -45.83808, 0.0], [-67.476733, -45.838192, 0.0], [-67.477616, -45.838359, 0.0], [-67.477888, -45.838393, 0.0], [-67.478067, -45.83831, 0.0], [-67.47818, -45.837353, 0.0], [-67.478299, -45.837016, 0.0], [-67.478264, -45.836811, 0.0], [-67.477979, -45.836776, 0.0], [-67.477643, -45.836726, 0.0], [-67.477388, -45.836578, 0.0], [-67.47746, -45.836317, 0.0], [-67.478071, -45.83598, 0.0], [-67.478213, -45.835873, 0.0], [-67.478339, -45.835706, 0.0], [-67.478416, -45.835377, 0.0], [-67.478398, -45.835086, 0.0], [-67.478281, -45.834795, 0.0], [-67.478163, -45.834453, 0.0], [-67.478001, -45.834217, 0.0], [-67.477857, -45.834057, 0.0], [-67.477441, -45.833451, 0.0], [-67.476904, -45.832825, 0.0], [-67.476316, -45.831957, 0.0], [-67.476056, -45.831614, 0.0], [-67.47576, -45.831362, 0.0], [-67.475508, -45.831199, 0.0], [-67.475266, -45.831084, 0.0], [-67.474839, -45.830868, 0.0], [-67.473393, -45.830068, 0.0], [-67.471771, -45.82916, 0.0], [-67.470639, -45.828519, 0.0], [-67.470226, -45.828334, 0.0], [-67.469966, -45.828306, 0.0], [-67.469738, -45.828421, 0.0], [-67.469538, -45.828704, 0.0], [-67.469407, -45.828851, 0.0], [-67.469237, -45.828929, 0.0], [-67.469059, -45.828857, 0.0], [-67.468767, -45.828462, 0.0], [-67.468339, -45.827816, 0.0], [-67.468189, -45.827522, 0.0], [-67.467768, -45.82698, 0.0], [-67.467433, -45.826466, 0.0], [-67.467076, -45.826025, 0.0], [-67.466372, -45.825278, 0.0], [-67.466158, -45.825047, 0.0], [-67.465975, -45.82484, 0.0], [-67.465685, -45.824771, 0.0], [-67.46545, -45.824681, 0.0], [-67.465355, -45.824475, 0.0], [-67.465461, -45.824308, 0.0], [-67.46576, -45.82424, 0.0], [-67.466176, -45.824239, 0.0], [-67.46662, -45.824218, 0.0], [-67.467211, -45.824057, 0.0], [-67.46779, -45.823906, 0.0], [-67.468304, -45.823699, 0.0], [-67.468595, -45.823471, 0.0], [-67.469119, -45.823022, 0.0], [-67.469667, -45.822554, 0.0], [-67.470419, -45.821922, 0.0], [-67.470901, -45.82141, 0.0], [-67.471457, -45.821092, 0.0], [-67.472189, -45.820863, 0.0], [-67.472901, -45.820655, 0.0], [-67.473847, -45.820429, 0.0], [-67.474942, -45.820118, 0.0], [-67.475625, -45.819915, 0.0], [-67.476239, -45.819783, 0.0], [-67.476765, -45.81972, 0.0], [-67.477637, -45.819671, 0.0], [-67.478221, -45.819708, 0.0], [-67.478865, -45.819782, 0.0], [-67.479499, -45.819936, 0.0], [-67.48028, -45.820268, 0.0], [-67.480835, -45.820457, 0.0], [-67.481662, -45.820584, 0.0], [-67.482946, -45.820666, 0.0], [-67.483972, -45.820724, 0.0], [-67.485082, -45.820655, 0.0], [-67.486314, -45.820606, 0.0], [-67.487268, -45.820515, 0.0], [-67.488281, -45.820437, 0.0], [-67.490043, -45.820368, 0.0], [-67.491219, -45.820348, 0.0], [-67.492034, -45.820466, 0.0], [-67.494142, -45.821138, 0.0], [-67.495385, -45.821518, 0.0], [-67.495875, -45.821586, 0.0], [-67.496472, -45.821489, 0.0], [-67.49712, -45.821207, 0.0], [-67.497626, -45.821061, 0.0], [-67.498045, -45.82099, 0.0], [-67.498678, -45.820983, 0.0], [-67.499768, -45.820971, 0.0], [-67.500819, -45.820978, 0.0], [-67.502301, -45.820779, 0.0], [-67.503305, -45.820599, 0.0], [-67.503909, -45.820379, 0.0], [-67.503908, -45.820287, 0.0], [-67.503516, -45.820092, 0.0], [-67.502852, -45.819844, 0.0], [-67.502493, -45.819733, 0.0], [-67.502207, -45.819561, 0.0], [-67.501908, -45.819483, 0.0], [-67.502031, -45.819363, 0.0], [-67.503201, -45.818164, 0.0], [-67.50356, -45.818294, 0.0], [-67.503696, -45.818355, 0.0], [-67.503918, -45.818493, 0.0], [-67.502897, -45.819476, 0.0], [-67.502727, -45.819682, 0.0], [-67.502998, -45.819776, 0.0], [-67.503257, -45.819887, 0.0], [-67.50365, -45.820066, 0.0], [-67.504005, -45.820125, 0.0], [-67.504311, -45.820125, 0.0], [-67.505138, -45.819912, 0.0], [-67.505975, -45.819771, 0.0], [-67.506833, -45.819756, 0.0], [-67.508369, -45.819841, 0.0], [-67.509527, -45.819901, 0.0], [-67.510455, -45.819978, 0.0], [-67.511666, -45.819975, 0.0], [-67.514282, -45.820046, 0.0], [-67.515473, -45.820248, 0.0], [-67.516481, -45.820391, 0.0], [-67.517547, -45.820464, 0.0], [-67.522938, -45.820662, 0.0], [-67.523664, -45.820673, 0.0], [-67.524001, -45.820725, 0.0], [-67.524459, -45.820889, 0.0], [-67.52466, -45.82103, 0.0], [-67.524787, -45.821193, 0.0], [-67.52504, -45.821596, 0.0], [-67.525156, -45.821776, 0.0], [-67.525294, -45.821947, 0.0], [-67.52559, -45.822138, 0.0], [-67.526424, -45.822583, 0.0], [-67.52696, -45.822787, 0.0], [-67.527052, -45.822747, 0.0], [-67.527764, -45.822066, 0.0], [-67.528343, -45.821562, 0.0], [-67.528391, -45.821344, 0.0], [-67.52839, -45.821017, 0.0], [-67.528489, -45.820757, 0.0], [-67.528722, -45.820456, 0.0], [-67.528659, -45.820196, 0.0], [-67.528755, -45.819979, 0.0], [-67.528826, -45.819744, 0.0], [-67.52908, -45.819376, 0.0], [-67.529528, -45.818838, 0.0], [-67.530258, -45.818022, 0.0], [-67.530595, -45.817829, 0.0], [-67.531128, -45.817568, 0.0], [-67.531745, -45.817306, 0.0], [-67.532459, -45.816961, 0.0], [-67.533004, -45.816674, 0.0], [-67.533501, -45.816471, 0.0], [-67.533997, -45.816318, 0.0], [-67.534684, -45.816107, 0.0], [-67.535623, -45.815854, 0.0], [-67.53641, -45.815601, 0.0], [-67.536904, -45.815551, 0.0], [-67.537144, -45.815526, 0.0], [-67.537327, -45.81545, 0.0], [-67.537331, -45.815331, 0.0], [-67.537293, -45.815076, 0.0], [-67.537224, -45.814957, 0.0], [-67.53702, -45.814939, 0.0], [-67.536721, -45.814938, 0.0], [-67.53642, -45.814954, 0.0], [-67.535855, -45.814926, 0.0], [-67.535483, -45.814923, 0.0], [-67.535098, -45.814835, 0.0], [-67.534796, -45.814608, 0.0], [-67.534371, -45.814449, 0.0], [-67.534101, -45.81436, 0.0], [-67.534052, -45.814256, 0.0], [-67.534235, -45.814156, 0.0], [-67.534516, -45.814151, 0.0], [-67.534725, -45.814409, 0.0], [-67.534966, -45.814584, 0.0], [-67.535208, -45.814689, 0.0], [-67.535496, -45.814803, 0.0], [-67.536963, -45.814811, 0.0], [-67.537215, -45.814812, 0.0], [-67.53737, -45.814889, 0.0], [-67.537511, -45.815331, 0.0], [-67.53749, -45.815551, 0.0], [-67.537261, -45.815602, 0.0], [-67.536888, -45.815644, 0.0], [-67.536356, -45.815754, 0.0], [-67.535704, -45.815939, 0.0], [-67.534767, -45.816216, 0.0], [-67.533513, -45.816614, 0.0], [-67.53223, -45.817188, 0.0], [-67.531227, -45.817701, 0.0], [-67.530456, -45.818062, 0.0], [-67.530146, -45.818309, 0.0], [-67.529696, -45.818882, 0.0], [-67.529033, -45.819677, 0.0], [-67.528853, -45.820179, 0.0], [-67.52884, -45.820521, 0.0], [-67.528603, -45.820841, 0.0], [-67.528508, -45.821252, 0.0], [-67.52852, -45.821578, 0.0], [-67.528292, -45.821822, 0.0], [-67.52716, -45.822776, 0.0], [-67.52717, -45.822936, 0.0], [-67.527844, -45.823244, 0.0], [-67.528533, -45.823552, 0.0], [-67.528842, -45.823693, 0.0], [-67.529268, -45.824103, 0.0], [-67.529662, -45.82444, 0.0], [-67.533443, -45.825893, 0.0], [-67.535253, -45.826579, 0.0], [-67.536335, -45.827079, 0.0], [-67.536784, -45.827353, 0.0], [-67.537517, -45.82778, 0.0], [-67.537919, -45.828, 0.0], [-67.538334, -45.828002, 0.0], [-67.539081, -45.827999, 0.0], [-67.539796, -45.828014, 0.0], [-67.541227, -45.828022, 0.0], [-67.541383, -45.827398, 0.0], [-67.542877, -45.827561, 0.0], [-67.544051, -45.826277, 0.0], [-67.545717, -45.827039, 0.0], [-67.544308, -45.828482, 0.0], [-67.54456, -45.828582, 0.0], [-67.545208, -45.828821, 0.0], [-67.54604, -45.829328, 0.0], [-67.54452, -45.830847, 0.0], [-67.543029, -45.830493, 0.0], [-67.542108, -45.830293, 0.0], [-67.540058, -45.830422, 0.0]]}}, {"type": "Feature", "properties": {"fid": 2, "linea": "7", "sentido": "vuelta", "nombre": "Estadio Centenario - Laprida"}, "geometry": {"type": "LineString", "coordinates": [[-67.539929, -45.830406, 0.0], [-67.537517, -45.82778, 0.0], [-67.536784, -45.827353, 0.0], [-67.536335, -45.827079, 0.0], [-67.535253, -45.826579, 0.0], [-67.533443, -45.825893, 0.0], [-67.529662, -45.82444, 0.0], [-67.529268, -45.824103, 0.0], [-67.528842, -45.823693, 0.0], [-67.528533, -45.823552, 0.0], [-67.527844, -45.823244, 0.0], [-67.52717, -45.822936, 0.0], [-67.52716, -45.822776, 0.0], [-67.528292, -45.821822, 0.0], [-67.52852, -45.821578, 0.0], [-67.528508, -45.821252, 0.0], [-67.528603, -45.820841, 0.0], [-67.52884, -45.820521, 0.0], [-67.528853, -45.820179, 0.0], [-67.529033, -45.819677, 0.0], [-67.529696, -45.818882, 0.0], [-67.530146, -45.818309, 0.0], [-67.530456, -45.818062, 0.0], [-67.531227, -45.817701, 0.0], [-67.53223, -45.817188, 0.0], [-67.533513, -45.816614, 0.0], [-67.534767, -45.816216, 0.0], [-67.535704, -45.815939, 0.0], [-67.536356, -45.815754, 0.0], [-67.536888, -45.815644, 0.0], [-67.537261, -45.815602, 0.0], [-67.53749, -45.815551, 0.0], [-67.537511, -45.815331, 0.0], [-67.53737, -45.814889, 0.0], [-67.537215, -45.814812, 0.0], [-67.536963, -45.814811, 0.0], [-67.535496, -45.814803, 0.0], [-67.535208, -45.814689, 0.0], [-67.534966, -45.814584, 0.0], [-67.534725, -45.814409, 0.0], [-67.534516, -45.814151, 0.0], [-67.534235, -45.814156, 0.0], [-67.534052, -45.814256, 0.0], [-67.534101, -45.81436, 0.0], [-67.534371, -45.814449, 0.0], [-67.534796, -45.814608, 0.0], [-67.535098, -45.814835, 0.0], [-67.535483, -45.814923, 0.0], [-67.535855, -45.814926, 0.0], [-67.53642, -45.814954, 0.0], [-67.536721, -45.814938, 0.0], [-67.53702, -45.814939, 0.0], [-67.537224, -45.814957, 0.0], [-67.537293, -45.815076, 0.0], [-67.537331, -45.815331, 0.0], [-67.537327, -45.81545, 0.0], [-67.537144, -45.815526, 0.0], [-67.536904, -45.815551, 0.0], [-67.53641, -45.815601, 0.0], [-67.535623, -45.815854, 0.0], [-67.534684, -45.816107, 0.0], [-67.533997, -45.816318, 0.0], [-67.533501, -45.816471, 0.0], [-67.533004, -45.816674, 0.0], [-67.532459, -45.816961, 0.0], [-67.531745, -45.817306, 0.0], [-67.531128, -45.817568, 0.0], [-67.530595, -45.817829, 0.0], [-67.530258, -45.818022, 0.0], [-67.529528, -45.818838, 0.0], [-67.52908, -45.819376, 0.0], [-67.528826, -45.819744, 0.0], [-67.528755, -45.819979, 0.0], [-67.528659, -45.820196, 0.0], [-67.528722, -45.820456, 0.0], [-67.528489, -45.820757, 0.0], [-67.52839, -45.821017, 0.0], [-67.528391, -45.821344, 0.0], [-67.528343, -45.821562, 0.0], [-67.527764, -45.822066, 0.0], [-67.527052, -45.822747, 0.0], [-67.52696, -45.822787, 0.0], [-67.526424, -45.822583, 0.0], [-67.52559, -45.822138, 0.0], [-67.525294, -45.821947, 0.0], [-67.525156, -45.821776, 0.0], [-67.52504, -45.821596, 0.0], [-67.524787, -45.821193, 0.0], [-67.52466, -45.82103, 0.0], [-67.524459, -45.820889, 0.0], [-67.524001, -45.820725, 0.0], [-67.523664, -45.820673, 0.0], [-67.522938, -45.820662, 0.0], [-67.517547, -45.820464, 0.0], [-67.516481, -45.820391, 0.0], [-67.515473, -45.820248, 0.0], [-67.514282, -45.820046, 0.0], [-67.511666, -45.819975, 0.0], [-67.510455, -45.819978, 0.0], [-67.509527, -45.819901, 0.0], [-67.508369, -45.819841, 0.0], [-67.506833, -45.819756, 0.0], [-67.505975, -45.819771, 0.0], [-67.505138, -45.819912, 0.0], [-67.504311, -45.820125, 0.0], [-67.504005, -45.820125, 0.0], [-67.50365, -45.820066, 0.0], [-67.503257, -45.819887, 0.0], [-67.502998, -45.819776, 0.0], [-67.502727, -45.819682, 0.0], [-67.502897, -45.819476, 0.0], [-67.503918, -45.818493, 0.0], [-67.503696, -45.818355, 0.0], [-67.50356, -45.818294, 0.0], [-67.503201, -45.818164, 0.0], [-67.502031, -45.819363, 0.0], [-67.501908, -45.819483, 0.0], [-67.502207, -45.819561, 0.0], [-67.502493, -45.819733, 0.0], [-67.502852, -45.819844, 0.0], [-67.503516, -45.820092, 0.0], [-67.503908, -45.820287, 0.0], [-67.503909, -45.820379, 0.0], [-67.503305, -45.820599, 0.0], [-67.502301, -45.820779, 0.0], [-67.500819, -45.820978, 0.0], [-67.499768, -45.820971, 0.0], [-67.498678, -45.820983, 0.0], [-67.498045, -45.82099, 0.0], [-67.497626, -45.821061, 0.0], [-67.49712, -45.821207, 0.0], [-67.496472, -45.821489, 0.0], [-67.495875, -45.821586, 0.0], [-67.495385, -45.821518, 0.0], [-67.494142, -45.821138, 0.0], [-67.492034, -45.820466, 0.0], [-67.491219, -45.820348, 0.0], [-67.490043, -45.820368, 0.0], [-67.488281, -45.820437, 0.0], [-67.487268, -45.820515, 0.0], [-67.486314, -45.820606, 0.0], [-67.485082, -45.820655, 0.0], [-67.483972, -45.820724, 0.0], [-67.482946, -45.820666, 0.0], [-67.481662, -45.820584, 0.0], [-67.480835, -45.820457, 0.0], [-67.48028, -45.820268, 0.0], [-67.479499, -45.819936, 0.0], [-67.478865, -45.819782, 0.0], [-67.478221, -45.819708, 0.0], [-67.477637, -45.819671, 0.0], [-67.476765, -45.81972, 0.0], [-67.476239, -45.819783, 0.0], [-67.475625, -45.819915, 0.0], [-67.474942, -45.820118, 0.0], [-67.473847, -45.820429, 0.0], [-67.472901, -45.820655, 0.0], [-67.472189, -45.820863, 0.0], [-67.471457, -45.821092, 0.0], [-67.470901, -45.82141, 0.0], [-67.470419, -45.821922, 0.0], [-67.469667, -45.822554, 0.0], [-67.469286, -45.823208, 0.0], [-67.468771, -45.823715, 0.0], [-67.468082, -45.824386, 0.0], [-67.467652, -45.825282, 0.0], [-67.467804, -45.82617, 0.0], [-67.46839, -45.826922, 0.0], [-67.4695, -45.827827, 0.0], [-67.469848, -45.828068, 0.0], [-67.469972, -45.828151, 0.0], [-67.470271, -45.828315, 0.0], [-67.470639, -45.828519, 0.0], [-67.471771, -45.82916, 0.0], [-67.473393, -45.830068, 0.0], [-67.474839, -45.830868, 0.0], [-67.475266, -45.831084, 0.0], [-67.475508, -45.831199, 0.0], [-67.47576, -45.831362, 0.0], [-67.476056, -45.831614, 0.0], [-67.476316, -45.831957, 0.0], [-67.476904, -45.832825, 0.0], [-67.477441, -45.833451, 0.0], [-67.477922, -45.834036, 0.0], [-67.478125, -45.834219, 0.0], [-67.478203, -45.834232, 0.0], [-67.47832, -45.83422, 0.0], [-67.478449, -45.834207, 0.0], [-67.478554, -45.834203, 0.0], [-67.478559, -45.834225, 0.0], [-67.478574, -45.83456, 0.0], [-67.478579, -45.834862, 0.0], [-67.478544, -45.835188, 0.0], [-67.478537, -45.835386, 0.0], [-67.478496, -45.835759, 0.0], [-67.478329, -45.837278, 0.0], [-67.478067, -45.83831, 0.0], [-67.478186, -45.838541, 0.0], [-67.478506, -45.838599, 0.0], [-67.479021, -45.838802, 0.0], [-67.479202, -45.839053, 0.0], [-67.479095, -45.83957, 0.0], [-67.47903, -45.839706, 0.0], [-67.478887, -45.839717, 0.0], [-67.47861, -45.839717, 0.0], [-67.477098, -45.839737, 0.0], [-67.476735, -45.839815, 0.0], [-67.476528, -45.840008, 0.0], [-67.476517, -45.840267, 0.0], [-67.476526, -45.840968, 0.0], [-67.476498, -45.841313, 0.0], [-67.476449, -45.841706, 0.0], [-67.476394, -45.842062, 0.0], [-67.476263, -45.842931, 0.0], [-67.476188, -45.843314, 0.0], [-67.476055, -45.843614, 0.0], [-67.475702, -45.844916, 0.0], [-67.475449, -45.845643, 0.0], [-67.475243, -45.846233, 0.0], [-67.475147, -45.846585, 0.0], [-67.475143, -45.846816, 0.0], [-67.475213, -45.847038, 0.0], [-67.475425, -45.847292, 0.0], [-67.475636, -45.847469, 0.0], [-67.476633, -45.848227, 0.0], [-67.476833, -45.848431, 0.0], [-67.476986, -45.848759, 0.0], [-67.477074, -45.848937, 0.0], [-67.477111, -45.849199, 0.0], [-67.477058, -45.849558, 0.0], [-67.477045, -45.849847, 0.0], [-67.476935, -45.850254, 0.0], [-67.476807, -45.85084, 0.0], [-67.476723, -45.851284, 0.0], [-67.476709, -45.851574, 0.0], [-67.476798, -45.851873, 0.0], [-67.477029, -45.852234, 0.0], [-67.477212, -45.852511, 0.0], [-67.477574, -45.853111, 0.0], [-67.477656, -45.853266, 0.0], [-67.4777, -45.853545, 0.0], [-67.477655, -45.853775, 0.0], [-67.477498, -45.854094, 0.0], [-67.477234, -45.854394, 0.0], [-67.476919, -45.854597, 0.0], [-67.476761, -45.854705, 0.0], [-67.476381, -45.855085, 0.0], [-67.476167, -45.855531, 0.0], [-67.47611, -45.855914, 0.0], [-67.476122, -45.85626, 0.0], [-67.476108, -45.856637, 0.0], [-67.475914, -45.857284, 0.0], [-67.475666, -45.858165, 0.0], [-67.475669, -45.858626, 0.0], [-67.475446, -45.859271, 0.0], [-67.47534, -45.85969, 0.0], [-67.475359, -45.86012, 0.0], [-67.475286, -45.860909, 0.0], [-67.475328, -45.86202, 0.0], [-67.475408, -45.86209, 0.0], [-67.475851, -45.86209, 0.0], [-67.47989, -45.862138, 0.0], [-67.482817, -45.862179, 0.0], [-67.483643, -45.862172, 0.0], [-67.484149, -45.862179, 0.0], [-67.484423, -45.862192, 0.0], [-67.484532, -45.862275, 0.0], [-67.484603, -45.86551, 0.0], [-67.484549, -45.865789, 0.0], [-67.484492, -45.865935, 0.0], [-67.48489, -45.866143, 0.0], [-67.485462, -45.866309, 0.0], [-67.485834, -45.866465, 0.0], [-67.486784, -45.867039, 0.0], [-67.487991, -45.867879, 0.0], [-67.48946, -45.869006, 0.0], [-67.490895, -45.870064, 0.0], [-67.491624, -45.870591, 0.0], [-67.492022, -45.870822, 0.0], [-67.492557, -45.871135, 0.0], [-67.493121, -45.871389, 0.0], [-67.493377, -45.871532, 0.0], [-67.493465, -45.871607, 0.0], [-67.492617, -45.872245, 0.0]]}}]}