{
"type": "FeatureCollection",
"name": "linea-8ah",
"crs": { "type": "name", "properties": { "name": "urn:ogc:def:crs:OGC:1.3:CRS84" } },
"features": [
{ "type": "Feature", "properties": { "fid": 1, "linea": "8ah", "sentido": "antihorario", "nombre": "Standard - Palazzo" }, "geometry": { "type": "MultiLineString", "coordinates": [ [ [ -67.492695, -45.872201, 0.0 ], [ -67.491954, -45.872768, 0.0 ], [ -67.491699, -45.872909, 0.0 ], [ -67.4915, -45.872837, 0.0 ], [ -67.490313, -45.872111, 0.0 ], [ -67.490258, -45.872016, 0.0 ], [ -67.490918, -45.871371, 0.0 ], [ -67.489301, -45.870341, 0.0 ], [ -67.488067, -45.869653, 0.0 ], [ -67.487517, -45.869532, 0.0 ], [ -67.486591, -45.869033, 0.0 ], [ -67.486362, -45.868714, 0.0 ], [ -67.4864, -45.868074, 0.0 ], [ -67.484579, -45.86806, 0.0 ], [ -67.484409, -45.86806, 0.0 ], [ -67.48435, -45.868075, 0.0 ], [ -67.484301, -45.868064, 0.0 ], [ -67.482908, -45.867572, 0.0 ], [ -67.483012, -45.862175, 0.0 ], [ -67.484531, -45.862148, 0.0 ], [ -67.484347, -45.868079, 0.0 ], [ -67.480337, -45.866368, 0.0 ], [ -67.480162, -45.866268, 0.0 ], [ -67.480037, -45.866166, 0.0 ], [ -67.479941, -45.866038, 0.0 ], [ -67.479958, -45.865824, 0.0 ], [ -67.479907, -45.864915, 0.0 ], [ -67.479925, -45.864726, 0.0 ], [ -67.479905, -45.864558, 0.0 ], [ -67.479811, -45.864472, 0.0 ], [ -67.479657, -45.864466, 0.0 ], [ -67.478955, -45.864314, 0.0 ], [ -67.476157, -45.863711, 0.0 ], [ -67.47576, -45.863644, 0.0 ], [ -67.475213, -45.863387, 0.0 ], [ -67.474941, -45.862866, 0.0 ], [ -67.4746, -45.862388, 0.0 ], [ -67.474109, -45.861816, 0.0 ], [ -67.474073, -45.861608, 0.0 ], [ -67.474153, -45.861447, 0.0 ], [ -67.4744, -45.860917, 0.0 ], [ -67.474879, -45.860137, 0.0 ], [ -67.47501, -45.859904, 0.0 ], [ -67.475112, -45.859708, 0.0 ], [ -67.475228, -45.859381, 0.0 ], [ -67.475381, -45.859086, 0.0 ], [ -67.475552, -45.858533, 0.0 ], [ -67.475883, -45.857406, 0.0 ], [ -67.476047, -45.856787, 0.0 ], [ -67.476109, -45.856528, 0.0 ], [ -67.47611, -45.85629, 0.0 ], [ -67.47609, -45.855829, 0.0 ], [ -67.476159, -45.855522, 0.0 ], [ -67.476283, -45.855247, 0.0 ], [ -67.476529, -45.854931, 0.0 ], [ -67.477193, -45.854413, 0.0 ], [ -67.477401, -45.854212, 0.0 ], [ -67.477544, -45.854087, 0.0 ], [ -67.477632, -45.853857, 0.0 ], [ -67.477686, -45.8536, 0.0 ], [ -67.477652, -45.853329, 0.0 ], [ -67.477468, -45.852937, 0.0 ], [ -67.477309, -45.852673, 0.0 ], [ -67.47711, -45.852372, 0.0 ], [ -67.476878, -45.852019, 0.0 ], [ -67.47679, -45.851815, 0.0 ], [ -67.476716, -45.851564, 0.0 ], [ -67.476716, -45.851341, 0.0 ], [ -67.476757, -45.851075, 0.0 ], [ -67.476818, -45.85076, 0.0 ], [ -67.47692, -45.850445, 0.0 ], [ -67.476975, -45.850125, 0.0 ], [ -67.47703, -45.849922, 0.0 ], [ -67.477092, -45.849476, 0.0 ], [ -67.47714, -45.849192, 0.0 ], [ -67.477047, -45.848878, 0.0 ], [ -67.476895, -45.84861, 0.0 ], [ -67.476738, -45.848399, 0.0 ], [ -67.476476, -45.848172, 0.0 ], [ -67.476009, -45.847802, 0.0 ], [ -67.475726, -45.847614, 0.0 ], [ -67.475485, -45.847425, 0.0 ], [ -67.475308, -45.847242, 0.0 ], [ -67.475189, -45.847022, 0.0 ], [ -67.475116, -45.846839, 0.0 ], [ -67.475116, -45.84666, 0.0 ], [ -67.475156, -45.846457, 0.0 ], [ -67.475294, -45.84588, 0.0 ], [ -67.475565, -45.845021, 0.0 ], [ -67.475799, -45.844286, 0.0 ], [ -67.476077, -45.843463, 0.0 ], [ -67.47614, -45.843152, 0.0 ], [ -67.476264, -45.842294, 0.0 ], [ -67.476361, -45.841594, 0.0 ], [ -67.476383, -45.841098, 0.0 ], [ -67.476393, -45.84056, 0.0 ], [ -67.476391, -45.83986, 0.0 ], [ -67.476338, -45.839726, 0.0 ], [ -67.476243, -45.839602, 0.0 ], [ -67.476085, -45.839521, 0.0 ], [ -67.475865, -45.839517, 0.0 ], [ -67.475313, -45.839498, 0.0 ], [ -67.474967, -45.839498, 0.0 ], [ -67.474849, -45.839493, 0.0 ], [ -67.474787, -45.839435, 0.0 ], [ -67.474745, -45.839334, 0.0 ], [ -67.474765, -45.839059, 0.0 ], [ -67.474749, -45.837974, 0.0 ], [ -67.474832, -45.837861, 0.0 ], [ -67.474902, -45.837832, 0.0 ], [ -67.475078, -45.837832, 0.0 ], [ -67.475275, -45.837876, 0.0 ], [ -67.476725, -45.838215, 0.0 ], [ -67.477361, -45.838336, 0.0 ], [ -67.477805, -45.838418, 0.0 ], [ -67.477881, -45.838418, 0.0 ], [ -67.47797, -45.838384, 0.0 ], [ -67.478032, -45.838322, 0.0 ], [ -67.478088, -45.838197, 0.0 ], [ -67.478319, -45.836932, 0.0 ], [ -67.478257, -45.836844, 0.0 ], [ -67.478152, -45.8368, 0.0 ], [ -67.477978, -45.836794, 0.0 ], [ -67.477825, -45.836786, 0.0 ], [ -67.47765, -45.836787, 0.0 ], [ -67.477552, -45.836773, 0.0 ], [ -67.477447, -45.83669, 0.0 ], [ -67.477356, -45.836627, 0.0 ], [ -67.477335, -45.836545, 0.0 ], [ -67.477307, -45.836457, 0.0 ], [ -67.477335, -45.83634, 0.0 ], [ -67.477448, -45.836286, 0.0 ], [ -67.477602, -45.836213, 0.0 ], [ -67.477805, -45.836116, 0.0 ], [ -67.477965, -45.836015, 0.0 ], [ -67.478111, -45.835923, 0.0 ], [ -67.478257, -45.835787, 0.0 ], [ -67.478368, -45.835681, 0.0 ], [ -67.478409, -45.835537, 0.0 ], [ -67.47845, -45.835369, 0.0 ], [ -67.478417, -45.835154, 0.0 ], [ -67.478389, -45.83496, 0.0 ], [ -67.478271, -45.834685, 0.0 ], [ -67.478209, -45.834508, 0.0 ], [ -67.478057, -45.834278, 0.0 ], [ -67.477523, -45.833536, 0.0 ], [ -67.477147, -45.83303, 0.0 ], [ -67.476697, -45.832435, 0.0 ], [ -67.476275, -45.831898, 0.0 ], [ -67.476011, -45.831572, 0.0 ], [ -67.475727, -45.831344, 0.0 ], [ -67.475325, -45.831092, 0.0 ], [ -67.474323, -45.830593, 0.0 ], [ -67.473053, -45.829863, 0.0 ], [ -67.471599, -45.829025, 0.0 ], [ -67.470398, -45.828415, 0.0 ], [ -67.470126, -45.828339, 0.0 ], [ -67.469933, -45.828366, 0.0 ], [ -67.469801, -45.828432, 0.0 ], [ -67.469696, -45.828516, 0.0 ], [ -67.469552, -45.828691, 0.0 ], [ -67.469456, -45.828881, 0.0 ], [ -67.469371, -45.828933, 0.0 ], [ -67.469223, -45.82898, 0.0 ], [ -67.469126, -45.828923, 0.0 ], [ -67.469058, -45.828808, 0.0 ], [ -67.468786, -45.828487, 0.0 ], [ -67.468483, -45.827939, 0.0 ], [ -67.468161, -45.827475, 0.0 ], [ -67.467983, -45.8272, 0.0 ], [ -67.467838, -45.827004, 0.0 ], [ -67.467626, -45.826683, 0.0 ], [ -67.467282, -45.826284, 0.0 ], [ -67.466827, -45.825767, 0.0 ], [ -67.466346, -45.825221, 0.0 ], [ -67.466186, -45.824999, 0.0 ], [ -67.466033, -45.824859, 0.0 ], [ -67.46585, -45.824777, 0.0 ], [ -67.465733, -45.82476, 0.0 ], [ -67.465595, -45.824753, 0.0 ], [ -67.465458, -45.824702, 0.0 ], [ -67.465358, -45.824618, 0.0 ], [ -67.46531, -45.8245, 0.0 ], [ -67.465237, -45.824434, 0.0 ], [ -67.465088, -45.824365, 0.0 ], [ -67.464931, -45.824346, 0.0 ], [ -67.464733, -45.824336, 0.0 ], [ -67.46457, -45.824309, 0.0 ], [ -67.464294, -45.824289, 0.0 ], [ -67.463969, -45.824241, 0.0 ], [ -67.463551, -45.824187, 0.0 ], [ -67.463167, -45.824095, 0.0 ], [ -67.462825, -45.824002, 0.0 ], [ -67.462535, -45.823872, 0.0 ], [ -67.461226, -45.823203, 0.0 ], [ -67.460729, -45.822936, 0.0 ], [ -67.460203, -45.822659, 0.0 ], [ -67.459595, -45.822522, 0.0 ], [ -67.458917, -45.822378, 0.0 ], [ -67.458551, -45.822334, 0.0 ], [ -67.458276, -45.822355, 0.0 ], [ -67.458, -45.822386, 0.0 ], [ -67.457853, -45.822351, 0.0 ], [ -67.457669, -45.822295, 0.0 ], [ -67.457582, -45.822194, 0.0 ], [ -67.457325, -45.821901, 0.0 ], [ -67.456923, -45.82138, 0.0 ], [ -67.456747, -45.82104, 0.0 ], [ -67.45661, -45.82071, 0.0 ], [ -67.456458, -45.820375, 0.0 ], [ -67.456292, -45.819883, 0.0 ], [ -67.456221, -45.819535, 0.0 ], [ -67.456222, -45.819358, 0.0 ], [ -67.456361, -45.819221, 0.0 ], [ -67.456528, -45.819185, 0.0 ], [ -67.456689, -45.819185, 0.0 ], [ -67.456827, -45.81914, 0.0 ], [ -67.456892, -45.818988, 0.0 ], [ -67.457031, -45.818342, 0.0 ], [ -67.457111, -45.817918, 0.0 ], [ -67.457155, -45.817561, 0.0 ], [ -67.457097, -45.817283, 0.0 ], [ -67.456967, -45.816763, 0.0 ], [ -67.456408, -45.815023, 0.0 ], [ -67.456235, -45.814453, 0.0 ], [ -67.455997, -45.813606, 0.0 ], [ -67.455537, -45.812045, 0.0 ], [ -67.455335, -45.811406, 0.0 ], [ -67.455226, -45.811148, 0.0 ], [ -67.455031, -45.810896, 0.0 ], [ -67.454895, -45.810725, 0.0 ], [ -67.454715, -45.810413, 0.0 ], [ -67.45473, -45.810247, 0.0 ], [ -67.454839, -45.809996, 0.0 ], [ -67.454904, -45.809739, 0.0 ], [ -67.454875, -45.809487, 0.0 ], [ -67.454747, -45.809015, 0.0 ], [ -67.454625, -45.808744, 0.0 ], [ -67.454322, -45.808538, 0.0 ], [ -67.454062, -45.808431, 0.0 ], [ -67.45349, -45.808334, 0.0 ], [ -67.45295, -45.808267, 0.0 ], [ -67.452575, -45.808239, 0.0 ], [ -67.452288, -45.80827, 0.0 ], [ -67.451829, -45.808386, 0.0 ], [ -67.451308, -45.808522, 0.0 ], [ -67.450688, -45.808618, 0.0 ], [ -67.450185, -45.80865, 0.0 ], [ -67.449536, -45.808608, 0.0 ], [ -67.449148, -45.808608, 0.0 ], [ -67.448654, -45.808725, 0.0 ], [ -67.448261, -45.808799, 0.0 ], [ -67.447658, -45.808927, 0.0 ], [ -67.446791, -45.80906, 0.0 ], [ -67.445615, -45.809216, 0.0 ], [ -67.445022, -45.8093, 0.0 ], [ -67.444109, -45.809454, 0.0 ], [ -67.44315, -45.809578, 0.0 ], [ -67.442666, -45.809617, 0.0 ], [ -67.442047, -45.809612, 0.0 ], [ -67.441577, -45.809582, 0.0 ], [ -67.440851, -45.809467, 0.0 ], [ -67.440287, -45.809376, 0.0 ], [ -67.437604, -45.809011, 0.0 ], [ -67.437049, -45.80894, 0.0 ], [ -67.436378, -45.808838, 0.0 ], [ -67.435872, -45.808762, 0.0 ], [ -67.435525, -45.80864, 0.0 ], [ -67.435206, -45.808508, 0.0 ], [ -67.434916, -45.808328, 0.0 ], [ -67.43456, -45.80801, 0.0 ], [ -67.434009, -45.807469, 0.0 ], [ -67.433743, -45.807125, 0.0 ], [ -67.433317, -45.806741, 0.0 ], [ -67.432984, -45.806503, 0.0 ], [ -67.431876, -45.805841, 0.0 ], [ -67.430572, -45.80506, 0.0 ], [ -67.428511, -45.803897, 0.0 ], [ -67.427401, -45.803276, 0.0 ], [ -67.42676, -45.802971, 0.0 ], [ -67.425928, -45.802527, 0.0 ], [ -67.425115, -45.80209, 0.0 ], [ -67.424818, -45.801917, 0.0 ], [ -67.424565, -45.801612, 0.0 ], [ -67.424356, -45.801322, 0.0 ], [ -67.424109, -45.80087, 0.0 ], [ -67.422998, -45.798991, 0.0 ], [ -67.422815, -45.798661, 0.0 ], [ -67.422308, -45.797678, 0.0 ], [ -67.422034, -45.797236, 0.0 ], [ -67.421905, -45.797048, 0.0 ], [ -67.421842, -45.796848, 0.0 ], [ -67.421917, -45.796675, 0.0 ], [ -67.422058, -45.796543, 0.0 ], [ -67.422882, -45.795888, 0.0 ], [ -67.422962, -45.795718, 0.0 ], [ -67.422962, -45.795537, 0.0 ], [ -67.422797, -45.795397, 0.0 ], [ -67.422603, -45.795156, 0.0 ], [ -67.421976, -45.79447, 0.0 ], [ -67.421789, -45.794334, 0.0 ], [ -67.421429, -45.793947, 0.0 ], [ -67.420818, -45.793238, 0.0 ], [ -67.420248, -45.792518, 0.0 ], [ -67.420182, -45.792418, 0.0 ], [ -67.420227, -45.792392, 0.0 ], [ -67.421159, -45.791991, 0.0 ], [ -67.421186, -45.791943, 0.0 ], [ -67.421196, -45.791895, 0.0 ], [ -67.421165, -45.791825, 0.0 ], [ -67.421181, -45.791765, 0.0 ], [ -67.421351, -45.791692, 0.0 ], [ -67.422633, -45.791155, 0.0 ], [ -67.423534, -45.790784, 0.0 ], [ -67.424194, -45.79053, 0.0 ], [ -67.424608, -45.790381, 0.0 ], [ -67.424901, -45.790182, 0.0 ], [ -67.425455, -45.789808, 0.0 ], [ -67.426675, -45.78886, 0.0 ], [ -67.426855, -45.78887, 0.0 ], [ -67.427173, -45.789093, 0.0 ], [ -67.428458, -45.790067, 0.0 ], [ -67.428692, -45.790086, 0.0 ], [ -67.428997, -45.789962, 0.0 ], [ -67.429937, -45.789577, 0.0 ], [ -67.430588, -45.789308, 0.0 ], [ -67.43099, -45.789173, 0.0 ], [ -67.431004, -45.789096, 0.0 ], [ -67.430908, -45.78899, 0.0 ], [ -67.42874, -45.787675, 0.0 ], [ -67.428727, -45.787549, 0.0 ], [ -67.428852, -45.787433, 0.0 ], [ -67.432344, -45.784986, 0.0 ], [ -67.432494, -45.784876, 0.0 ], [ -67.4326, -45.784876, 0.0 ], [ -67.432714, -45.784944, 0.0 ], [ -67.435959, -45.787207, 0.0 ], [ -67.436238, -45.7874, 0.0 ], [ -67.436457, -45.787534, 0.0 ], [ -67.436781, -45.787687, 0.0 ], [ -67.437096, -45.787841, 0.0 ], [ -67.4374, -45.788002, 0.0 ], [ -67.437548, -45.788119, 0.0 ], [ -67.43753, -45.788204, 0.0 ], [ -67.43739, -45.78829, 0.0 ], [ -67.437293, -45.788418, 0.0 ], [ -67.436086, -45.789952, 0.0 ], [ -67.435876, -45.790232, 0.0 ], [ -67.43571, -45.79022, 0.0 ], [ -67.435334, -45.790184, 0.0 ], [ -67.435002, -45.790189, 0.0 ], [ -67.434759, -45.790291, 0.0 ], [ -67.434541, -45.790431, 0.0 ], [ -67.434532, -45.79057, 0.0 ], [ -67.434499, -45.790897, 0.0 ], [ -67.434508, -45.791247, 0.0 ], [ -67.434535, -45.791836, 0.0 ], [ -67.434537, -45.792254, 0.0 ], [ -67.43458, -45.792411, 0.0 ], [ -67.434659, -45.792532, 0.0 ], [ -67.434876, -45.792574, 0.0 ], [ -67.435171, -45.792641, 0.0 ], [ -67.435536, -45.792672, 0.0 ], [ -67.435657, -45.792738, 0.0 ], [ -67.435657, -45.792914, 0.0 ], [ -67.435674, -45.793271, 0.0 ], [ -67.43563, -45.793604, 0.0 ], [ -67.435491, -45.793852, 0.0 ], [ -67.434943, -45.794082, 0.0 ], [ -67.4326, -45.795045, 0.0 ], [ -67.432652, -45.795161, 0.0 ], [ -67.432731, -45.795282, 0.0 ], [ -67.432878, -45.795415, 0.0 ], [ -67.433182, -45.795446, 0.0 ], [ -67.436617, -45.795752, 0.0 ], [ -67.437906, -45.795837, 0.0 ], [ -67.43921, -45.795945, 0.0 ], [ -67.440061, -45.795987, 0.0 ], [ -67.441099, -45.796088, 0.0 ], [ -67.441655, -45.796148, 0.0 ], [ -67.442372, -45.796203, 0.0 ], [ -67.442733, -45.796221, 0.0 ], [ -67.443525, -45.796245, 0.0 ], [ -67.444127, -45.796245, 0.0 ], [ -67.444728, -45.796258, 0.0 ], [ -67.445408, -45.796271, 0.0 ], [ -67.446398, -45.796284, 0.0 ], [ -67.446595, -45.796236, 0.0 ], [ -67.446759, -45.796182, 0.0 ], [ -67.446836, -45.796128, 0.0 ], [ -67.446956, -45.79608, 0.0 ], [ -67.44711, -45.796056, 0.0 ], [ -67.447246, -45.796079, 0.0 ], [ -67.447365, -45.796133, 0.0 ], [ -67.447458, -45.796198, 0.0 ], [ -67.447585, -45.796228, 0.0 ], [ -67.447807, -45.796257, 0.0 ], [ -67.44813, -45.796257, 0.0 ], [ -67.448341, -45.796233, 0.0 ], [ -67.448941, -45.796209, 0.0 ], [ -67.449523, -45.796149, 0.0 ], [ -67.451197, -45.796029, 0.0 ], [ -67.452781, -45.79591, 0.0 ], [ -67.45443, -45.795772, 0.0 ], [ -67.45504, -45.79569, 0.0 ], [ -67.455586, -45.79569, 0.0 ], [ -67.456069, -45.795652, 0.0 ], [ -67.456721, -45.795629, 0.0 ], [ -67.457094, -45.795606, 0.0 ], [ -67.457308, -45.795584, 0.0 ], [ -67.457489, -45.795524, 0.0 ], [ -67.457595, -45.795428, 0.0 ], [ -67.457829, -45.795398, 0.0 ], [ -67.460026, -45.795176, 0.0 ], [ -67.461053, -45.795036, 0.0 ], [ -67.462136, -45.794941, 0.0 ], [ -67.46293, -45.794845, 0.0 ], [ -67.463723, -45.794787, 0.0 ], [ -67.464695, -45.794699, 0.0 ], [ -67.465422, -45.794655, 0.0 ], [ -67.465854, -45.794626, 0.0 ], [ -67.466101, -45.794634, 0.0 ], [ -67.46656, -45.794664, 0.0 ], [ -67.467027, -45.794701, 0.0 ], [ -67.467741, -45.794745, 0.0 ], [ -67.468699, -45.794804, 0.0 ], [ -67.470813, -45.794937, 0.0 ], [ -67.472534, -45.795018, 0.0 ], [ -67.47314, -45.795062, 0.0 ], [ -67.473317, -45.795062, 0.0 ], [ -67.473422, -45.795033, 0.0 ], [ -67.473463, -45.794916, 0.0 ], [ -67.47362, -45.794887, 0.0 ], [ -67.473933, -45.794916, 0.0 ], [ -67.474443, -45.79496, 0.0 ], [ -67.474579, -45.795011, 0.0 ], [ -67.474631, -45.795077, 0.0 ], [ -67.474703, -45.795171, 0.0 ], [ -67.475005, -45.7952, 0.0 ], [ -67.477913, -45.795382, 0.0 ], [ -67.482155, -45.795642, 0.0 ], [ -67.484776, -45.795774, 0.0 ], [ -67.489193, -45.795966, 0.0 ], [ -67.48928, -45.795534, 0.0 ], [ -67.489339, -45.795071, 0.0 ], [ -67.489339, -45.794948, 0.0 ], [ -67.489251, -45.794866, 0.0 ], [ -67.488957, -45.794825, 0.0 ], [ -67.48759, -45.794763, 0.0 ], [ -67.486171, -45.794649, 0.0 ], [ -67.484794, -45.794597, 0.0 ], [ -67.484022, -45.794524, 0.0 ], [ -67.483799, -45.794514, 0.0 ], [ -67.483799, -45.79441, 0.0 ], [ -67.483858, -45.794328, 0.0 ], [ -67.483992, -45.794131, 0.0 ], [ -67.4842, -45.793986, 0.0 ], [ -67.484465, -45.793994, 0.0 ], [ -67.489381, -45.794284, 0.0 ], [ -67.490887, -45.79438, 0.0 ], [ -67.491112, -45.794386, 0.0 ], [ -67.491273, -45.794398, 0.0 ], [ -67.491465, -45.794442, 0.0 ], [ -67.491658, -45.794493, 0.0 ], [ -67.491802, -45.794476, 0.0 ], [ -67.491937, -45.79447, 0.0 ], [ -67.492145, -45.794443, 0.0 ], [ -67.492297, -45.79442, 0.0 ], [ -67.492481, -45.79442, 0.0 ], [ -67.492617, -45.794482, 0.0 ], [ -67.492761, -45.794615, 0.0 ], [ -67.492745, -45.794777, 0.0 ], [ -67.492745, -45.794849, 0.0 ], [ -67.492665, -45.794933, 0.0 ], [ -67.492489, -45.795095, 0.0 ], [ -67.492289, -45.795162, 0.0 ], [ -67.492097, -45.795262, 0.0 ], [ -67.491985, -45.795379, 0.0 ], [ -67.491719, -45.795767, 0.0 ], [ -67.491485, -45.796173, 0.0 ], [ -67.491191, -45.796643, 0.0 ], [ -67.490867, -45.797058, 0.0 ], [ -67.490365, -45.797455, 0.0 ], [ -67.489714, -45.797883, 0.0 ], [ -67.489198, -45.798104, 0.0 ], [ -67.488581, -45.798303, 0.0 ], [ -67.488067, -45.798481, 0.0 ], [ -67.487271, -45.798712, 0.0 ], [ -67.486247, -45.799017, 0.0 ], [ -67.485411, -45.79929, 0.0 ], [ -67.482479, -45.800238, 0.0 ], [ -67.481306, -45.800601, 0.0 ], [ -67.480663, -45.800865, 0.0 ], [ -67.480015, -45.801149, 0.0 ], [ -67.479312, -45.801545, 0.0 ], [ -67.478756, -45.80188, 0.0 ], [ -67.478179, -45.802249, 0.0 ], [ -67.477534, -45.802699, 0.0 ], [ -67.477196, -45.802951, 0.0 ], [ -67.476889, -45.803247, 0.0 ], [ -67.4765, -45.803614, 0.0 ], [ -67.476172, -45.80398, 0.0 ], [ -67.475879, -45.804311, 0.0 ], [ -67.475508, -45.804846, 0.0 ], [ -67.475202, -45.805431, 0.0 ], [ -67.47473, -45.806266, 0.0 ], [ -67.473821, -45.807942, 0.0 ], [ -67.473471, -45.808631, 0.0 ], [ -67.473374, -45.808819, 0.0 ], [ -67.473303, -45.808982, 0.0 ], [ -67.473355, -45.80911, 0.0 ], [ -67.473564, -45.809328, 0.0 ], [ -67.474017, -45.809892, 0.0 ], [ -67.474113, -45.809948, 0.0 ], [ -67.474196, -45.809992, 0.0 ], [ -67.474329, -45.810027, 0.0 ], [ -67.474425, -45.810054, 0.0 ], [ -67.474533, -45.810137, 0.0 ], [ -67.474533, -45.810265, 0.0 ], [ -67.47445, -45.81035, 0.0 ], [ -67.474298, -45.810403, 0.0 ], [ -67.473884, -45.810549, 0.0 ], [ -67.473274, -45.810804, 0.0 ], [ -67.472805, -45.810972, 0.0 ], [ -67.472538, -45.811069, 0.0 ], [ -67.472366, -45.811175, 0.0 ], [ -67.472239, -45.811406, 0.0 ], [ -67.472098, -45.811614, 0.0 ], [ -67.471918, -45.811845, 0.0 ], [ -67.471692, -45.812175, 0.0 ], [ -67.471556, -45.812407, 0.0 ], [ -67.470804, -45.81385, 0.0 ], [ -67.470322, -45.814739, 0.0 ], [ -67.470178, -45.815026, 0.0 ], [ -67.470148, -45.815206, 0.0 ], [ -67.470175, -45.815287, 0.0 ], [ -67.470266, -45.815372, 0.0 ], [ -67.470581, -45.815412, 0.0 ], [ -67.471192, -45.815462, 0.0 ], [ -67.471616, -45.815484, 0.0 ], [ -67.472491, -45.815564, 0.0 ], [ -67.472618, -45.815604, 0.0 ], [ -67.472656, -45.815671, 0.0 ], [ -67.472655, -45.815786, 0.0 ], [ -67.472621, -45.815972, 0.0 ], [ -67.472543, -45.816082, 0.0 ], [ -67.472442, -45.816165, 0.0 ], [ -67.472194, -45.816312, 0.0 ], [ -67.471448, -45.816627, 0.0 ], [ -67.4708, -45.816906, 0.0 ], [ -67.470582, -45.817011, 0.0 ], [ -67.470423, -45.817155, 0.0 ], [ -67.469976, -45.817569, 0.0 ], [ -67.469761, -45.817655, 0.0 ], [ -67.469305, -45.817655, 0.0 ], [ -67.468802, -45.817681, 0.0 ], [ -67.468616, -45.817711, 0.0 ], [ -67.468483, -45.817762, 0.0 ], [ -67.468276, -45.817924, 0.0 ], [ -67.468077, -45.818132, 0.0 ], [ -67.467493, -45.818642, 0.0 ], [ -67.467255, -45.818778, 0.0 ], [ -67.466701, -45.819185, 0.0 ], [ -67.466209, -45.819556, 0.0 ], [ -67.465733, -45.819941, 0.0 ], [ -67.465466, -45.820295, 0.0 ], [ -67.465336, -45.820487, 0.0 ], [ -67.465281, -45.820765, 0.0 ], [ -67.465317, -45.820968, 0.0 ], [ -67.465292, -45.821256, 0.0 ], [ -67.465395, -45.821642, 0.0 ], [ -67.465749, -45.822281, 0.0 ], [ -67.466227, -45.823228, 0.0 ], [ -67.467196, -45.825126, 0.0 ], [ -67.467367, -45.82543, 0.0 ], [ -67.467623, -45.825911, 0.0 ], [ -67.467859, -45.826267, 0.0 ], [ -67.468033, -45.82654, 0.0 ], [ -67.468103, -45.826634, 0.0 ], [ -67.468473, -45.82694, 0.0 ], [ -67.468745, -45.82719, 0.0 ], [ -67.469451, -45.827727, 0.0 ], [ -67.469769, -45.827937, 0.0 ], [ -67.470262, -45.828294, 0.0 ], [ -67.4706, -45.828445, 0.0 ], [ -67.471302, -45.828816, 0.0 ], [ -67.471691, -45.829033, 0.0 ], [ -67.472672, -45.829579, 0.0 ], [ -67.473894, -45.830238, 0.0 ], [ -67.474813, -45.830748, 0.0 ], [ -67.475053, -45.830886, 0.0 ], [ -67.475289, -45.831002, 0.0 ], [ -67.475557, -45.83114, 0.0 ], [ -67.475833, -45.831316, 0.0 ], [ -67.47601, -45.831465, 0.0 ], [ -67.476118, -45.831589, 0.0 ], [ -67.476324, -45.831833, 0.0 ], [ -67.476444, -45.832, 0.0 ], [ -67.476668, -45.832282, 0.0 ], [ -67.477039, -45.832807, 0.0 ], [ -67.477254, -45.833102, 0.0 ], [ -67.477482, -45.833433, 0.0 ], [ -67.477633, -45.833634, 0.0 ], [ -67.477821, -45.833894, 0.0 ], [ -67.477935, -45.834028, 0.0 ], [ -67.478002, -45.834116, 0.0 ], [ -67.478095, -45.834183, 0.0 ], [ -67.478176, -45.834221, 0.0 ], [ -67.478315, -45.834244, 0.0 ], [ -67.478404, -45.834244, 0.0 ], [ -67.478529, -45.834236, 0.0 ], [ -67.478588, -45.83428, 0.0 ], [ -67.478597, -45.834368, 0.0 ], [ -67.478589, -45.834689, 0.0 ], [ -67.47856, -45.834938, 0.0 ], [ -67.478532, -45.835292, 0.0 ], [ -67.478409, -45.836762, 0.0 ], [ -67.478106, -45.838348, 0.0 ], [ -67.47811, -45.838451, 0.0 ], [ -67.478156, -45.838501, 0.0 ], [ -67.478308, -45.838557, 0.0 ], [ -67.478836, -45.838709, 0.0 ], [ -67.479058, -45.838756, 0.0 ], [ -67.479173, -45.838884, 0.0 ], [ -67.47923, -45.839017, 0.0 ], [ -67.479195, -45.839208, 0.0 ], [ -67.479153, -45.839446, 0.0 ], [ -67.479076, -45.839628, 0.0 ], [ -67.479021, -45.839699, 0.0 ], [ -67.478839, -45.839725, 0.0 ], [ -67.478438, -45.839731, 0.0 ], [ -67.477809, -45.839751, 0.0 ], [ -67.477226, -45.839758, 0.0 ], [ -67.476978, -45.839767, 0.0 ], [ -67.476752, -45.839811, 0.0 ], [ -67.476618, -45.839898, 0.0 ], [ -67.47651, -45.839999, 0.0 ], [ -67.476495, -45.840076, 0.0 ], [ -67.476493, -45.840166, 0.0 ], [ -67.476493, -45.84064, 0.0 ], [ -67.476491, -45.841046, 0.0 ], [ -67.476471, -45.84143, 0.0 ], [ -67.476436, -45.841792, 0.0 ], [ -67.476343, -45.842307, 0.0 ], [ -67.476286, -45.84284, 0.0 ], [ -67.47622, -45.843192, 0.0 ], [ -67.476151, -45.843507, 0.0 ], [ -67.475962, -45.844098, 0.0 ], [ -67.475519, -45.845458, 0.0 ], [ -67.475231, -45.846372, 0.0 ], [ -67.475194, -45.846593, 0.0 ], [ -67.475188, -45.846818, 0.0 ], [ -67.475244, -45.846997, 0.0 ], [ -67.47539, -45.847222, 0.0 ], [ -67.475589, -45.847423, 0.0 ], [ -67.475849, -45.847621, 0.0 ], [ -67.476452, -45.848059, 0.0 ], [ -67.476665, -45.848221, 0.0 ], [ -67.476941, -45.848492, 0.0 ], [ -67.477065, -45.848705, 0.0 ], [ -67.477193, -45.848908, 0.0 ], [ -67.477236, -45.849087, 0.0 ], [ -67.477263, -45.849267, 0.0 ], [ -67.477264, -45.849486, 0.0 ], [ -67.477205, -45.849773, 0.0 ], [ -67.477113, -45.850136, 0.0 ], [ -67.476853, -45.850991, 0.0 ], [ -67.476837, -45.851239, 0.0 ], [ -67.476841, -45.851522, 0.0 ], [ -67.476917, -45.85183, 0.0 ], [ -67.477076, -45.852143, 0.0 ], [ -67.477318, -45.852474, 0.0 ], [ -67.477598, -45.852894, 0.0 ], [ -67.477715, -45.853109, 0.0 ], [ -67.477789, -45.853288, 0.0 ], [ -67.47782, -45.853456, 0.0 ], [ -67.477841, -45.853633, 0.0 ], [ -67.477805, -45.853832, 0.0 ], [ -67.477737, -45.854018, 0.0 ], [ -67.47763, -45.854186, 0.0 ], [ -67.477476, -45.854354, 0.0 ], [ -67.477237, -45.85452, 0.0 ], [ -67.476991, -45.854696, 0.0 ], [ -67.476764, -45.854873, 0.0 ], [ -67.476601, -45.855033, 0.0 ], [ -67.476414, -45.855245, 0.0 ], [ -67.476291, -45.855493, 0.0 ], [ -67.476224, -45.855804, 0.0 ], [ -67.476229, -45.85622, 0.0 ], [ -67.476214, -45.856499, 0.0 ], [ -67.476161, -45.856802, 0.0 ], [ -67.476027, -45.857284, 0.0 ], [ -67.475918, -45.857689, 0.0 ], [ -67.475774, -45.858151, 0.0 ], [ -67.475701, -45.858444, 0.0 ], [ -67.475701, -45.858765, 0.0 ], [ -67.475898, -45.859254, 0.0 ], [ -67.476798, -45.859938, 0.0 ], [ -67.481525, -45.859942, 0.0 ], [ -67.484317, -45.859963, 0.0 ], [ -67.4845, -45.860008, 0.0 ], [ -67.484543, -45.860126, 0.0 ], [ -67.484494, -45.8635, 0.0 ], [ -67.484506, -45.8658, 0.0 ], [ -67.484768, -45.866041, 0.0 ], [ -67.485402, -45.866285, 0.0 ], [ -67.486444, -45.866883, 0.0 ], [ -67.487382, -45.867464, 0.0 ], [ -67.488095, -45.867961, 0.0 ], [ -67.488788, -45.868531, 0.0 ], [ -67.489073, -45.868716, 0.0 ], [ -67.491989, -45.870828, 0.0 ], [ -67.493398, -45.87157, 0.0 ], [ -67.493349, -45.871682, 0.0 ], [ -67.493227, -45.871764, 0.0 ], [ -67.493074, -45.871913, 0.0 ], [ -67.492949, -45.872017, 0.0 ] ] ] } }
]
}
