{
"type": "FeatureCollection",
"name": "linea-4",
"crs": { "type": "name", "properties": { "name": "urn:ogc:def:crs:OGC:1.3:CRS84" } },
"features": [
{ "type": "Feature", "properties": { "fid": 1, "linea": "4", "sentido": "ida", "nombre": "Abel Amaya - Estadio Centenario" }, "geometry": { "type": "LineString", "coordinates": [ [ -67.550015, -45.883954, 0.0 ], [ -67.548184, -45.883866, 0.0 ], [ -67.54824, -45.883615, 0.0 ], [ -67.549053, -45.883084, 0.0 ], [ -67.54888, -45.882941, 0.0 ], [ -67.545958, -45.880719, 0.0 ], [ -67.545773, -45.880599, 0.0 ], [ -67.540361, -45.876428, 0.0 ], [ -67.536173, -45.873184, 0.0 ], [ -67.534583, -45.874139, 0.0 ], [ -67.533481, -45.874877, 0.0 ], [ -67.527475, -45.878711, 0.0 ], [ -67.52731, -45.878688, 0.0 ], [ -67.525281, -45.877118, 0.0 ], [ -67.525149, -45.87708, 0.0 ], [ -67.524811, -45.876834, 0.0 ], [ -67.524757, -45.876711, 0.0 ], [ -67.519797, -45.872965, 0.0 ], [ -67.517219, -45.87103, 0.0 ], [ -67.517024, -45.87103, 0.0 ], [ -67.514638, -45.872585, 0.0 ], [ -67.510561, -45.875153, 0.0 ], [ -67.508091, -45.876742, 0.0 ], [ -67.505971, -45.877727, 0.0 ], [ -67.505813, -45.877806, 0.0 ], [ -67.505701, -45.877915, 0.0 ], [ -67.505411, -45.877783, 0.0 ], [ -67.502274, -45.876423, 0.0 ], [ -67.501629, -45.876145, 0.0 ], [ -67.501462, -45.876067, 0.0 ], [ -67.501362, -45.875943, 0.0 ], [ -67.500533, -45.875449, 0.0 ], [ -67.499709, -45.87488, 0.0 ], [ -67.499373, -45.874724, 0.0 ], [ -67.498876, -45.874575, 0.0 ], [ -67.498419, -45.874574, 0.0 ], [ -67.498075, -45.874612, 0.0 ], [ -67.49775, -45.874746, 0.0 ], [ -67.497276, -45.874982, 0.0 ], [ -67.496911, -45.875156, 0.0 ], [ -67.496341, -45.87533, 0.0 ], [ -67.495818, -45.875362, 0.0 ], [ -67.49534, -45.875259, 0.0 ], [ -67.494387, -45.874718, 0.0 ], [ -67.493489, -45.874131, 0.0 ], [ -67.491761, -45.873075, 0.0 ], [ -67.490121, -45.872033, 0.0 ], [ -67.490848, -45.871365, 0.0 ], [ -67.489559, -45.870516, 0.0 ], [ -67.488995, -45.870193, 0.0 ], [ -67.488802, -45.870031, 0.0 ], [ -67.488688, -45.870015, 0.0 ], [ -67.48862, -45.869952, 0.0 ], [ -67.488009, -45.869595, 0.0 ], [ -67.487752, -45.869556, 0.0 ], [ -67.487461, -45.869502, 0.0 ], [ -67.487141, -45.869293, 0.0 ], [ -67.486731, -45.869049, 0.0 ], [ -67.486473, -45.868877, 0.0 ], [ -67.486429, -45.868791, 0.0 ], [ -67.486374, -45.868066, 0.0 ], [ -67.484351, -45.868037, 0.0 ], [ -67.484246, -45.868131, 0.0 ], [ -67.480178, -45.866265, 0.0 ], [ -67.480043, -45.866194, 0.0 ], [ -67.479964, -45.866092, 0.0 ], [ -67.479931, -45.865967, 0.0 ], [ -67.479911, -45.864617, 0.0 ], [ -67.47984, -45.864415, 0.0 ], [ -67.479545, -45.864362, 0.0 ], [ -67.47685, -45.86376, 0.0 ], [ -67.475767, -45.863593, 0.0 ], [ -67.4755, -45.8635, 0.0 ], [ -67.475226, -45.863382, 0.0 ], [ -67.475154, -45.863205, 0.0 ], [ -67.475062, -45.862902, 0.0 ], [ -67.474902, -45.862572, 0.0 ], [ -67.474628, -45.862368, 0.0 ], [ -67.474564, -45.862218, 0.0 ], [ -67.474652, -45.862127, 0.0 ], [ -67.474909, -45.862128, 0.0 ], [ -67.481387, -45.862123, 0.0 ], [ -67.481531, -45.862304, 0.0 ], [ -67.481534, -45.864558, 0.0 ], [ -67.48167, -45.864668, 0.0 ], [ -67.482588, -45.865068, 0.0 ], [ -67.483466, -45.865489, 0.0 ], [ -67.4843, -45.865847, 0.0 ], [ -67.484739, -45.866031, 0.0 ], [ -67.485251, -45.866225, 0.0 ], [ -67.48565, -45.866393, 0.0 ], [ -67.48617, -45.866676, 0.0 ], [ -67.486686, -45.866959, 0.0 ], [ -67.487076, -45.86719, 0.0 ], [ -67.487452, -45.867492, 0.0 ], [ -67.4881, -45.867963, 0.0 ], [ -67.48873, -45.868409, 0.0 ], [ -67.489318, -45.868851, 0.0 ], [ -67.489957, -45.869328, 0.0 ], [ -67.490705, -45.869887, 0.0 ], [ -67.491317, -45.870343, 0.0 ], [ -67.491944, -45.870788, 0.0 ], [ -67.493303, -45.871446, 0.0 ], [ -67.493386, -45.871506, 0.0 ], [ -67.4934, -45.871608, 0.0 ], [ -67.493304, -45.87173, 0.0 ], [ -67.492878, -45.872011, 0.0 ] ] } },
{ "type": "Feature", "properties": { "fid": 2, "linea": "4", "sentido": "vuelta", "nombre": "Abel Amaya - Estado Centenario" }, "geometry": { "type": "LineString", "coordinates": [ [ -67.492673, -45.872222, 0.0 ], [ -67.491956, -45.872766, 0.0 ], [ -67.491668, -45.872909, 0.0 ], [ -67.49142, -45.872831, 0.0 ], [ -67.489508, -45.871695, 0.0 ], [ -67.486492, -45.869864, 0.0 ], [ -67.486304, -45.869695, 0.0 ], [ -67.486269, -45.86948, 0.0 ], [ -67.486247, -45.869154, 0.0 ], [ -67.486117, -45.869003, 0.0 ], [ -67.485804, -45.868858, 0.0 ], [ -67.480368, -45.86636, 0.0 ], [ -67.480127, -45.866232, 0.0 ], [ -67.480004, -45.86613, 0.0 ], [ -67.479931, -45.86597, 0.0 ], [ -67.47994, -45.86584, 0.0 ], [ -67.479949, -45.864602, 0.0 ], [ -67.479899, -45.864518, 0.0 ], [ -67.479774, -45.86446, 0.0 ], [ -67.479406, -45.86439, 0.0 ], [ -67.476879, -45.863833, 0.0 ], [ -67.476275, -45.86371, 0.0 ], [ -67.475992, -45.863625, 0.0 ], [ -67.475727, -45.863596, 0.0 ], [ -67.475357, -45.863463, 0.0 ], [ -67.475162, -45.863221, 0.0 ], [ -67.475082, -45.86286, 0.0 ], [ -67.47482, -45.862551, 0.0 ], [ -67.474609, -45.862324, 0.0 ], [ -67.474528, -45.862227, 0.0 ], [ -67.47459, -45.862156, 0.0 ], [ -67.474838, -45.862131, 0.0 ], [ -67.481372, -45.862152, 0.0 ], [ -67.48148, -45.862217, 0.0 ], [ -67.481472, -45.862442, 0.0 ], [ -67.48149, -45.863037, 0.0 ], [ -67.481505, -45.864428, 0.0 ], [ -67.481525, -45.864558, 0.0 ], [ -67.481633, -45.86464, 0.0 ], [ -67.481971, -45.864784, 0.0 ], [ -67.484344, -45.865848, 0.0 ], [ -67.484592, -45.866002, 0.0 ], [ -67.484917, -45.866124, 0.0 ], [ -67.485359, -45.866277, 0.0 ], [ -67.485672, -45.866377, 0.0 ], [ -67.486021, -45.866588, 0.0 ], [ -67.486863, -45.867077, 0.0 ], [ -67.487732, -45.867656, 0.0 ], [ -67.488553, -45.868252, 0.0 ], [ -67.489302, -45.86882, 0.0 ], [ -67.490309, -45.86959, 0.0 ], [ -67.49055, -45.869785, 0.0 ], [ -67.490952, -45.870084, 0.0 ], [ -67.491375, -45.870385, 0.0 ], [ -67.491831, -45.870689, 0.0 ], [ -67.492776, -45.871167, 0.0 ], [ -67.493673, -45.871584, 0.0 ], [ -67.494821, -45.872114, 0.0 ], [ -67.495984, -45.87255, 0.0 ], [ -67.496686, -45.872848, 0.0 ], [ -67.497193, -45.873079, 0.0 ], [ -67.497603, -45.873293, 0.0 ], [ -67.498026, -45.87357, 0.0 ], [ -67.498633, -45.873933, 0.0 ], [ -67.498986, -45.874224, 0.0 ], [ -67.499381, -45.874546, 0.0 ], [ -67.499852, -45.874876, 0.0 ], [ -67.500276, -45.875187, 0.0 ], [ -67.500668, -45.875441, 0.0 ], [ -67.501115, -45.875685, 0.0 ], [ -67.501658, -45.875924, 0.0 ], [ -67.502684, -45.87636, 0.0 ], [ -67.503504, -45.876693, 0.0 ], [ -67.503622, -45.876703, 0.0 ], [ -67.503713, -45.876722, 0.0 ], [ -67.504016, -45.876828, 0.0 ], [ -67.505674, -45.877541, 0.0 ], [ -67.505836, -45.877609, 0.0 ], [ -67.506058, -45.877586, 0.0 ], [ -67.506885, -45.87717, 0.0 ], [ -67.507956, -45.87669, 0.0 ], [ -67.508236, -45.876495, 0.0 ], [ -67.512309, -45.87389, 0.0 ], [ -67.515806, -45.871641, 0.0 ], [ -67.516713, -45.87104, 0.0 ], [ -67.516941, -45.870926, 0.0 ], [ -67.517048, -45.87087, 0.0 ], [ -67.517323, -45.870975, 0.0 ], [ -67.517486, -45.871053, 0.0 ], [ -67.519303, -45.87242, 0.0 ], [ -67.522335, -45.874728, 0.0 ], [ -67.524818, -45.87655, 0.0 ], [ -67.525005, -45.876689, 0.0 ], [ -67.525341, -45.876913, 0.0 ], [ -67.525497, -45.877093, 0.0 ], [ -67.525691, -45.877309, 0.0 ], [ -67.526531, -45.877906, 0.0 ], [ -67.527343, -45.878549, 0.0 ], [ -67.527439, -45.878567, 0.0 ], [ -67.527562, -45.878509, 0.0 ], [ -67.528341, -45.877979, 0.0 ], [ -67.533153, -45.874933, 0.0 ], [ -67.535971, -45.87312, 0.0 ], [ -67.536041, -45.873089, 0.0 ], [ -67.53613, -45.873058, 0.0 ], [ -67.536283, -45.873133, 0.0 ], [ -67.536455, -45.873253, 0.0 ], [ -67.539394, -45.875515, 0.0 ], [ -67.543493, -45.878622, 0.0 ], [ -67.545734, -45.880337, 0.0 ], [ -67.546481, -45.880944, 0.0 ], [ -67.547723, -45.881879, 0.0 ], [ -67.549288, -45.883051, 0.0 ], [ -67.549857, -45.883493, 0.0 ], [ -67.550025, -45.883637, 0.0 ], [ -67.550051, -45.883768, 0.0 ], [ -67.55005, -45.883876, 0.0 ] ] } }
]
}
